PIC_ID,WETLAND_NAME,ADDRESS,LATITUDE,LONGITUDE,WETLAND_TYPE
1,마분재습지,전라북도 무주군 안성면 진도리,"N35°52’46.88""","E127°36’41.61""",소택지
2,도소습지,전라북도 무주군 부남면 대소리,"N35°58’31.71""","E127°32’48.96""",하도습지
3,월현습지,전라북도 장수군 계북면 월현리,"N35°47’10.92""","E127°35’47.53""",소택지
4,신흥습지(장수),전라북도 장수군 천천면 연평리,"N35°47’43.99""","E127°33’05.53""",소택지
5,가막습지,전라북도 진안군 진안읍 가막리,"N35°49’36.79""","E127°31’03.89""",하도습지
6,문성습지,전라북도 장수군 계북면 어전리,"N35°47’03.90""","E127°37’51.50""",소택지
7,장기습지,경상남도 거창군 위천면 장기리,"N35°45’08.02""","E127°49’56.74""",하도습지
8,궁대습지,전라북도 무주군 안성면 금평리,"N35°52’07.28""","E127°41’08.55""",인공호습지
9,라제습지,전라북도 무주군 설천면 두길리,"N35°59’37.97""","E127°47’45.33""",하도습지
10,무풍습지,전라북도 무주군 무풍면 철목리,"N35°58’15.34""","E127°50’08.32""",하도습지
11,원증산습지,전라북도 무주군 무풍면 은산리,"N35°56’43.32""","E127°50’28.46""",하도습지
12,서당골습지,경상북도 김천시 부항면 유촌리,"N35°59’49.87""","E127°59’31.68""",소택지
13,구남습지,경상북도 김천시 부항면 희곡리,"N35°59’09.02""","E127°58’09.15""",하도습지
14,퉁점습지,경상북도 김천시 부항면 어전리,"N35°58’48.44""","E127°56’06.92""",하도습지
15,고제습지,경상남도 거창군 고제면 개명리,"N35°49’35.87""","E127°51’25.02""",인공호습지
16,학림지습지,경상남도 거창군 고제면 궁항리,"N35°50’33.41""","E127°52’53.28""",인공호습지
17,금천리 보습지,경상남도 함양군 안의면 금천리,"N35°37’38.28""","E127°48’55.17""",하도습지
18,월평리 보습지,경상남도 거창군 거창읍 대평리,"N35°41’01.99""","E127°56’18.37""",보습지
19,임불리 인공호습지,경상남도 거창군 남상면 임불리,"N35°38’06.07""","E127°58’56.90""",인공호습지
20,술곡리 묵논습지,경상남도 합천군 봉산면 술곡리,"N35°34’31.67""","E127°59’57.19""",소택지
21,하금리 인공호습지,경상남도 합천군 대병면 하금리,"N35°32’02.80""","E127°59’49.96""",인공호습지
22,평촌리 하도습지,경상남도 산청군 생초면 갈전리,"N35°29’13.98""","E127°50’12.26""",하도습지
23,율현지 하도습지,경상남도 산청군 신등면 율현리,"N35°25’27.31""","E127°57’51.46""",하도습지
24,하정리 하도습지,경상남도 산청군 신안면 하정리,"N35°17’58.96""","E127°58’32.29""",하도습지
25,당촌리 묵논습지,경상남도 진주시 대평면 당촌리,"N35°10’14.99""","E127°58’16.08""",소택지
26,창촌리 보습지,경상남도 진주시 수곡면 창촌리,"N35°11’08.12""","E127°54’27.19""",보습지
27,신월리 구하도습지,경상남도 하동군 하동읍 목도리,"N35°02’11.33""","E127°47’20.31""",우각호습지
28,진교리 하구염습지,경상남도 하동군 진교면 송원리,"N35°01’25.61""","E127°54’30.34""",하구염습지
29,낭포리 간척호습지,경상남도 하동군 진교면 송원리,"N35°00’51.87""","E127°55’12.48""",간척호습지
30,곤양저수지,경상남도 사천시 곤양면 송전리,"N35°04’00.35""","E127°58’18.66""",인공호습지
31,매촌리 보습지,경상북도 고령군 쌍림면 매촌리,"N35°40’42.80""","E128°13’45.11""",보습지
32,하거리 보습지,경상북도 고령군 쌍림면 신촌리,"N35°40’16.98""","E128°11’31.76""",보습지
33,역평리 묵논습지,경상남도 합천군 대병면 역평리,"N35°33’43.91""","E128°00’45.78""",소택지
34,합천리 하도습지,경상남도 합천군 용주면 성산리,"N35°33’59.12""","E128°08’19.23""",하도습지
35,제내리 하도습지,경상남도 합천군 율곡면 제내리,"N35°34’42.06""","E128°12’48.30""",하도습지
36,월지습지,경상북도 상주시 사벌면 목가리,"N36°30’07.19""","E128°11’18.93""",담수호습지
37,문림리 소택지,경상남도 합천군 율곡면 문림리,"N35°34’00.59""","E128°11’43.81""",담수호습지
38,소오리 보습지,경상남도 합천군 삼가면 소오리,"N35°24’39.03""","E128°06’15.56""",보습지
39,금리 하도습지,경상남도 합천군 삼가면 양전리,"N35°25’19.25""","E128°07’40.60""",하도습지
40,청현리 하도습지,경상남도 산청군 신안면 문대리,"N35°19’28.22""","E128°00’10.28""",하도습지
41,남성저수지습지,경상남도 진주시 명석면 남성리,"N35°16’49.74""","E128°03’16.08""",인공호습지
42,장재못 우각호습지,경상남도 진주시 집현면 장흥리,"N35°13’45.28""","E128°06’07.59""",우각호습지
43,서원못 우각호습지,경상남도 진주시 집현면 장흥리,"N35°13’46.16""","E128°06’21.88""",우각호습지
44,정자리 묵논습지,경상남도 진주시 금곡면 정자리,"N35°07’46.77""","E128°10’20.29""",소택지
45,가진리 하도습지,경상남도 진주시 진성면 가진리,"N35°12’37.10""","E128°13’11.21""",하도습지
46,신당리 하도습지,경상남도 진주시 금산면 장사리,"N35°14’11.10""","E128°08’28.38""",하도습지
47,중항리하구염습지,경상남도 사천시 곤양면 환덕리,"N35°03’04.87""","E128°00’48.02""",하구염습지
48,검우리 하구염습지,경상남도 사천시 곤양면 가화리,"N35°04’57.30""","E128°02’00.87""",하구염습지
49,두문리 보습지,경상남도 고성군 영오면 오서리,"N35°05’46.40""","E128°11’38.76""",보습지
50,성곡리 하도습지,경상남도 고성군 영오면 영산리,"N35°06’31.79""","E128°14’00.01""",하도습지
51,용곡습지,충청북도 보은군 회인면 용곡리,"N36°27’48.44""","E127°35’17.44""",하도습지
52,법수습지,충청북도 보은군 회남면 법수리,"N36°25’52.68""","E127°32’03.51""",인공수로습지
53,둔덕습지,충청북도 보은군 삼승면 둔덕리,"N36°27’05.91""","E127°43’20.02""",인공호습지
54,조령습지,충청북도 옥천군 동이면 조령리,"N36°17’15.08""","E127°41’23.14""",소택지
55,장수습지,충청북도 옥천군 청성면 장수리,"N36°18’15.82""","E127°43’33.44""",하도습지
56,포동습지,충청북도 옥천군 이원면 지탄리,"N36°15’00.62""","E127°41’25.63""",인공호습지
57,길현습지,충청북도 영동군 심천면 길현리,"N36°15’44.76""","E127°43’45.27""",인공호습지
58,동관습지,경상북도 상주시 화남면 동관리,"N36°28’47.04""","E127°55’45.48""",소택지
59,소곡습지,경상북도 상주시 화남면 소곡리,"N36°23’48.61""","E127°55’18.50""",소택지
60,무동습지,경상북도 상주시 화서면 상현리,"N36°26’43.05""","E127°56’42.55""",인공호습지
61,봉산습지(상주),경상북도 상주시 화서면 금산리,"N36°25’20.47""","E127°55’28.09""",인공호습지
62,조천습지(옥천),충청북도 옥천군 청성면 조천리,"N36°17’11.12""","E127°45’33.27""",소택지
63,보청습지,충청북도 옥천군 청성면 산계리,"N36°19’05.25""","E127°45’18.65""",하도습지
64,화현습지,경상북도 상주시 모서면 화현리,"N36°20’01.38""","E127°56’24.13""",소택지
65,길곡습지,충청남도 금산군 제원면 길곡리,"N36°09’40.86""","E127°33’42.68""",소택지
66,보광습지(금산),충청남도 금산군 군북면 보광리,"N36°11’33.63""","E127°32’29.77""",소택지
67,마곡습지,충청북도 영동군 심천면 마곡리,"N36°12’01.92""","E127°39’35.36""",소택지
68,명천습지,충청북도 영동군 심천면 명천리,"N36°10’02.75""","E127°42’29.06""",소택지
69,호탄습지,충청북도 영동군 양산면 호탄리,"N36°07’35.49""","E127°38’20.18""",하도습지
70,금성습지(금산),충청남도 금산군 제원면 금성리,"N36°05’52.47""","E127°33’24.46""",소택지
71,신촌습지(금산),충청남도 금산군 부리면 신촌리,"N36°04’48.53""","E127°33’54.14""",하도습지
72,수탱이습지,충청남도 금산군 제원면 수당리,"N36°06’57.73""","E127°31’22.72""",인공호습지
73,내도습지,전라북도 무주군 무주읍 내도리,"N36°03’06.55""","E127°39’08.68""",소택지
74,산저습지,충청북도 영동군 용산면 산저리,"N36°14’14.56""","E127°48’52.26""",하도습지
75,수원습지,충청북도 영동군 매곡면 수원리,"N36°10’16.87""","E127°55’40.14""",하도습지
76,개금습지,전라북도 무주군 설천면 청량리,"N36°00’33.08""","E127°46’05.99""",소택지
77,모전습지,충청북도 영동군 상촌면 둔전리,"N36°05’34.29""","E127°50’51.08""",하도습지
78,까마실습지,경상북도 김천시 부항면 파천리,"N36°00’56.73""","E127°56’41.15""",소택지
79,파천습지,경상북도 김천시 부항면 파천리,"N36°01’17.95""","E127°55’21.42""",하도습지
80,개골습지,경상북도 김천시 구성면 임천리,"N36°01’23.14""","E127°59’44.18""",인공호습지
81,흑목습지,충청북도 충주시 동량면 지동리,"N36°59’52.83""","E128°02’11.80""",소택지
82,죽령습지,충청북도 단양군 대강면,"N36°53’56.24""","E128°26’00.96""",저습지
83,덕천습지,충청북도 단양군 가곡면 덕천리,"N36°59’54.68""","E128°22’37.24""",하도습지
84,구익지습지,충청북도 단양군 가곡면 어의곡리,"N36°59’50.19""","E128°26’20.09""",담수호습지
85,창락지습지,경상북도 영주시 풍기읍 창락리,"N36°53’06.80""","E128°29’01.46""",담수호습지
86,저수령습지,충청북도 단양군 대강면,"N36°48’20.91""","E128°21’46.89""",저습지
87,문봉재습지,충청북도 단양군 대강면,"N36°48’31.63""","E128°21’24.74""",소택지
88,토골습지,경상북도 영주시 봉현면 두산리,"N36°50’39.85""","E128°28’06.37""",저층습원
89,고항리습지,경상북도 예천군 효자면 고항리,"N36°49’55.33""","E128°27’43.71""",소택지
90,한티습지,경상북도 영주시 봉현면 하촌리,"N36°46’57.48""","E128°29’02.51""",소택지
91,내현습지,경상북도 예천군 효자면 명봉리,"N36°45’38.95""","E128°23’05.70""",저층습원
92,보곡지습지,경상북도 예천군 효자면 보곡리,"N36°46’45.13""","E128°26’49.35""",담수호습지
93,석교습지(문경),경상북도 문경시 마성면 하내리,"N36°40’10.32""","E128°06’03.56""",저습지
94,굴봉산 돌리네습지,경상북도 문경시 산북면 우곡리,"N36°42’21.88""","E128°13’29.92""",담수호습지
95,틀모산못습지,경상북도 문경시 호계면 견탄리,"N36°38’19.99""","E128°09’45.47""",담수호습지
96,작약산습지,경상북도 문경시 가은읍 갈전리,"N36°36’38.95""","E128°04’40.89""",저층습원
97,수예리습지,경상북도 문경시 가은읍 수예리,"N36°35’47.38""","E128°04’00.42""",저습지
98,농암습지,경상북도 문경시 농암면 율수리,"N36°33’25.55""","E128°00’12.33""",저습지
99,팽정습지,경상북도 상주시 함창읍 신덕리,"N36°31’33.39""","E128°11’03.57""",소택지
100,이안습지,경상북도 상주시 이안면 가장리,"N36°32’40.08""","E128°09’04.46""",하도습지
101,대조못습지,경상북도 상주시 함창읍 대조리,"N36°34’44.01""","E128°10’11.29""",담수호습지
102,여물지습지,경상북도 상주시 이안면 여물리,"N36°32’58.68""","E128°07’57.05""",담수호습지
103,죽안습지,경상북도 예천군 유천면 죽안리,"N36°39’30.32""","E128°20’47.25""",저습지
104,우본지습지,경상북도 문경시 산양면 우본리,"N36°37’40.05""","E128°17’14.94""",담수호습지
105,어화습지,경상북도 예천군 지보면 마산리,"N36°33’45.44""","E128°21’26.89""",소택지
106,금천습지(예천),경상북도 예천군 용궁면 금남리,"N36°36’02.07""","E128°16’13.92""",하도습지
107,연화지습지,경상북도 문경시 산양면 연소리,"N36°36’48.11""","E128°16’04.23""",담수호습지
108,산택지습지,경상북도 예천군 용궁면 산택리,"N36°36’30.24""","E128°17’56.97""",담수호습지
109,원당지습지(예천),경상북도 예천군 용궁면 무이리,"N36°35’43.25""","E128°17’35.72""",담수호습지
110,달지저수지,경상북도 문경시 영순면 달지리,"N36°34’18.53""","E128°17’00.75""",담수호습지
111,참나무실못습지,경상북도 문경시 영순면 사근리,"N36°34’52.34""","E128°15’17.75""",담수호습지
112,화신천습지,경상북도 의성군 안사면 쌍호리,"N36°30’43.90""","E128°24’58.93""",하도습지
113,광산천우각호습지,경상북도 안동시 풍천면 신성리,"N36°31’32.19""","E128°26’27.82""",우각호습지
114,길령골습지,강원도 인제군 남면 정자리,"N37°57’47.55""","E128°12’36.57""",소택지
115,서리습지,강원도 인제군 기린면 서리,"N37°57’43.97""","E128°13’23.54""",소택지
116,계수동습지,강원도 인제군 상남면 미산리,"N37°50’34.00""","E128°18’58.23""",소택지
117,현천리습지(횡성),강원도 횡성군 둔내면 현천리,"N37°29’47.62""","E128°10’02.00""",소택지
118,칠송배기습지,강원도 횡성군 둔내면 현천리,"N37°30’23.49""","E128°09’41.00""",소택지
119,절골습지,강원도 원주시 신림면 구학리,"N37°12’17.33""","E128°02’43.71""",저층습원
120,장릉물무골습지,강원도 영월군 영월읍 영흥리,"N37°11’59.52""","E128°26’59.75""",저습지
121,입석지습지,충청북도 제천시 송학면 입석리,"N37°12’21.10""","E128°17’50.96""",담수호습지
122,성유리습지,경상북도 문경시 가은읍 전곡리,"N36°36’59.07""","E128°01’57.95""",하도습지
123,사장밭1습지,제주특별자치도 제주시 한경면 두모리,"N33°21’13.09""","E126°11’33.20""",소택지
124,사장밭2습지,제주특별자치도 제주시 한경면 두모리,"N33°21’12.09""","E126°11’21.22""",소택지
125,비비논물 옆 묵논습지,제주특별자치도 제주시 한경면 신창리,"N33°20’44.99""","E126°11’03.46""",소택지
126,광쟁이1습지,제주특별자치도 제주시 한경면 용수리,"N33°19’43.64""","E126°10’36.73""",소택지
127,광쟁이2습지,제주특별자치도 제주시 한경면 용수리,"N33°19’42.70""","E126°10’33.46""",소택지
128,도루목이습지,제주특별자치도 제주시 한경면 용수리,"N33°19’33.73""","E126°10’27.69""",소택지
129,소로곳물,제주특별자치도 제주시 한경면 판포리,"N33°21’31.64""","E126°12’36.81""",담수호습지
130,판포오름 남쪽습지,제주특별자치도 제주시 한경면 판포리,"N33°21’21.54""","E126°12’52.02""",담수호습지
131,먼못,제주특별자치도 제주시 한경면 두모리,"N33°21’11.47""","E126°11’08.58""",담수호습지
132,수장동습지,제주특별자치도 제주시 한경면 판포리,"N33°20’59.32""","E126°12’34.35""",담수호습지
133,서리논 구진물,제주특별자치도 제주시 한경면 두모리,"N33°20’13.42""","E126°11’42.93""",담수호습지
134,장태물,제주특별자치도 제주시 한경면 두모리,"N33°20’27.53""","E126°12’02.93""",담수호습지
135,돗곳물,제주특별자치도 제주시 한경면 조수리,"N33°20’13.90""","E126°13’17.43""",담수호습지
136,용선달리물,제주특별자치도 제주시 한경면 낙천리,"N33°19’59.71""","E126°14’14.64""",담수호습지
137,저갈물,제주특별자치도 제주시 한경면 낙천리,"N33°19’31.65""","E126°13’39.86""",담수호습지
138,새물(낙천),제주특별자치도 제주시 한경면 낙천리,"N33°19’19.65""","E126°13’36.20""",담수호습지
139,금오름 화구호,제주특별자치도 제주시 한림읍 금악리,"N33°21’22.15""","E126°18’20.61""",담수호습지
140,무두왓,제주특별자치도 제주시 한림읍 금악리,"N33°21’24.80""","E126°17’39.53""",담수호습지
141,중천이물,제주특별자치도 제주시 한림읍 상명리,"N33°21’28.57""","E126°16’21.00""",담수호습지
142,되빌레못,제주특별자치도 제주시 한경면 저지리,"N33°20’09.58""","E126°16’09.60""",담수호습지
143,명이동물,제주특별자치도 제주시 한경면 저지리,"N33°19’09.57""","E126°16’05.75""",담수호습지
144,고문된알물,제주특별자치도 제주시 한경면 청수리,"N33°18’53.68""","E126°15’10.60""",담수호습지
145,사생이못,제주특별자치도 서귀포시 대정읍 신평리,"N33°16’17.63""","E126°15’49.85""",담수호습지
146,옹구수1,제주특별자치도 서귀포시 대정읍 보성리,"N33°16’15.36""","E126°16’19.69""",담수호습지
147,옹구수2,제주특별자치도 서귀포시 대정읍 보성리,"N33°16’13.63""","E126°16’18.88""",담수호습지
148,자록물,제주특별자치도 서귀포시 대정읍 무릉리,"N33°17’21.43""","E126°14’52.45""",담수호습지
149,사계천 하도습지,제주특별자치도 서귀포시 안덕면 사계리,"N33°13’26.64""","E126°17’42.23""",하도습지
150,남문지왓습지,제주특별자치도 서귀포시 대정읍 인성리,"N33°14’37.64""","E126°16’33.28""",담수호습지
151,숨굴왓습지,제주특별자치도 서귀포시 대정읍 하모리,"N33°13’42.21""","E126°15’17.99""",담수호습지
152,볼레오름습지,제주특별자치도 제주시 애월읍 광령리,"N33°21’17.84""","E126°28’38.82""",소택지
153,한남 공동목장습지,제주특별자치도 서귀포시 남원읍 한남리,"N33°19’26.23""","E126°39’32.00""",담수호습지
154,고부천 구하도습지,전라북도 부안군 백산면 덕신리,"N35°43’07.33""","E126°47’18.11""",우각호습지
155,정읍 화봉리습지,전라북도 정읍시 감곡면 화봉리,"N35°43’14.10""","E126°57’03.48""",저층습원
156,태인 증산리습지,전라북도 정읍시 태인면 증산리,"N35°41’08.13""","E126°57’05.76""",저층습원
157,김제 화봉리습지,전라북도 김제시 봉남면 화봉리,"N35°43’57.69""","E126°58’47.39""",보습지
158,감산제습지,전라북도 정읍시 감곡면 화봉리,"N35°43’13.10""","E126°57’33.52""",담수호습지
159,호제습지,전라북도 김제시 봉남면 행촌리,"N35°43’45.50""","E126°57’19.32""",담수호습지
160,일리제습지,전라북도 정읍시 옹동면 오성리,"N35°39’25.66""","E126°58’26.58""",담수호습지
161,평점습지,전라북도 정읍시 입암면 신면리,"N35°30’20.15""","E126°49’56.25""",저습지
162,차단습지,전라북도 정읍시 입암면 단곡리,"N35°29’58.80""","E126°46’34.99""",소택지
163,죽리습지,전라북도 정읍시 입암면 접지리,"N35°32’16.60""","E126°51’53.51""",소택지
164,내조제습지,전라북도 정읍시 입암면 접지리,"N35°31’29.70""","E126°50’07.45""",담수호습지
165,마석제습지,전라북도 정읍시 입암면 마석리,"N35°32’14.82""","E126°48’44.91""",담수호습지
166,안당제습지,전라북도 정읍시 입암면 봉양리,"N35°30’45.10""","E126°46’56.51""",담수호습지
167,모촌제습지,전라북도 정읍시 소성면 애당리,"N35°31’42.94""","E126°46’43.04""",담수호습지
168,신정방죽습지,전라북도 정읍시 소성면 보화리,"N35°32’58.92""","E126°46’38.86""",담수호습지
169,새내방죽습지,전라북도 정읍시 소성면 신천리,"N35°33’56.06""","E126°46’34.29""",담수호습지
170,한정제습지,전라북도 정읍시 소성면 고교리,"N35°34’28.93""","E126°46’34.58""",담수호습지
171,강고제습지,전라북도 정읍시 고부면 강고리,"N35°35’27.32""","E126°45’08.64""",담수호습지
172,신정제습지,전라북도 정읍시 고부면 신중리,"N35°36’24.35""","E126°45’44.69""",담수호습지
173,당덕제습지,전라북도 정읍시 고부면 고부리,"N35°37’08.12""","E126°45’44.63""",담수호습지
174,만수저수지습지(정읍),전라북도 정읍시 고부면 만수리,"N35°35’18.51""","E126°47’53.27""",담수호습지
175,개운습지,전라북도 순창군 쌍치면 방산리,"N35°31’26.93""","E126°57’10.35""",소택지
176,고당산습지,전라북도 정읍시 칠보면 수청리,"N35°32’22.85""","E126°55’17.17""",저층습원
177,피오습지,전라북도 정읍시 칠보면 수청리,"N35°32’52.07""","E126°54’14.42""",저층습원
178,원두습지,전라북도 정읍시 칠보면 백암리,"N35°36’29.81""","E126°58’24.51""",저층습원
179,상유습지,전라북도 정읍시 북면 보림리,"N35°34’25.13""","E126°55’42.04""",저층습원
180,정읍 월영습지,전라북도 정읍시 입암면 신면리,"N35°31’14.25""","E126°52’39.71""",저층습원
181,소갈재습지,전라북도 고창군 신림면 가평리,"N35°28’55.49""","E126°46’01.19""",저습지
182,조양리습지,전라남도 장성군 북이면 조양리,"N35°23’58.96""","E126°49’02.09""",저층습원
183,산정리습지,전라남도 장성군 진원면 산정리,"N35°16’12.33""","E126°49’17.17""",저층습원
184,용흥리습지,전라남도 장성군 서삼면 용흥리,"N35°18’53.17""","E126°45’14.37""",저습지
185,초곡습지,전라남도 장성군 서삼면 송현리,"N35°21’07.20""","E126°45’42.35""",저습지
186,궁구제습지,전라남도 장성군 진원면 진원리,"N35°16’17.67""","E126°50’14.26""",담수호습지
187,용동제습지(장성),전라남도 장성군 진원면 율곡리,"N35°16’06.22""","E126°48’47.81""",담수호습지
188,마산제습지,전라남도 장성군 남면 녹진리,"N35°15’28.31""","E126°47’46.98""",담수호습지
189,운교리습지,전라남도 담양군 담양읍 삼만리,"N35°20’08.62""","E126°59’23.28""",저층습원
190,월산리습지,전라남도 담양군 월산면 용암리,"N35°21’52.55""","E126°56’10.93""",저층습원
191,탄금제습지,전라남도 담양군 봉산면 기곡리,"N35°16’10.21""","E126°58’03.08""",담수호습지
192,담양 비아제습지,전라남도 담양군 봉산면 기곡리,"N35°15’50.21""","E126°58’33.47""",담수호습지
193,궁암제습지,전라남도 담양군 수북면 고성리,"N35°17’07.83""","E126°55’26.68""",담수호습지
194,물넘어고개습지,전라남도 장성군 남면 행정리,"N35°10’30.57""","E126°47’09.12""",소택지
195,우재들습지,전라남도 장성군 남면 행정리,"N35°11’24.00""","E126°46’44.33""",저습지
196,새말고개습지,전라남도 장성군 남면 행정리,"N35°12’54.59""","E126°46’50.67""",저층습원
197,남성제습지,전라남도 장성군 남면 월정리,"N35°09’08.46""","E126°48’02.82""",담수호습지
198,산정제습지,전라남도 장성군 남면 월정리,"N35°10’11.85""","E126°47’43.17""",담수호습지
199,가야제습지,전라남도 장성군 남면 행정리,"N35°10’29.35""","E126°47’23.77""",담수호습지
200,산막제습지,전라남도 장성군 남면 행정리,"N35°11’30.52""","E126°46’02.14""",담수호습지
201,고룡제습지,전라남도 장성군 남면 행정리,"N35°12’07.41""","E126°46’23.95""",담수호습지
202,진곡제습지,전라남도 장성군 남면 행정리,"N35°13’07.17""","E126°46’54.21""",담수호습지
203,백운제습지,전라남도 장성군 남면 마령리,"N35°14’39.52""","E126°46’30.90""",담수호습지
204,자풍제습지,전라남도 장성군 남면 덕성리,"N35°14’54.72""","E126°46’48.98""",담수호습지
205,불정제습지,전라남도 장성군 남면 월정리,"N35°13’31.07""","E126°48’01.66""",담수호습지
206,비아저수지습지,전라남도 장성군 남면 월정리,"N35°13’31.79""","E126°49’00.46""",담수호습지
207,신안제습지,전라남도 장성군 남면 덕성리,"N35°15’12.58""","E126°47’11.93""",담수호습지
208,봉황산습지,전라남도 나주시 노안면 도산리,"N35°05’34.54""","E126°45’32.67""",저층습원
209,수청습지,전라남도 나주시 남평읍 수원리,"N35°03’24.24""","E126°51’36.33""",저층습원
210,옥골재습지,전라남도 나주시 남평읍 광촌리,"N35°04’19.84""","E126°52’08.20""",저습지
211,대촌습지,전라남도 나주시 남평읍 평산리,"N35°04’58.68""","E126°49’53.04""",저습지
212,매월습지,전라남도 나주시 남평읍 수원리,"N35°06’28.83""","E126°50’53.92""",소택지
213,백마산습지,전라남도 나주시 남평읍 수원리,"N35°06’56.98""","E126°50’25.30""",저층습원
214,송정구하도습지,전라남도 나주시 남평읍 평산리,"N35°07’04.42""","E126°49’10.85""",우각호습지
215,가락습지(광산),전라남도 나주시 노안면 도산리,"N35°05’47.96""","E126°45’58.12""",담수호습지
216,월곡제습지,전라남도 나주시 노안면 도산리,"N35°04’33.01""","E126°45’28.49""",담수호습지
217,창교2제습지,전라남도 나주시 노안면 도산리,"N35°04’59.19""","E126°46’32.28""",담수호습지
218,송대구하도습지,전라남도 나주시 노안면 도산리,"N35°05’36.97""","E126°47’20.07""",우각호습지
219,신추제습지,전라남도 나주시 금천면 촌곡리,"N35°02’20.65""","E126°46’08.31""",담수호습지
220,이동제습지,전라남도 나주시 남평읍 수원리,"N35°05’54.76""","E126°51’07.90""",담수호습지
221,지석제습지,전라남도 나주시 남평읍 평산리,"N35°05’14.89""","E126°49’48.59""",담수호습지
222,맹간제습지,전라남도 나주시 남평읍 평산리,"N35°04’55.79""","E126°49’34.75""",담수호습지
223,압촌제습지,전라남도 나주시 남평읍 수원리,"N35°05’27.58""","E126°50’13.83""",생태수변공원
224,진월제습지,전라남도 화순군 화순읍 세량리,"N35°06’49.49""","E126°54’27.07""",담수호습지
225,화산제습지,전라남도 화순군 화순읍 세량리,"N35°06’51.64""","E126°54’59.93""",담수호습지
226,가덕리습지,전라북도 임실군 신평면 가덕리,"N35°38’38.04""","E127°14’37.95""",저습지
227,백이산습지,전라북도 임실군 임실읍 신안리,"N35°35’49.92""","E127°13’42.57""",저층습원
228,웃들방죽습지,전라북도 완주군 구이면 항가리,"N35°43’39.80""","E127°06’39.28""",담수호습지
229,쌍계리습지,전라북도 순창군 쌍치면 쌍계리,"N35°30’22.00""","E127°00’36.11""",저습지
230,두곡습지(임실),전라북도 임실군 임실읍 두곡리,"N35°37’36.46""","E127°16’25.38""",소택지
231,도봉2습지,전라북도 임실군 관촌면 도봉리,"N35°39’36.72""","E127°18’36.97""",소택지
232,금당치습지,전라북도 임실군 관촌면 복흥리,"N35°39’33.88""","E127°19’08.96""",인공호습지
233,도봉1습지,전라북도 임실군 관촌면 도봉리,"N35°39’37.82""","E127°18’43.91""",담수호습지
234,남퇴습지,전라북도 진안군 백운면 남계리,"N35°39’35.96""","E127°23’35.59""",소택지
235,고산니습지,전라북도 임실군 임실읍 정월리,"N35°34’08.18""","E127°15’14.86""",소택지
236,번화치습지,전라북도 임실군 임실읍 이인리,"N35°33’44.33""","E127°15’25.96""",저습지
237,대말방죽습지,전라북도 임실군 오수면 대정리,"N35°30’41.26""","E127°20’34.48""",인공호습지
238,와룡습지(장수),전라북도 장수군 천천면 비룡리,"N35°42’08.34""","E127°30’04.36""",담수호습지
239,육십령습지,경상남도 함양군 서상면 상남리,"N35°43’04.16""","E127°39’49.43""",소택지
240,동화습지(장수),전라북도 장수군 번암면 동화리,"N35°33’50.09""","E127°33’01.18""",담수호습지
241,마평습지,경상남도 함양군 병곡면 광평리,"N35°33’11.73""","E127°42’44.48""",저습지
242,대광습지(함양),경상남도 함양군 병곡면 광평리,"N35°33’32.60""","E127°43’20.35""",소택지
243,김제 은곡습지,전라북도 김제시 금산면 장흥리,"N35°41’46.66""","E127°02’17.97""",저습지
244,도고리습지,전라북도 순창군 쌍치면 도고리,"N35°28’18.54""","E127°00’10.67""",저습지
245,화봉산습지,전라남도 담양군 무정면 서흥리,"N35°18’10.95""","E127°04’47.58""",저층습원
246,유정리습지,전라북도 순창군 풍산면 유정리,"N35°19’33.29""","E127°07’03.97""",저층습원
247,지내제습지,전라북도 순창군 풍산면 한내리,"N35°20’23.14""","E127°10’05.98""",담수호습지
248,무창제습지,전라남도 곡성군 옥과면 무창리,"N35°16’53.32""","E127°09’15.34""",담수호습지
249,곡성 백련제습지,전라남도 곡성군 겸면 마전리,"N35°17’08.11""","E127°09’39.52""",담수호습지
250,중군봉습지,전라북도 순창군 유등면 유촌리,"N35°22’00.52""","E127°12’11.62""",저습지
251,제천제습지,전라북도 남원시 주생면 제천리,"N35°22’30.56""","E127°18’24.97""",담수호습지
252,수덕제습지,전라북도 남원시 대산면 수덕리,"N35°24’14.91""","E127°20’25.02""",담수호습지
253,장동제습지,전라북도 남원시 운봉읍 장교리,"N35°27’12.11""","E127°29’50.04""",담수호습지
254,월봉습지,전라남도 곡성군 곡성읍 월봉리,"N35°15’54.69""","E127°16’21.45""",소택지
255,목동습지,전라남도 곡성군 고달면 목동리,"N35°17’32.34""","E127°20’31.22""",담수호습지
256,공안습지,전라북도 남원시 운봉읍 덕산리,"N35°24’00.09""","E127°31’54.42""",저층습원
257,오리정방죽습지,전라북도 남원시 운봉읍 신기리,"N35°27’02.53""","E127°32’13.88""",담수호습지
258,지산습지(남원),전라북도 남원시 인월면 건지리,"N35°29’17.94""","E127°38’02.72""",소택지
259,길성천 수질정화습지,전라남도 화순군 북면 와천리,"N35°08’11.60""","E127°06’45.32""",수질정화습지
260,내북천 수질정화습지,전라남도 화순군 북면 다곡리,"N35°07’40.60""","E127°07’52.08""",수질정화습지
261,노적개습지,전라남도 순천시 주암면 운룡리,"N35°06’58.73""","E127°12’45.35""",소택지
262,주암호 신평습지,전라남도 순천시 송광면 신평리,"N35°00’26.40""","E127°14’40.24""",담수호습지
263,반구정습지,전라남도 곡성군 목사동면 대곡리,"N35°06’57.56""","E127°14’56.24""",우각호습지
264,와룡습지(곡성),전라남도 곡성군 죽곡면 남양리,"N35°42’08.34""","E127°30’04.36""",소택지
265,조계산 장박골습지,전라남도 순천시 송광면 장안리,"N35°00’21.97""","E127°18’19.35""",고층습원
266,백운산 산지습지,전라남도 광양시 옥곡면 수평리,"N35°01’37.23""","E127°38’28.62""",저층습원
267,도곡리 보습지,경상북도 김천시 지례면 도곡리,"N35°58’39.45""","E128°01’24.37""",보습지
268,유성리 보습지,경상북도 김천시 증산면 유성리,"N35°53’28.11""","E128°02’17.44""",보습지
269,배바위 보습지,경상북도 성주군 금수면 무학리,"N35°55’39.12""","E128°06’40.02""",보습지
270,창천리 보습지,경상북도 성주군 가천면 창천리,"N35°53’18.35""","E128°09’55.95""",보습지
271,성주호2습지,경상북도 성주군 금수면 후평리,"N35°55’31.05""","E128°08’48.41""",인공호습지
272,봉비암보습지,경상북도 성주군 수륜면 수성리,"N35°51’25.04""","E128°11’22.92""",보습지
273,동암교 하도습지,경상북도 성주군 선남면 동암리,"N35°53’54.43""","E128°21’08.21""",하도습지
274,서재리 하도습지,대구광역시 달성군 다사읍 박곡리,"N35°52’43.35""","E128°29’31.07""",하도습지
275,호촌늪,경상북도 고령군 다산면 호촌리,"N35°49’32.51""","E128°27’29.27""",우각호습지
276,씩실늪,대구광역시 달성군 논공읍 삼리리,"N35°46’07.58""","E128°24’14.43""",우각호습지
277,각골저수지습지,충청북도 음성군 대소면 성본리,"N36°58’19.15""","E127°31’39.28""",인공호습지
278,황곡방죽습지,충청북도 음성군 금왕읍 신평리,"N36°59’28.99""","E127°32’45.73""",인공호습지
279,석장리 저수지습지,충청북도 진천군 덕산면 기전리,"N36°53’34.43""","E127°31’39.33""",인공호습지
280,오랫말저수지습지,충청북도 음성군 소이면 비산리,"N36°56’37.81""","E127°44’41.98""",인공호습지
281,평곡습지,충청북도 음성군 음성읍 평곡리,"N36°55’50.89""","E127°42’10.24""",인공호습지
282,조천습지(괴산),충청북도 괴산군 청안면 조천리,"N36°47’29.13""","E127°38’56.42""",소택지
283,문암습지(음성),충청북도 음성군 원남면 문암리,"N36°50’51.73""","E127°37’56.90""",소택지
284,마송습지,충청북도 음성군 원남면 마송리,"N36°52’00.54""","E127°39’35.17""",소택지
285,문광저수지습지,충청북도 괴산군 문광면 양곡리,"N36°46’03.83""","E127°45’01.41""",인공호습지
286,흑평저수지습지,충청북도 충주시 대소원면 완오리,"N36°58’45.38""","E127°50’16.52""",인공호습지
287,정용습지,충청북도 괴산군 괴산읍 정용리,"N36°49’03.86""","E127°45’50.66""",소택지
288,매전습지,충청북도 괴산군 감물면 매전리,"N36°48’34.03""","E127°52’01.24""",소택지
289,광덕습지(괴산),충청북도 괴산군 문광면 광덕리,"N36°47’37.52""","E127°48’11.33""",소택지
290,송평습지(괴산),충청북도 괴산군 문광면 송평리,"N36°47’14.34""","E127°46’04.00""",보습지
291,덕실소류지습지,충청북도 괴산군 불정면 지장리,"N36°51’40.44""","E127°49’26.56""",인공호습지
292,지장리무명소류지습지,충청북도 괴산군 불정면 지장리,"N36°51’44.36""","E127°49’55.45""",인공호습지
293,다락말소류지,충청북도 청원구 북이면 대율리,"N36°44’21.94""","E127°31’19.83""",인공호습지
294,영하습지,충청북도 청원구 북이면 영하리,"N36°43’51.62""","E127°34’35.61""",소택지
295,우산1습지,충청북도 청원구 내수읍 우산리,"N36°42’25.04""","E127°36’13.37""",소택지
296,지산습지(청원),충청북도 상당구 낭성면 지산리,"N36°38’38.47""","E127°35’06.97""",소택지
297,현암습지,충청북도 상당구 낭성면 현암리,"N36°38’32.56""","E127°34’06.91""",소택지
298,대신1습지,충청북도 상당구 미원면 대신리,"N36°41’44.98""","E127°36’25.29""",저층습원
299,대신2습지,충청북도 상당구 미원면 대신리,"N36°42’03.05""","E127°37’16.85""",소택지
300,부연습지,충청북도 청원구 북이면 부연리,"N36°44’42.56""","E127°35’10.26""",소택지
301,우산2습지,충청북도 청원구 내수읍 우산리,"N36°42’48.20""","E127°36’09.54""",내수면어업
302,삼산습지,충청북도 상당구 낭성면 삼산리,"N36°40’05.03""","E127°33’04.62""",인공호습지
303,운교습지,충청북도 상당구 미원면 운교리,"N36°42’15.75""","E127°41’21.26""",인공호습지
304,부성습지,충청북도 괴산군 청천면 부성리,"N36°43’38.25""","E127°44’19.61""",소택지
305,율리습지,충청북도 증평군 증평읍 율리,"N36°43’59.86""","E127°39’10.62""",인공호습지
306,한계습지,충청북도 상당구 가덕면 한계리,"N36°36’28.87""","E127°33’16.44""",소택지
307,노현습지,충청북도 상당구 가덕면 청용리,"N36°31’22.51""","E127°32’13.52""",인공호습지
308,상전하소류지습지,충청북도 상당구 낭성면 호정리,"N36°36’41.60""","E127°35’45.69""",인공호습지
309,계원습지,충청북도 상당구 미원면 계원리,"N36°35’37.55""","E127°44’38.16""",소택지
310,동산습지,충청북도 보은군 내북면 동산리,"N36°34’46.82""","E127°39’16.57""",소택지
311,아곡습지(보은),충청북도 보은군 내북면 용수리,"N36°32’34.18""","E127°38’54.59""",소택지
312,세촌습지,충청북도 보은군 내북면 세촌리,"N36°31’46.23""","E127°38’18.96""",소택지
313,중초습지,충청북도 보은군 보은읍 중초리,"N36°31’42.05""","E127°41’10.25""",소택지
314,산성습지,충청북도 보은군 보은읍 산성리,"N36°30’45.72""","E127°42’08.19""",소택지
315,방축골 소류지습지,충청북도 상당구 미원면 월용리,"N36°37’25.94""","E127°42’19.62""",인공호습지
316,덕평습지,충청북도 괴산군 청천면 덕평리,"N36°43’31.60""","E127°47’52.54""",소택지
317,대전1습지,충청북도 괴산군 청천면 대전리,"N36°43’36.83""","E127°47’16.77""",소택지
318,대전2습지,충청북도 괴산군 청천면 대전리,"N36°43’34.39""","E127°47’14.43""",소택지
319,대치습지(괴산),충청북도 괴산군 청천면 화양리,"N36°41’15.29""","E127°47’07.26""",소택지
320,관평습지,충청북도 괴산군 청천면 관평리,"N36°41’37.40""","E127°53’24.70""",인공호습지
321,신정습지(보은),충청북도 보은군 산외면 신정리,"N36°34’25.59""","E127°48’09.64""",소택지
322,장암습지(상주),경상북도 상주시 화북면 장암리,"N36°34’04.23""","E127°54’53.37""",보습지
323,신촌리보습지,경상북도 상주시 내서면 신촌리,"N36°24’38.17""","E128°04’47.91""",보습지
324,오태저수지습지,경상북도 상주시 공검면 오태리,"N36°29’05.46""","E128°07’04.75""",인공호습지
325,오태리 묵논습지,경상북도 상주시 공검면 오태리,"N36°29’12.90""","E128°07’43.60""",소택지
326,남적동 보습지,경상북도 상주시 외서면 관동리,"N36°28’12.34""","E128°09’26.55""",보습지
327,상판저수지습지,경상북도 상주시 공성면 우하리,"N36°17’47.68""","E128°01’20.08""",인공호습지
328,무을저수지습지,경상북도 구미시 무을면 안곡리,"N36°16’13.21""","E128°09’07.15""",인공호습지
329,대원저수지습지,경상북도 구미시 옥성면 대원리,"N36°16’42.41""","E128°14’31.50""",인공호습지
330,안사리 하도습지,경상북도 의성군 안사면 안사리,"N36°26’06.92""","E128°27’39.90""",하도습지
331,봉양리 묵논습지,경상북도 의성군 안계면 봉양리,"N36°22’07.67""","E128°27’44.01""",하도습지
332,비안교 하도습지,경상북도 의성군 비안면 용천리,"N36°20’00.59""","E128°28’54.57""",하도습지
333,다삼교보습지,경상북도 김천시 봉산면 신리,"N36°07’54.79""","E128°04’59.04""",보습지
334,신촌리 하도습지,경상북도 김천시 개령면 황계리,"N36°08’12.25""","E128°09’14.98""",하도습지
335,길지습지,경상북도 김천시 아포읍 제석리,"N36°09’21.76""","E128°14’10.73""",인공호습지
336,김천교 하도습지,경상북도 김천시 감천면 금송리,"N36°06’56.19""","E128°07’42.17""",하도습지
337,황산리 하도습지,경상북도 구미시 고아읍 황산리,"N36°13’28.79""","E128°16’51.12""",하도습지
338,관심리 하도습지,경상북도 구미시 선산읍 원리,"N36°12’42.36""","E128°21’14.35""",하도습지
339,월곡리 하도습지,경상북도 구미시 해평면 월곡리,"N36°13’38.95""","E128°21’19.63""",하도습지
340,대성저수지습지,경상북도 김천시 아포읍 대성리,"N36°07’32.35""","E128°17’23.57""",인공호습지
341,포남리 하도습지,경상북도 칠곡군 석적읍 포남리,"N36°03’05.37""","E128°24’22.89""",하도습지
342,삼군습지,경기도 여주시 가남읍 삼군리,"N37°13’23.51""","E127°33’43.81""",소택지
343,자석습지,경기도 이천시 설성면 자석리,"N37°10’13.11""","E127°33’01.27""",소택지
344,삼합습지,경기도 여주시 점동면 삼합리,"N37°11’25.08""","E127°43’32.69""",인공호습지
345,신양습지(음성),충청북도 음성군 생극면 신양리,"N37°02’37.17""","E127°36’52.92""",소택지
346,고당습지(고당리),경기도 이천시 율면 고당리,"N37°05’08.05""","E127°32’27.79""",인공호습지
347,석산습지,경기도 이천시 율면 석산리,"N37°03’24.37""","E127°32’42.30""",인공호습지
348,법동습지,충청북도 충주시 노은면 법동리,"N37°02’35.18""","E127°41’15.82""",소택지
349,지당습지,충청북도 충주시 앙성면 지당리,"N37°06’27.55""","E127°43’27.16""",인공호습지
350,영죽습지,충청북도 충주시 앙성면 영죽리,"N37°08’02.76""","E127°46’54.94""",인공호습지
351,단강습지,강원도 원주시 부론면 단강리,"N37°11’18.36""","E127°49’04.34""",인공호습지
352,화당습지(화당),충청북도 제천시 백운면 화당리,"N37°10’45.03""","E127°56’10.75""",저층습원
353,용전습지(충주),충청북도 충주시 중앙탑면 용전리,"N37°01’36.78""","E127°50’53.44""",소택지
354,양촌습지,충청북도 충주시 소태면 양촌리,"N37°05’48.18""","E127°52’28.94""",인공호습지
355,오량골저수지습지,충청북도 충주시 소태면 복탄리,"N37°06’19.42""","E127°49’44.77""",인공호습지
356,기린솔섬습지,강원도 인제군 기린면 서리,"N37°57’52.97""","E128°19’08.34""",하도습지
357,내린천후평교습지,강원도 인제군 상남면 하남리,"N37°53’52.79""","E128°16’28.95""",하도습지
358,서바소솔밭습지,강원도 인제군 기린면 현리,"N37°56’01.04""","E128°18’21.86""",하도습지
359,양구샛말천습지,강원도 양구군 양구읍 고대리,"N38°07’49.92""","E127°58’58.84""",담수호습지
360,심적1습지(수리봉습지),강원도 인제군 서화면 천도리,"N38°13’45.01""","E128°10’05.66""",고층습원
361,심적2습지,강원도 인제군 서화면 천도리,"N38°13’50.68""","E128°10’50.48""",고층습원
362,심적3습지,강원도 인제군 서화면 심적리,"N38°14’42.59""","E128°08’39.80""",고층습원
363,심적4습지,강원도 인제군 서화면 심적리,"N38°15’10.64""","E128°09’09.16""",고층습원
364,다릿골습지,강원도 인제군 서화면 서화리,"N38°16’22.76""","E128°11’51.29""",하도습지
365,펀치볼습지,강원도 양구군 해안면 후리,"N38°17’00.31""","E128°09’18.82""",수질정화습지
366,삼포습지,강원도 고성군 죽왕면 삼포리,"N38°19’04.65""","E128°31’31.12""",담수호습지
367,서화초교습지,강원도 인제군 서화면 천도리,"N38°13’25.28""","E128°12’24.50""",하도습지
368,인북천월학리습지,강원도 인제군 북면 월학리,"N38°09’29.91""","E128°12’04.40""",하도습지
369,늪둔지습지,강원도 인제군 북면 원통리,"N38°06’55.07""","E128°12’32.57""",하도습지
370,인제대교습지,강원도 인제군 남면 남전리,"N38°02’18.09""","E128°08’48.95""",담수호습지
371,오색각두골습지,강원도 양양군 서면 오색리,"N38°04’39.11""","E128°28’20.58""",소택지
372,(구)봉포습지,강원도 고성군 토성면 봉포리,"N38°14’54.36""","E128°33’51.29""",석호습지
373,사은다리습지,제주특별자치도 제주시 한림읍 상대리,"N33°24’45.96""","E126°17’44.53""",담수호습지
374,지세괸못,제주특별자치도 제주시 애월읍 봉성리,"N33°25’39.20""","E126°18’38.86""",담수호습지
375,버들못,제주특별자치도 제주시 한림읍 귀덕리,"N33°25’57.48""","E126°17’12.28""",담수호습지
376,소애못,제주특별자치도 제주시 애월읍 납읍리,"N33°25’54.36""","E126°19’47.87""",담수호습지
377,돔배물,제주특별자치도 제주시 애월읍 어음리,"N33°24’14.01""","E126°20’20.85""",담수호습지
378,빌레못,제주특별자치도 제주시 애월읍 어음리,"N33°24’13.31""","E126°21’03.97""",담수호습지
379,군산이물,제주특별자치도 제주시 애월읍 하가리,"N33°27’00.93""","E126°21’08.78""",담수호습지
380,어욱새미,제주특별자치도 제주시 애월읍 신엄리,"N33°27’17.05""","E126°22’15.60""",담수호습지
381,소길리 목장습지,제주특별자치도 제주시 애월읍 소길리,"N33°23’40.92""","E126°23’47.73""",담수호습지
382,어승생오름 화구호,제주특별자치도 제주시 애월읍 광령리,"N33°23’47.73""","E126°29’15.70""",담수호습지
383,동백로습지,제주특별자치도 제주시 구좌읍 덕천리,"N33°30’12.92""","E126°44’23.67""",담수호습지
384,동복리목장1습지,제주특별자치도 제주시 구좌읍 동복리,"N33°31’45.28""","E126°43’20.63""",담수호습지
385,동복리목장2습지,제주특별자치도 제주시 구좌읍 동복리,"N33°31’45.76""","E126°43’10.43""",담수호습지
386,동복리목장3습지,제주특별자치도 제주시 구좌읍 동복리,"N33°31’16.46""","E126°43’36.63""",담수호습지
387,안세미오름습지,제주특별자치도 제주시 조천읍 와흘리,"N33°27’57.38""","E126°36’18.15""",담수호습지
388,대흘못,제주특별자치도 제주시 조천읍 대흘리,"N33°29’55.50""","E126°39’17.32""",담수호습지
389,검은오름습지,제주특별자치도 제주시 조천읍 선흘리,"N33°27’52.79""","E126°43’00.86""",담수호습지
390,윗밤오름습지,제주특별자치도 제주시 조천읍 선흘리,"N33°28’40.31""","E126°43’08.08""",담수호습지
391,허튼물,제주특별자치도 제주시 조천읍 선흘리,"N33°28’50.06""","E126°43’04.57""",담수호습지
392,덕천리목장1습지,제주특별자치도 제주시 구좌읍 덕천리,"N33°28’56.44""","E126°44’08.05""",담수호습지
393,덕천리목장2습지,제주특별자치도 제주시 구좌읍 덕천리,"N33°28’51.87""","E126°44’16.22""",담수호습지
394,북오름습지,제주특별자치도 제주시 구좌읍 덕천리,"N33°29’28.64""","E126°44’30.14""",담수호습지
395,서김녕리 목장습지,제주특별자치도 제주시 구좌읍 김녕리,"N33°31’24.11""","E126°45’28.28""",담수호습지
396,당케해안습지,제주특별자치도 제주시 구좌읍 김녕리,"N33°33’50.94""","E126°45’54.92""",담수호습지
397,새물(월정),제주특별자치도 제주시 구좌읍 행원리,"N33°30’46.11""","E126°46’19.02""",담수호습지
398,섯동네습지,제주특별자치도 제주시 구좌읍 한동리,"N33°32’19.94""","E126°49’46.71""",담수호습지
399,계룡동저류지,제주특별자치도 제주시 구좌읍 한동리,"N33°32’05.47""","E126°50’03.28""",인공수로습지
400,폭남못,제주특별자치도 서귀포시 성산읍 수산리,"N33°26’25.54""","E126°49’46.88""",담수호습지
401,쇠선동산습지,제주특별자치도 서귀포시 성산읍 수산리,"N33°25’45.62""","E126°50’23.06""",담수호습지
402,사려물,제주특별자치도 서귀포시 성산읍 난산리,"N33°25’13.33""","E126°50’42.13""",담수호습지
403,독자봉길습지,제주특별자치도 서귀포시 성산읍 난산리,"N33°24’01.00""","E126°50’15.66""",담수호습지
404,긴동산1습지,제주특별자치도 서귀포시 성산읍 삼달리,"N33°23’41.16""","E126°49’14.60""",담수호습지
405,긴동산2습지,제주특별자치도 서귀포시 성산읍 삼달리,"N33°23’33.54""","E126°49’08.95""",담수호습지
406,긴동산3습지,제주특별자치도 서귀포시 성산읍 삼달리,"N33°23’26.26""","E126°49’52.50""",담수호습지
407,문괴습지,제주특별자치도 서귀포시 성산읍 삼달리,"N33°23’17.59""","E126°50’13.42""",담수호습지
408,시흥리습지,제주특별자치도 서귀포시 성산읍 시흥리,"N33°28’41.86""","E126°53’51.66""",담수호습지
409,종달리 소금밭습지,제주특별자치도 제주시 구좌읍 종달리,"N33°29’29.18""","E126°54’06.34""",소택지
410,복길습지,전라남도 무안군 삼향읍 왕산리,"N34°52’55.02""","E126°23’54.63""",간척호습지
411,청포습지,전라남도 무안군 망운면 피서리,"N34°58’53.44""","E126°23’59.49""",간척호습지
412,남창천습지,전라남도 무안군 삼향읍 남악리,"N34°48’41.95""","E126°28’59.67""",하도습지
413,장항포습지,전라남도 무안군 일로읍 죽산리,"N34°49’53.77""","E126°29’43.66""",하도습지
414,죽림제습지,전라남도 무안군 삼향읍 맥포리,"N34°50’19.59""","E126°27’46.81""",담수호습지
415,송태제습지,전라남도 무안군 일로읍 지장리,"N34°51’35.46""","E126°29’10.80""",담수호습지
416,정재습지,전라남도 영암군 삼호읍 산호리,"N34°46’20.64""","E126°28’28.74""",간척호습지
417,나불도습지,전라남도 영암군 삼호읍 나불리,"N34°47’06.50""","E126°27’24.43""",간척호습지
418,영호정제습지,전라남도 영암군 삼호읍 삼포리,"N34°44’33.35""","E126°23’43.84""",담수호습지
419,산호습지,전라남도 영암군 삼호읍 산호리,"N34°46’13.24""","E126°29’25.98""",간척호습지
420,남악습지,전라남도 무안군 삼향읍 남악리,"N34°48’06.51""","E126°27’25.59""",간척호습지
421,삼포천습지,전라남도 나주시 공산면 금곡리,"N34°55’28.56""","E126°36’57.01""",하도습지
422,고문진습지,전라남도 함평군 학교면 월호리,"N34°58’26.37""","E126°34’41.63""",하도습지
423,화산들습지(나주),전라남도 영암군 시종면 신연리,"N34°54’55.23""","E126°35’06.85""",하도습지
424,몽탄습지,전라남도 무안군 몽탄면 몽강리,"N34°55’37.49""","E126°30’24.91""",하도습지
425,원곡창습지,전라남도 함평군 학교면 곡창리,"N34°59’39.42""","E126°32’05.58""",우각호습지
426,삼포천 구하도습지,전라남도 나주시 공산면 화성리,"N34°55’32.82""","E126°35’41.27""",우각호습지
427,월호제습지,전라남도 나주시 공산면 남창리,"N34°56’48.72""","E126°36’34.77""",담수호습지
428,우습제습지,전라남도 나주시 공산면 동촌리,"N34°56’28.55""","E126°34’45.34""",담수호습지
429,백두제습지,전라남도 나주시 공산면 상방리,"N34°56’32.81""","E126°37’17.74""",담수호습지
430,형제제습지,전라남도 나주시 공산면 중포리,"N34°57’50.41""","E126°34’55.35""",담수호습지
431,동강신원제습지,전라남도 나주시 왕곡면 신원리,"N34°56’44.91""","E126°42’35.06""",담수호습지
432,송암제습지,전라남도 나주시 동강면 월송리,"N34°57’57.40""","E126°33’02.36""",담수호습지
433,방축제습지(영암),전라남도 영암군 시종면 신연리,"N34°54’02.25""","E126°35’34.69""",담수호습지
434,당호제습지,전라남도 무안군 몽탄면 청용리,"N34°53’26.39""","E126°30’19.21""",담수호습지
435,만봉천습지,전라남도 나주시 세지면 죽동리,"N34°57’11.74""","E126°43’02.86""",하도습지
436,터진목습지,전라남도 나주시 오량동,"N34°58’59.15""","E126°38’32.54""",하도습지
437,오량습지,전라남도 나주시 다시면 복암리,"N34°58’58.06""","E126°39’27.42""",하도습지
438,죽산리습지,전라남도 나주시 다시면 가흥리,"N34°58’52.70""","E126°37’47.08""",하도습지
439,하촌리습지,전라남도 나주시 반남면 덕산리,"N34°53’59.05""","E126°40’13.49""",하도습지
440,주면습지,전라남도 나주시 이창동,"N34°59’55.65""","E126°41’59.26""",하도습지
441,교산제습지,전라남도 나주시 세지면 교산리,"N34°54’43.76""","E126°43’09.69""",담수호습지
442,용관제습지,전라남도 나주시 세지면 대산리,"N34°56’23.25""","E126°44’19.53""",담수호습지
443,송제리습지,전라남도 나주시 세지면 송제리,"N34°55’59.42""","E126°43’25.74""",하도습지
444,왕곡구하도습지,전라남도 나주시 왕곡면 옥곡리,"N34°57’51.54""","E126°38’35.33""",우각호습지
445,신원제습지,전라남도 나주시 동강면 운산리,"N34°58’31.67""","E126°33’10.57""",담수호습지
446,신포제습지,전라남도 나주시 왕곡면 신포리,"N34°57’25.97""","E126°38’26.42""",담수호습지
447,금지제습지,전라남도 영암군 신북면 월지리,"N34°53’15.10""","E126°37’44.46""",담수호습지
448,냉천제습지,전라남도 영암군 신북면 이천리,"N34°52’38.72""","E126°42’15.34""",담수호습지
449,비노촌습지,전라남도 무안군 일로읍 망월리,"N34°46’31.49""","E126°30’07.43""",간척호습지
450,석포습지,전라남도 영암군 삼호읍 동호리,"N34°45’56.62""","E126°31’01.06""",하도습지
451,학파습지,전라남도 영암군 군서면 양장리,"N34°47’34.00""","E126°35’23.86""",인공수로습지
452,구산습지,전라남도 영암군 시종면 신학리,"N34°50’20.71""","E126°33’58.24""",하도습지
453,소댕이습지,전라남도 무안군 일로읍 구정리,"N34°48’36.95""","E126°31’47.45""",간척호습지
454,돈도리습지,전라남도 무안군 일로읍 복룡리,"N34°50’10.41""","E126°32’14.52""",간척호습지
455,회산백련지,전라남도 무안군 일로읍 산정리,"N34°51’46.94""","E126°31’33.64""",담수호습지
456,덕치습지,전라남도 무안군 일로읍 의산리,"N34°49’42.49""","E126°32’11.51""",간척호습지
457,봉호제습지,전라남도 영암군 도포면 봉호리,"N34°50’39.84""","E126°36’42.46""",담수호습지
458,학파제2제습지,전라남도 영암군 서호면 소산리,"N34°47’00.87""","E126°34’45.28""",담수호습지
459,학파제1제습지,전라남도 영암군 서호면 엄길리,"N34°45’14.84""","E126°36’01.91""",담수호습지
460,태간제습지,전라남도 영암군 시종면 태간리,"N34°51’39.25""","E126°36’43.12""",담수호습지
461,용계동습지,전라남도 영암군 신북면 장산리,"N34°51’24.30""","E126°42’07.62""",저습지
462,도갑습지,전라남도 영암군 군서면 도갑리,"N34°45’10.27""","E126°40’06.86""",저층습원
463,호동천습지,전라남도 영암군 군서면 양장리,"N34°48’01.71""","E126°36’43.79""",하도습지
464,도포습지,전라남도 영암군 덕진면 용산리,"N34°49’39.96""","E126°38’45.11""",하도습지
465,송평습지(영암),전라남도 영암군 덕진면 장선리,"N34°49’05.69""","E126°40’26.12""",하도습지
466,조감제습지,전라남도 영암군 도포면 수산리,"N34°50’26.24""","E126°39’40.38""",담수호습지
467,만수제습지,전라남도 영암군 시종면 만수리,"N34°52’29.90""","E126°37’35.20""",인공호습지
468,문암습지(화순),전라남도 화순군 도암면 우치리,"N34°53’12.72""","E126°54’30.45""",소택지
469,장곡습지,전라남도 화순군 춘양면 양곡리,"N34°57’37.82""","E126°55’14.01""",소택지
470,화순 고인돌공원습지,전라남도 화순군 춘양면 대신리,"N34°58’26.38""","E126°55’52.50""",소택지
471,백운습지,전라남도 화순군 청풍면 백운리,"N34°53’14.59""","E126°56’04.32""",소택지
472,지석천1습지,전라남도 화순군 한천면 모산리,"N34°59’04.19""","E126°58’01.72""",하도습지
473,지석천3습지,전라남도 화순군 춘양면 우봉리,"N34°56’34.14""","E126°58’15.33""",하도습지
474,동막동습지,전라남도 강진군 옴천면 황막리,"N34°46’16.21""","E126°47’40.66""",소택지
475,절고랑습지,전라남도 영암군 금정면 쌍효리,"N34°50’59.64""","E126°48’26.42""",소택지
476,옴천 갈대습지,전라남도 장흥군 유치면 신월리,"N34°45’12.00""","E126°49’38.65""",인공호습지
477,신풍 갈대습지,전라남도 장흥군 유치면 신풍리,"N34°47’59.11""","E126°50’24.00""",인공호습지
478,보성강1습지,전라남도 장흥군 장평면 광평리,"N34°47’04.18""","E126°59’36.01""",하도습지
479,용문 갈대습지,전라남도 장흥군 유치면 용문리,"N34°47’32.78""","E126°53’58.77""",인공호습지
480,영암호습지,전라남도 해남군 마산면 연구리,"N34°39’16.78""","E126°29’26.02""",간척호습지
481,사동습지,전라남도 화순군 이양면 증리,"N34°53’07.83""","E127°03’14.98""",하도습지
482,주암호 인공습지,전라남도 보성군 복내면 반석리,"N34°53’44.00""","E127°07’47.49""",수질정화습지
483,주암호1습지,전라남도 보성군 복내면 봉천리,"N34°53’41.62""","E127°08’36.70""",인공호습지
484,주암호2습지,전라남도 보성군 문덕면 봉정리,"N34°55’16.28""","E127°10’03.16""",인공호습지
485,주암호3습지,전라남도 화순군 남면 사수리,"N34°59’48.83""","E127°07’29.97""",인공호습지
486,주암호4습지,전라남도 보성군 문덕면 죽산리,"N34°58’05.79""","E127°10’10.58""",인공호습지
487,주암호5습지,전라남도 보성군 문덕면 용암리,"N34°57’26.75""","E127°11’48.33""",인공호습지
488,진산리습지,전라남도 장흥군 장평면 진산리,"N34°49’35.17""","E127°01’20.58""",소택지
489,보성강2습지,전라남도 장흥군 장평면 녹양리,"N34°47’35.77""","E126°59’58.50""",하도습지
490,보성강3습지,전라남도 보성군 노동면 용호리,"N34°47’30.84""","E127°03’11.18""",하도습지
491,보성강4습지,전라남도 보성군 미력면 도개리,"N34°47’19.79""","E127°05’33.04""",하도습지
492,우와실습지,전라남도 보성군 미력면 덕림리,"N34°48’06.83""","E127°06’16.45""",배후습지
493,주월산습지,전라남도 보성군 겸백면 수남리,"N34°48’45.35""","E127°12’27.56""",소택지
494,파청치습지,전라남도 보성군 겸백면 수남리,"N34°47’25.05""","E127°10’36.65""",소택지
495,초암산습지,전라남도 보성군 율어면 선암리,"N34°50’06.16""","E127°12’12.26""",소택지
496,보성강5습지,전라남도 보성군 율어면 율어리,"N34°51’26.72""","E127°09’37.59""",하도습지
497,보성강6습지,전라남도 보성군 율어면 율어리,"N34°51’44.99""","E127°08’50.86""",하도습지
498,득량만 방조제습지,전라남도 보성군 득량면 예당리,"N34°45’14.10""","E127°13’20.78""",간척호습지
499,상사호1습지,전라남도 순천시 승주읍 신학리,"N34°59’38.18""","E127°22’06.52""",인공호습지
500,상사호2습지,전라남도 순천시 승주읍 남강리,"N34°58’13.25""","E127°21’37.75""",인공호습지
501,와룡습지(순천),전라남도 순천시 상사면 흘산리,"N34°57’34.39""","E127°26’52.83""",소택지
502,옥천습지,전라남도 순천시 상사면 흘산리,"N34°56’49.01""","E127°27’55.07""",하도습지
503,안풍동 구하도습지,전라남도 순천시 별량면 우산리,"N34°52’42.20""","E127°29’14.75""",우각호습지
504,벌교천 하구습지,전라남도 보성군 벌교읍 회정리,"N34°50’14.92""","E127°21’23.95""",하구염습지
505,연수동습지,전라남도 장성군 북이면 사거리,"N35°26’00.36""","E126°48’47.98""",소택지
506,은선동습지,전라남도 장성군 북하면 신성리,"N35°28’43.04""","E126°48’55.84""",저습지
507,입암산습지,전라남도 장성군 북하면 신성리,"N35°28’45.54""","E126°49’34.59""",소택지
508,송산제습지(장성),전라남도 장성군 북이면 오월리,"N35°25’13.58""","E126°49’01.39""",담수호습지
509,장성호습지,전라남도 장성군 북하면 동현리,"N35°23’40.34""","E126°50’46.61""",담수호습지
510,세낙강보습지,전라남도 장성군 황룡면 옥정리,"N35°16’12.88""","E126°44’55.72""",하도습지
511,장성하천습지,전라남도 장성군 황룡면 장산리,"N35°17’32.15""","E126°46’14.91""",하도습지
512,부흥습지,전라남도 장성군 장성읍 야은리,"N35°20’11.28""","E126°48’29.16""",하도습지
513,상오습지,전라남도 장성군 장성읍 백계리,"N35°20’45.52""","E126°49’02.84""",하도습지
514,장안습지,전라남도 장성군 장성읍 장안리,"N35°18’32.71""","E126°47’13.20""",하도습지
515,장진보습지,전라남도 장성군 황룡면 와룡리,"N35°16’41.42""","E126°45’24.71""",하도습지
516,죽분제습지,전라남도 장성군 진원면 산정리,"N35°15’03.47""","E126°48’47.82""",담수호습지
517,천변습지,전라남도 담양군 담양읍 강쟁리,"N35°18’55.60""","E126°57’41.63""",하도습지
518,담양하천습지,전라남도 담양군 대전면 강의리,"N35°15’34.84""","E126°54’40.71""",하도습지
519,남산습지,전라남도 담양군 봉산면 대추리,"N35°16’41.03""","E126°57’04.17""",하도습지
520,양지습지,전라남도 담양군 봉산면 양지리,"N35°15’19.26""","E126°56’44.78""",하도습지
521,삼지보습지,전라남도 담양군 수북면 정중리,"N35°16’12.63""","E126°56’14.10""",하도습지
522,임곡습지,전라남도 장성군 동화면 구룡리,"N35°12’54.46""","E126°44’42.61""",하도습지
523,섬톱습지,전라남도 장성군 동화면 송계리,"N35°10’26.06""","E126°44’35.83""",하도습지
524,길남보습지,전라남도 장성군 동화면 월산리,"N35°14’18.52""","E126°44’02.49""",하도습지
525,송산습지,전라남도 나주시 노안면 계림리,"N35°09’20.51""","E126°44’15.73""",하도습지
526,장제동습지,전라남도 함평군 나산면 수하리,"N35°06’33.41""","E126°36’06.83""",하도습지
527,삼축습지,전라남도 함평군 나산면 삼축리,"N35°07’16.54""","E126°37’06.39""",하도습지
528,금곡보습지,전라남도 나주시 문평면 북동리,"N35°04’56.86""","E126°35’41.53""",하도습지
529,고막원습지,전라남도 함평군 학교면 복천리,"N35°02’47.43""","E126°35’20.43""",하도습지
530,진례들습지,전라남도 함평군 학교면 석정리,"N34°59’50.44""","E126°35’38.09""",우각호습지
531,함평습지,전라남도 함평군 학교면 월산리,"N35°02’22.52""","E126°31’39.39""",하도습지
532,대동제습지,전라남도 함평군 대동면 연암리,"N35°07’22.18""","E126°31’49.17""",담수호습지
533,삼도동습지,전라남도 나주시 삼도동,"N35°01’52.07""","E126°44’09.15""",하도습지
534,학산리습지,전라남도 나주시 금천면 원곡리,"N35°02’52.08""","E126°44’35.56""",하도습지
535,문평습지,전라남도 나주시 다시면 영동리,"N35°00’12.12""","E126°38’16.77""",하도습지
536,영산습지,전라남도 나주시 영산동,"N35°00’26.60""","E126°43’13.14""",하도습지
537,노안2호제습지,전라남도 나주시 노안면 영평리,"N35°04’04.36""","E126°42’39.53""",담수호습지
538,노안1호제습지,전라남도 나주시 노안면 안산리,"N35°05’08.55""","E126°42’24.35""",담수호습지
539,오정제습지,전라남도 나주시 노안면 오정리,"N35°05’36.15""","E126°41’37.77""",담수호습지
540,대호제습지,전라남도 나주시 대호동,"N35°02’27.02""","E126°43’12.03""",담수호습지
541,칠전제습지,전라남도 나주시 대호동,"N35°03’31.57""","E126°43’02.85""",담수호습지
542,되정못습지,전라남도 나주시 삼도동,"N35°01’12.64""","E126°43’55.28""",우각호습지
543,장록습지,전라남도 나주시 노안면 유곡리,"N35°08’33.15""","E126°46’33.81""",하도습지
544,동림습지,전라남도 장성군 남면 월정리,"N35°10’49.23""","E126°50’52.99""",하도습지
545,연제습지,전라남도 장성군 남면 삼태리,"N35°11’50.97""","E126°51’23.45""",하도습지
546,월산보습지,전라남도 장성군 진원면 학림리,"N35°13’22.82""","E126°51’51.26""",하도습지
547,유덕습지,전라남도 장성군 남면 월정리,"N35°10’08.16""","E126°49’45.18""",하도습지
548,반촌제습지,전라남도 장성군 남면 삼태리,"N35°11’45.48""","E126°50’41.38""",담수호습지
549,하남제습지,전라남도 장성군 남면 월정리,"N35°11’27.60""","E126°47’54.02""",담수호습지
550,운천제습지,전라남도 나주시 남평읍 수원리,"N35°08’53.12""","E126°51’17.25""",생태수변공원
551,양산제습지,전라남도 장성군 남면 삼태리,"N35°12’11.01""","E126°52’20.57""",생태수변공원
552,풍암제습지,전라남도 화순군 화순읍 세량리,"N35°07’36.57""","E126°52’16.83""",생태수변공원
553,용산습지(광주),전라남도 담양군 대전면 응용리,"N35°14’21.64""","E126°52’52.90""",하도습지
554,창평습지,전라남도 담양군 고서면 동운리,"N35°14’34.38""","E126°58’22.62""",하도습지
555,광주호습지,전라남도 담양군 남면 학선리,"N35°11’16.41""","E126°59’31.04""",담수호습지
556,송정습지(광주),전라남도 나주시 노안면 도산리,"N35°06’26.75""","E126°47’35.65""",하도습지
557,산포습지,전라남도 나주시 산포면 덕례리,"N35°03’00.29""","E126°47’10.67""",하도습지
558,동섬습지,전라남도 나주시 금천면 신가리,"N35°03’23.08""","E126°46’04.39""",우각호습지
559,드들습지,전라남도 나주시 남평읍 서산리,"N35°02’56.06""","E126°50’46.96""",하도습지
560,전평제습지,전라남도 나주시 남평읍 수원리,"N35°06’55.83""","E126°50’53.46""",담수호습지
561,진배못습지,전라남도 나주시 산포면 덕례리,"N35°03’31.09""","E126°47’41.12""",우각호습지
562,송림제습지,전라남도 나주시 산포면 신도리,"N35°00’22.13""","E126°48’38.90""",담수호습지
563,화지제습지,전라남도 나주시 산포면 화지리,"N35°01’08.02""","E126°49’02.33""",담수호습지
564,죽청습지,전라남도 화순군 능주면 남정리,"N35°00’34.68""","E126°56’10.70""",하도습지
565,도곡습지,전라남도 화순군 도곡면 천암리,"N35°00’32.98""","E126°54’27.79""",하도습지
566,화순습지,전라남도 화순군 화순읍 서태리,"N35°02’14.61""","E126°57’15.21""",하도습지
567,세천늪(대구),대구광역시 달성군 다사읍 세천리,"N35°52’41.47""","E128°28’05.97""",담수호습지
568,회천습지,경상북도 고령군 운수면 봉평리,"N35°45’54.59""","E128°17’06.30""",하도습지
569,위천늪,대구광역시 달성군 논공읍 위천리,"N35°45’23.46""","E128°23’51.44""",하도습지
570,달성습지,대구광역시 달성군 화원읍 구라리,"N35°49’54.47""","E128°28’44.14""",하도습지
571,봉촌리습지,경상북도 고령군 다산면 노곡리,"N35°51’03.83""","E128°24’49.04""",하도습지
572,낫늪,대구광역시 달성군 논공읍 상리,"N35°45’01.64""","E128°24’06.29""",우각호습지
573,노원습지,대구광역시 달성군 다사읍 방천리,"N35°53’46.29""","E128°33’21.04""",하도습지
574,유등지습지,경상북도 칠곡군 동명면 금암리,"N35°59’55.81""","E128°33’16.72""",담수호습지
575,서리지습지,경상북도 칠곡군 동명면 봉암리,"N35°57’57.38""","E128°33’53.51""",담수호습지
576,광대골지습지,경상북도 칠곡군 동명면 구덕리,"N35°57’49.32""","E128°35’16.59""",담수호습지
577,단산지,경상북도 칠곡군 동명면 구덕리,"N35°55’26.01""","E128°39’00.12""",인공호습지
578,성당못,대구광역시 달서구 성당동,"N35°50’34.24""","E128°33’35.51""",담수호습지
579,수성못,대구광역시 달성군 가창면 용계리,"N35°49’39.07""","E128°37’04.31""",인공호습지
580,팔현습지,경상북도 경산시 압량면 금구리,"N35°51’25.76""","E128°42’02.69""",하도습지
581,금강습지,경상북도 경산시 압량면 금구리,"N35°51’56.42""","E128°45’39.47""",하도습지
582,안심습지,경상북도 경산시 압량면 금구리,"N35°51’54.25""","E128°44’57.60""",담수호습지
583,가남지,경상북도 경산시 압량면 금구리,"N35°52’13.51""","E128°44’16.54""",인공호습지
584,논방골 묵논,경상북도 영천시 금호읍 남성리,"N35°54’21.76""","E128°51’21.25""",소택지
585,문천지,경상북도 경산시 진량읍 문천리,"N35°53’36.44""","E128°50’43.07""",담수호습지
586,풍락제습지,경상북도 영천시 청통면 대평리,"N35°57’06.15""","E128°51’42.11""",담수호습지
587,작은 소월지습지,경상북도 경산시 와촌면 소월리,"N35°57’05.99""","E128°48’52.55""",담수호습지
588,황정습지,경상북도 영천시 금호읍 관정리,"N35°55’18.37""","E128°53’55.88""",하도습지
589,금노습지,경상북도 영천시 금호읍 봉죽리,"N35°57’07.80""","E128°55’18.87""",하도습지
590,화룡습지,경상북도 영천시 청통면 호당리,"N35°58’44.39""","E128°54’55.18""",하도습지
591,단포습지,경상북도 영천시 고경면 단포리,"N35°57’57.19""","E128°57’25.07""",하도습지
592,오통내지,경상북도 영천시 대창면 대창리,"N35°52’30.24""","E128°53’11.54""",하도습지
593,청못,경상북도 영천시 금호읍 구암리,"N35°55’21.42""","E128°56’32.85""",담수호습지
594,우로지,경상북도 영천시 고경면 단포리,"N35°59’00.63""","E128°57’19.02""",생태수변공원
595,유상대제습지,경상북도 영천시 북안면 유상리,"N35°55’38.15""","E128°58’33.48""",담수호습지
596,탑지습지,경상북도 영천시 금호읍 신월리,"N35°56’17.38""","E128°54’01.21""",담수호습지
597,내리교 보습지,경상북도 경산시 압량면 내리,"N35°50’55.68""","E128°47’18.74""",보습지
598,연지습지(경산),경상북도 경산시 진량읍 선화리,"N35°52’10.84""","E128°47’21.54""",담수호습지
599,동자지습지,경상북도 경산시 진량읍 선화리,"N35°52’18.44""","E128°48’00.55""",담수호습지
600,바느리못습지,경상북도 경산시 압량면 의송리,"N35°51’13.89""","E128°47’32.65""",담수호습지
601,감못습지,경상북도 경산시 압량면 신대리,"N35°50’03.06""","E128°46’04.94""",담수호습지
602,도진습지,경상북도 고령군 우곡면 야정리,"N35°39’29.61""","E128°19’56.16""",하도습지
603,소가천습지,경상북도 고령군 대가야읍 본관리,"N35°44’12.57""","E128°16’39.00""",하도습지
604,구곡습지,경상북도 고령군 개진면 구곡리,"N35°42’25.13""","E128°22’33.04""",배후습지
605,박석진교습지,경상북도 고령군 개진면 부리,"N35°42’34.23""","E128°25’49.32""",배후습지
606,봉산늪(고령),경상북도 고령군 우곡면 봉산리,"N35°38’11.24""","E128°22’57.47""",담수호습지
607,진촌늪,경상북도 고령군 개진면 부리,"N35°42’25.87""","E128°25’30.66""",담수호습지
608,지동늪,대구광역시 달성군 현풍면 지리,"N35°41’00.28""","E128°25’58.18""",담수호습지
609,청덕습지,경상남도 합천군 청덕면 가현리,"N35°34’20.20""","E128°20’30.63""",하도습지
610,성산습지,경상남도 합천군 쌍책면 다라리,"N35°34’18.21""","E128°17’29.57""",하도습지
611,적포습지,경상남도 합천군 청덕면 적포리,"N35°33’55.01""","E128°21’19.34""",하도습지
612,오방곡못,경상남도 합천군 청덕면 앙진리,"N35°30’51.51""","E128°21’58.14""",담수호습지
613,앙진못,경상남도 합천군 청덕면 앙진리,"N35°31’11.68""","E128°21’29.35""",담수호습지
614,장천웃늪,경상남도 창녕군 이방면 장천리,"N35°35’51.42""","E128°22’29.69""",담수호습지
615,부수못,경상남도 합천군 적중면 부수리,"N35°32’35.20""","E128°17’05.71""",담수호습지
616,가항수로늪,경상남도 창녕군 유어면 가항리,"N35°31’15.70""","E128°23’01.59""",배후습지
617,유어교습지,경상남도 창녕군 유어면 가항리,"N35°31’13.48""","E128°22’42.27""",하도습지
618,대학지,경상남도 창녕군 대지면 본초리,"N35°31’38.94""","E128°26’21.67""",담수호습지
619,팔락늪,경상남도 창녕군 유어면 미구리,"N35°31’00.46""","E128°24’02.56""",담수호습지
620,가항늪,경상남도 창녕군 유어면 가항리,"N35°31’16.97""","E128°23’09.47""",배후습지
621,목포늪,경상남도 창녕군 이방면 안리,"N35°33’46.75""","E128°24’23.87""",배후습지
622,사지포늪,경상남도 창녕군 대합면 신당리,"N35°33’39.98""","E128°26’00.19""",배후습지
623,우포늪,경상남도 창녕군 유어면 대대리,"N35°33’16.58""","E128°24’58.65""",배후습지
624,쪽지벌늪,경상남도 창녕군 이방면 옥천리,"N35°32’45.06""","E128°24’00.62""",배후습지
625,용호(대곡호),경상남도 창녕군 대합면 목단리,"N35°36’42.80""","E128°24’54.93""",배후습지
626,감암습지,경상남도 의령군 부림면 감암리,"N35°28’33.62""","E128°20’38.54""",하도습지
627,신반천습지,경상남도 의령군 부림면 대곡리,"N35°30’06.91""","E128°21’41.30""",하도습지
628,번개늪,경상남도 창녕군 계성면 봉산리,"N35°26’21.54""","E128°28’54.15""",담수호습지
629,대곡늪,경상남도 창녕군 남지읍 대곡리,"N35°26’13.54""","E128°23’28.00""",담수호습지
630,박진교습지,경상남도 창녕군 남지읍 대곡리,"N35°26’11.31""","E128°22’47.24""",하도습지
631,성사습지,경상남도 창녕군 남지읍 성사리,"N35°25’32.20""","E128°26’56.77""",담수호습지
632,신전늪(창녕),경상남도 창녕군 남지읍 신전리,"N35°24’41.73""","E128°28’03.14""",담수호습지
633,월상늪(창녕),경상남도 창녕군 남지읍 월하리,"N35°26’40.39""","E128°22’59.96""",담수호습지
634,월평습지(창녕),경상남도 창녕군 남지읍 월하리,"N35°27’39.93""","E128°23’18.97""",하도습지
635,장척지,경상남도 창녕군 영산면 신제리,"N35°26’01.92""","E128°29’37.84""",담수호습지
636,대봉습지,경상남도 창녕군 장마면 대봉리,"N35°26’31.51""","E128°27’13.35""",배후습지
637,내내늪,경상남도 함안군 칠서면 계내리,"N35°22’38.25""","E128°28’39.77""",담수호습지
638,신점늪,경상남도 함안군 칠서면 용성리,"N35°22’47.02""","E128°29’42.19""",담수호습지
639,공영교습지,경상남도 창녕군 남지읍 성사리,"N35°25’40.72""","E128°27’46.93""",하도습지
640,돈대늪,경상남도 의령군 용덕면 소상리,"N35°20’18.01""","E128°18’47.50""",하도습지
641,구소늪,경상남도 의령군 용덕면 소상리,"N35°20’19.40""","E128°18’16.42""",배후습지
642,소상늪,경상남도 의령군 용덕면 정동리,"N35°20’39.71""","E128°18’46.23""",하도습지
643,교암늪,경상남도 의령군 의령읍 정암리,"N35°19’25.09""","E128°17’47.79""",하도습지
644,수곡늪,경상남도 함안군 군북면 박곡리,"N35°16’31.99""","E128°17’53.97""",담수호습지
645,석교천습지,경상남도 함안군 군북면 사도리,"N35°17’42.54""","E128°19’30.62""",하도습지
646,뜬늪,경상남도 함안군 군북면 월촌리,"N35°18’18.49""","E128°18’08.87""",생태수변공원
647,유전늪,경상남도 함안군 군북면 유현리,"N35°18’05.61""","E128°20’23.52""",담수호습지
648,대평늪,경상남도 함안군 법수면 대송리,"N35°20’21.76""","E128°20’14.17""",담수호습지
649,질날늪,경상남도 함안군 법수면 우거리,"N35°19’18.62""","E128°20’52.54""",담수호습지
650,황새몰늪,경상남도 함안군 법수면 황사리,"N35°19’28.48""","E128°19’27.40""",담수호습지
651,매곡작은늪,경상남도 함안군 법수면 황사리,"N35°19’45.52""","E128°19’09.37""",담수호습지
652,악양습지(의령),경상남도 의령군 정곡면 적곡리,"N35°20’06.79""","E128°22’20.25""",하도습지
653,장자늪(의령),경상남도 의령군 지정면 마산리,"N35°21’48.00""","E128°24’13.92""",배후습지
654,자연저수지,경상남도 함안군 가야읍 묘사리,"N35°17’30.98""","E128°22’31.30""",담수호습지
655,도화늪,경상남도 함안군 가야읍 산서리,"N35°18’14.83""","E128°24’27.39""",담수호습지
656,윤동늪,경상남도 함안군 대산면 구혜리,"N35°21’15.34""","E128°25’58.00""",담수호습지
657,구혜늪,경상남도 함안군 대산면 구혜리,"N35°21’42.07""","E128°25’37.55""",담수호습지
658,복구늪,경상남도 함안군 대산면 부목리,"N35°21’01.19""","E128°26’53.05""",내수면어업
659,도흥늪,경상남도 함안군 대산면 부목리,"N35°22’24.56""","E128°27’55.70""",담수호습지
660,옥열늪,경상남도 함안군 대산면 옥렬리,"N35°19’19.23""","E128°24’04.42""",하도습지
661,대산늪(함안),경상남도 함안군 대산면 장암리,"N35°21’48.86""","E128°27’02.55""",담수호습지
662,입사늪,경상남도 함안군 대산면 장암리,"N35°22’11.96""","E128°26’59.11""",담수호습지
663,월포늪(함안),경상남도 함안군 대산면 평림리,"N35°20’46.72""","E128°25’43.89""",담수호습지
664,미나리늪,경상남도 함안군 대산면 하기리,"N35°20’46.01""","E128°23’36.56""",담수호습지
665,하기늪,경상남도 함안군 대산면 하기리,"N35°20’53.15""","E128°23’36.10""",담수호습지
666,평기늪,경상남도 함안군 대산면 하기리,"N35°20’58.45""","E128°23’52.82""",담수호습지
667,평기2늪,경상남도 함안군 대산면 하기리,"N35°21’02.67""","E128°24’00.94""",담수호습지
668,신대늪(함안),경상남도 함안군 대산면 하기리,"N35°21’07.88""","E128°24’12.57""",담수호습지
669,은안늪(나비늪),경상남도 함안군 법수면 윤외리,"N35°18’49.97""","E128°22’52.42""",담수호습지
670,옥수늪,경상남도 함안군 법수면 윤외리,"N35°18’49.69""","E128°22’41.98""",담수호습지
671,점늪,경상남도 함안군 칠서면 태곡리,"N35°21’06.82""","E128°29’17.82""",담수호습지
672,송진늪,경상남도 함안군 칠서면 용성리,"N35°23’44.05""","E128°30’04.70""",하도습지
673,마천늪,경상남도 창녕군 부곡면 청암리,"N35°23’46.42""","E128°35’53.20""",하도습지
674,구신늪,경상남도 함안군 칠서면 이룡리,"N35°22’52.61""","E128°30’23.66""",담수호습지
675,한늪,경상남도 함안군 칠서면 이룡리,"N35°23’02.27""","E128°30’16.95""",담수호습지
676,화전습지,경상남도 밀양시 무안면 모로리,"N35°27’20.03""","E128°39’26.56""",하도습지
677,무안습지,경상남도 밀양시 무안면 무안리,"N35°27’46.05""","E128°39’20.28""",하도습지
678,판곡습지,경상남도 밀양시 무안면 삼태리,"N35°29’06.44""","E128°39’33.06""",하도습지
679,지산습지(창녕),경상남도 창녕군 부곡면 구산리,"N35°23’26.35""","E128°38’52.55""",하도습지
680,점촌습지,경상남도 밀양시 무안면 성덕리,"N35°25’24.33""","E128°39’02.29""",하도습지
681,남암습지,경상남도 함안군 칠북면 덕남리,"N35°22’06.93""","E128°31’00.23""",인공수로습지
682,덕남1늪,경상남도 함안군 칠북면 덕남리,"N35°22’22.32""","E128°30’52.84""",담수호습지
683,덕남2늪,경상남도 함안군 칠서면 이룡리,"N35°22’31.59""","E128°30’59.56""",담수호습지
684,이용늪,경상남도 함안군 칠서면 이룡리,"N35°21’56.71""","E128°30’05.97""",담수호습지
685,산남저수지,경상남도 창원시의창구 동읍 금산리,"N35°20’17.96""","E128°40’20.25""",담수호습지
686,정병산습지,경상남도 창원시의창구 동읍 덕산리,"N35°15’44.53""","E128°40’42.40""",소택지
687,주남저수지,경상남도 창원시의창구 동읍 석산리,"N35°19’10.73""","E128°40’21.44""",담수호습지
688,동판저수지,경상남도 창원시의창구 동읍 월잠리,"N35°17’59.96""","E128°41’08.70""",담수호습지
689,보라소습지,경상남도 밀양시 산외면 희곡리,"N35°31’55.82""","E128°51’03.90""",하도습지
690,냉천늪,경상남도 밀양시 삼랑진읍 송지리,"N35°23’54.44""","E128°50’11.06""",하도습지
691,삼랑진늪,경상남도 밀양시 삼랑진읍 송지리,"N35°24’27.3""","E128°50’38.4""",하도습지
692,밀주습지,경상남도 밀양시 상남면 예림리,"N35°28’17.72""","E128°45’45.37""",하도습지
693,도요습지,경상남도 김해시 생림면 도요리,"N35°23’29.11""","E128°51’56.21""",생태수변공원
694,운창늪,경상남도 김해시 진영읍 설창리,"N35°17’40.99""","E128°46’47.64""",하도습지
695,본산늪,경상남도 김해시 진영읍 설창리,"N35°17’46.93""","E128°46’43.31""",하도습지
696,모정습지,경상남도 김해시 한림면 금곡리,"N35°20’31.71""","E128°48’35.04""",하도습지
697,한림정늪,경상남도 김해시 한림면 장방리,"N35°18’52.01""","E128°48’34.82""",하도습지
698,화포습지,경상남도 김해시 한림면 퇴래리,"N35°18’46.26""","E128°47’52.25""",하도습지
699,오산습지(밀양),경상남도 밀양시 상남면 외산리,"N35°22’14.5""","E128°47’35.64""",하도습지
700,감노습지,경상남도 김해시 상동면 감노리,"N35°21’05.96""","E128°55’43.01""",하도습지
701,매리습지,경상남도 김해시 상동면 매리,"N35°19’01.39""","E128°57’17.90""",하도습지
702,회산습지,경상남도 양산시 물금읍 증산리,"N35°17’46.01""","E128°59’30.20""",하도습지
703,원동습지,경상남도 양산시 원동면 용당리,"N35°22’13.28""","E128°54’44.15""",하도습지
704,염막습지,경상남도 김해시 대동면 수안리,"N35°08’15.22""","E128°56’56.53""",하도습지
705,둔치습지,경상남도 김해시 주촌면 농소리,"N35°08’27.31""","E128°53’31.81""",하도습지
706,차등습지,경상남도 김해시 대동면 수안리,"N35°10’27.23""","E128°54’17.10""",하도습지
707,엄궁습지,경상남도 김해시 대동면 수안리,"N35°08’24.31""","E128°57’42.76""",하도습지
708,삼락습지,경상남도 김해시 대동면 수안리,"N35°11’03.90""","E128°58’04.83""",하도습지
709,일웅도습지,경상남도 김해시 대동면 수안리,"N35°07’04.07""","E128°56’54.41""",하도습지
710,모래불습지,경상남도 양산시 상북면 소석리,"N35°23’50.89""","E129°03’10.03""",하도습지
711,와곡습지,경상남도 양산시 상북면 소토리,"N35°22’53.52""","E129°02’51.86""",생태수변공원
712,신전습지(양산),경상남도 양산시 상북면 상삼리,"N35°25’49.29""","E129°03’28.09""",하도습지
713,신불산1습지,경상남도 양산시 원동면 대리,"N35°25’30.90""","E129°00’02.26""",저층습원
714,신불산2습지,경상남도 양산시 상북면 좌삼리,"N35°25’21.99""","E129°00’13.13""",저층습원
715,신불산3습지,경상남도 양산시 상북면 좌삼리,"N35°25’19.68""","E129°00’09.11""",저층습원
716,신불산4습지,경상남도 양산시 원동면 대리,"N35°25’38.01""","E129°00’01.27""",저층습원
717,삼수습지,경상남도 양산시 하북면 백록리,"N35°28’25.10""","E129°04’58.61""",하도습지
718,삼감습지,경상남도 양산시 하북면 용연리,"N35°26’43.00""","E129°04’10.92""",하도습지
719,화엄늪,경상남도 양산시 하북면 용연리,"N35°24’23.46""","E129°06’01.30""",저층습원
720,무제치4늪,울산광역시 울주군 삼동면 조일리,"N35°27’27.62""","E129°08’07.70""",고층습원
721,밀밭늪,경상남도 양산시 하북면 용연리,"N35°24’57.51""","E129°07’40.78""",저층습원
722,안적늪,경상남도 양산시 하북면 용연리,"N35°26’37.02""","E129°08’37.30""",저층습원
723,안적3늪,경상남도 양산시 하북면 용연리,"N35°26’43.71""","E129°08’29.19""",소택지
724,대성늪,경상남도 양산시 하북면 용연리,"N35°26’57.37""","E129°08’13.09""",소택지
725,대성뒷늪,경상남도 양산시 하북면 용연리,"N35°27’07.63""","E129°07’46.33""",소택지
726,대성1늪,경상남도 양산시 하북면 용연리,"N35°27’05.82""","E129°08’14.14""",소택지
727,대성2늪,경상남도 양산시 하북면 용연리,"N35°26’59.45""","E129°08’12.96""",소택지
728,무제치1늪,울산광역시 울주군 삼동면 조일리,"N35°27’46.1""","E129°08’35.6""",저층습원
729,무제치2늪,울산광역시 울주군 삼동면 조일리,"N35°27’36.13""","E129°08’36.15""",저층습원
730,무제치3늪,울산광역시 울주군 삼동면 조일리,"N35°27’26.0""","E129°08’03.1""",저층습원
731,화제늪,경상남도 양산시 동면 석산리,"N35°19’36.32""","E129°01’17.80""",하도습지
732,양산습지,경상남도 양산시 동면 가산리,"N35°18’02.56""","E129°00’57.36""",하도습지
733,학골늪,경상남도 양산시 하북면 백록리,"N35°28’10.40""","E129°06’00.05""",저층습원
734,일광늪,부산광역시 기장군 기장읍 만화리,"N35°15’55.02""","E129°12’18.01""",소택지
735,신덕습지(부산),경상남도 김해시 대동면 초정리,"N35°11’53.74""","E128°58’41.30""",하도습지
736,낙동강하구,경상남도 김해시 대동면 수안리,"N35°04’00.83""","E128°55’33.20""",하구삼각주습지
737,용두습지,충청남도 부여군 은산면 용두리,"N36°22’28.27""","E126°50’38.00""",하도습지
738,금정습지,충청남도 청양군 남양면 금정리,"N36°24’07.19""","E126°48’06.17""",보습지
739,작천습지,충청남도 청양군 대치면 작천리,"N36°23’28.21""","E126°51’22.79""",하도습지
740,읍내습지,충청남도 청양군 청양읍 정좌리,"N36°25’47.62""","E126°47’21.87""",하도습지
741,해남습지,충청남도 청양군 정산면 해남리,"N36°25’52.36""","E126°57’19.59""",하도습지
742,천장호습지,충청남도 청양군 정산면 천장리,"N36°24’47.10""","E126°55’04.12""",인공호습지
743,모리습지,충청남도 부여군 규암면 모리,"N36°18’14.56""","E126°52’04.24""",하도습지
744,분향습지,충청남도 청양군 장평면 분향리,"N36°19’30.02""","E126°53’14.99""",하도습지
745,반산습지,충청남도 부여군 규암면 합송리,"N36°16’21.46""","E126°50’52.44""",담수호습지
746,외리습지,충청남도 부여군 규암면 외리,"N36°15’56.62""","E126°53’32.32""",하도습지
747,구드레습지,충청남도 부여군 규암면 진변리,"N36°17’07.60""","E126°53’53.65""",하도습지
748,진변습지,충청남도 부여군 규암면 반산리,"N36°16’50.58""","E126°52’47.02""",하도습지
749,저석습지1,충청남도 청양군 청남면 왕진리,"N36°19’37.61""","E126°57’28.72""",하도습지
750,저석습지2,충청남도 부여군 부여읍 저석리,"N36°19’52.57""","E126°57’36.37""",하도습지
751,호암습지,충청남도 부여군 규암면 호암리,"N36°17’41.40""","E126°54’53.79""",하도습지
752,궁남지습지,충청남도 부여군 부여읍 동남리,"N36°16’11.29""","E126°54’45.75""",인공호습지
753,금강호습지,충청남도 서천군 화양면 와초리,"N36°01’51.55""","E126°47’52.59""",하도습지
754,남면습지,충청남도 부여군 구룡면 용당리,"N36°13’49.40""","E126°49’27.14""",보습지
755,합곡습지,충청남도 부여군 장암면 원문리,"N36°14’04.18""","E126°52’12.89""",하도습지
756,복심저수지,충청남도 부여군 충화면 가화리,"N36°08’33.52""","E126°49’11.33""",담수호습지
757,복금리저수지,충청남도 부여군 충화면 복금리,"N36°11’07.53""","E126°50’59.27""",담수호습지
758,봉선지,충청남도 서천군 시초면 봉선리,"N36°06’54.37""","E126°46’41.53""",담수호습지
759,성당습지,충청남도 부여군 임천면 칠산리,"N36°08’21.92""","E126°54’25.58""",하도습지
760,북고습지,충청남도 부여군 장암면 북고리,"N36°14’47.38""","E126°56’26.50""",하도습지
761,하황습지,충청남도 부여군 세도면 사산리,"N36°12’42.55""","E126°58’10.75""",하도습지
762,용두하중도습지,전라북도 익산시 망성면 화산리,"N36°08’43.58""","E126°58’50.71""",하도습지
763,신성습지,충청남도 서천군 한산면 신성리,"N36°03’55.11""","E126°51’58.94""",하도습지
764,축동지,충청남도 서천군 한산면 축동리,"N36°06’18.30""","E126°48’22.34""",담수호습지
765,덕용습지,전라북도 익산시 성당면 부곡리,"N36°06’31.46""","E126°56’28.04""",하도습지
766,부곡습지,전라북도 익산시 용동면 화실리,"N36°04’51.23""","E126°59’22.58""",하도습지
767,장산습지(천안),충청남도 천안시동남구 수신면 장산리,"N36°43’42.40""","E127°18’00.70""",하도습지
768,쌍청습지,충청북도 흥덕구 오송읍 쌍청리,"N36°37’40.38""","E127°21’05.06""",하도습지
769,장남습지,충청북도 흥덕구 옥산면 장남리,"N36°42’09.56""","E127°21’29.74""",하도습지
770,환희습지,충청북도 흥덕구 옥산면 환희리,"N36°40’15.72""","E127°21’34.23""",하도습지
771,외하습지,충청북도 청원구 북이면 화상리,"N36°43’19.25""","E127°29’01.96""",하도습지
772,오창습지,충청북도 청원구 오창읍 탑리,"N36°41’33.13""","E127°27’19.48""",하도습지
773,남촌습지,충청북도 흥덕구 옥산면 남촌리,"N36°40’50.82""","E127°24’49.09""",하도습지
774,명학습지,세종특별자치시 세종특별자치시 연기면 세종리,"N36°30’54.75""","E127°20’35.37""",하도습지
775,합강습지,세종특별자치시 세종특별자치시 연기면 세종리,"N36°30’45.48""","E127°18’49.74""",하도습지
776,예양습지,세종특별자치시 세종특별자치시 연서면 월하리,"N36°32’27.93""","E127°17’55.76""",하도습지
777,오송습지,충청북도 흥덕구 오송읍 오송리,"N36°35’29.58""","E127°19’49.26""",하도습지
778,외천습지,충청북도 서원구 남이면 부용외천리,"N36°31’43.84""","E127°25’43.33""",하도습지
779,동대습지,충청남도 공주시 우성면 동대리,"N36°27’52.42""","E127°04’03.43""",하도습지
780,동천습지,충청남도 공주시 우성면 동대리,"N36°28’08.29""","E127°02’49.02""",하도습지
781,신흥습지(공주),충청남도 청양군 목면 신흥리,"N36°23’44.36""","E127°01’22.29""",하도습지
782,쌍신습지,충청남도 공주시 우성면 신웅리,"N36°28’43.39""","E127°07’14.22""",우각호습지
783,옥성리배후습지,충청남도 공주시 우성면 옥성리,"N36°27’08.39""","E127°04’51.33""",배후습지
784,소학동하도습지,충청남도 공주시 우성면 신웅리,"N36°27’23.57""","E127°08’47.02""",하도습지
785,월송습지(공주),충청남도 공주시 의당면 청룡리,"N36°27’27.05""","E127°09’03.21""",하도습지
786,외암습지,세종특별자치시 세종특별자치시 장군면 금암리,"N36°26’09.11""","E127°13’08.32""",하도습지
787,장암습지(공주),세종특별자치시 세종특별자치시 장군면 금암리,"N36°26’30.66""","E127°11’44.92""",하도습지
788,분강습지,충청남도 공주시 탄천면 성리,"N36°19’52.23""","E127°00’53.27""",하도습지
789,오강습지,충청남도 논산시 광석면 중리,"N36°15’13.14""","E127°03’14.63""",하도습지
790,송정습지(부여),충청남도 논산시 노성면 효죽리,"N36°16’26.74""","E127°04’02.45""",하도습지
791,소곡저수지,충청남도 논산시 노성면 송당리,"N36°16’37.00""","E127°07’13.26""",담수호습지
792,경천습지,충청남도 공주시 계룡면 경천리,"N36°19’27.06""","E127°09’22.59""",하도습지
793,하도습지,충청남도 논산시 노성면 하도리,"N36°15’25.76""","E127°08’20.74""",하도습지
794,계룡저수지,충청남도 공주시 계룡면 하대리,"N36°21’27.80""","E127°09’11.64""",인공호습지
795,대평습지,세종특별자치시 세종특별자치시 연기면 세종리,"N36°28’47.98""","E127°16’41.07""",하도습지
796,도암습지,세종특별자치시 세종특별자치시 금남면 도암리,"N36°27’21.95""","E127°16’37.03""",하도습지
797,노산습지,충청북도 서원구 현도면 노산리,"N36°26’59.06""","E127°26’48.61""",하도습지
798,대청호 이현동습지,충청북도 상당구 문의면 가호리,"N36°25’11.76""","E127°28’26.35""",인공호습지
799,대청호 직동습지,충청북도 상당구 문의면 가호리,"N36°24’26.89""","E127°29’35.44""",인공호습지
800,유천습지,충청남도 금산군 복수면 지량리,"N36°15’58.52""","E127°19’48.89""",하도습지
801,방동저수지,충청남도 계룡시 두마면 두계리,"N36°16’51.38""","E127°18’15.25""",담수호습지
802,세천습지(대전),충청북도 옥천군 군북면 자모리,"N36°20’20.33""","E127°29’26.42""",하도습지
803,대청호 신상동습지,충청북도 옥천군 군북면 증약리,"N36°21’29.16""","E127°29’47.22""",인공호습지
804,대청호 추동습지,충청북도 옥천군 군북면 증약리,"N36°22’08.50""","E127°28’42.53""",인공호습지
805,초강습지,충청북도 영동군 심천면 초강리,"N36°12’52.23""","E127°42’41.26""",하도습지
806,심천습지,충청북도 영동군 심천면 고당리,"N36°14’27.49""","E127°42’26.53""",하도습지
807,서금동습지,충청북도 영동군 심천면 용당리,"N36°13’46.75""","E127°43’43.72""",하도습지
808,구강습지,충청북도 영동군 양강면 구강리,"N36°09’37.30""","E127°41’39.20""",하도습지
809,잠두2교습지,전라북도 무주군 무주읍 용포리,"N36°00’23.00""","E127°36’16.25""",하도습지
810,천내리습지,충청남도 금산군 제원면 천내리,"N36°06’13.92""","E127°34’42.80""",하도습지
811,내도리습지,전라북도 무주군 무주읍 내도리,"N36°01’02.63""","E127°39’06.53""",보습지
812,당산리습지,전라북도 무주군 무주읍 오산리,"N36°00’22.09""","E127°41’02.50""",하도습지
813,방우리습지,충청남도 금산군 부리면 방우리,"N36°02’30.91""","E127°37’32.77""",하도습지
814,읍내리습지,전라북도 무주군 무주읍 읍내리,"N36°00’48.29""","E127°39’33.19""",하도습지
815,수마래미습지,충청북도 영동군 황간면 소계리,"N36°13’23.21""","E127°55’24.56""",하도습지
816,옥포교습지,충청북도 영동군 황간면 마산리,"N36°13’34.66""","E127°54’50.36""",하도습지
817,용화리습지,전라북도 무주군 설천면 청량리,"N36°01’31.74""","E127°45’37.09""",하도습지
818,수래너머습지,충청북도 영동군 상촌면 상도대리,"N36°07’06.63""","E127°53’40.49""",하도습지
819,적덕습지,경상북도 봉화군 봉화읍 적덕리,"N36°52’30.85""","E128°41’21.47""",하도습지
820,월호습지,경상북도 영주시 문수면 월호리,"N36°45’35.07""","E128°37’40.51""",하도습지
821,문단보습지,경상북도 영주시 이산면 신암리,"N36°51’25.24""","E128°41’09.41""",하도습지
822,늘못습지,경상북도 봉화군 명호면 관창리,"N36°48’48.68""","E128°50’35.15""",고층습원
823,퇴강습지,경상북도 상주시 함창읍 하갈리,"N36°32’08.71""","E128°15’08.81""",하도습지
824,경천호,경상북도 문경시 동로면 인곡리,"N36°42’42.45""","E128°18’26.78""",담수호습지
825,고평습지,경상북도 예천군 예천읍 고평리,"N36°36’58.60""","E128°29’09.36""",하도습지
826,대왕교습지,경상북도 예천군 호명면 내신리,"N36°37’53.71""","E128°26’03.73""",하도습지
827,달지습지,경상북도 예천군 용궁면 무이리,"N36°34’38.87""","E128°17’10.39""",하도습지
828,회룡포습지,경상북도 예천군 용궁면 대은리,"N36°34’39.36""","E128°20’15.96""",하도습지
829,삼강습지,경상북도 예천군 용궁면 향석리,"N36°33’57.05""","E128°17’56.06""",하도습지
830,오천습지,경상북도 예천군 호명면 월포리,"N36°35’57.42""","E128°28’06.00""",하도습지
831,경진습지,경상북도 예천군 개포면 동송리,"N36°35’37.68""","E128°24’00.10""",하도습지
832,석탑교습지,경상북도 안동시 북후면 석탑리,"N36°42’59.55""","E128°36’17.36""",하도습지
833,탄산리습지,경상북도 영주시 문수면 수도리,"N36°43’48.34""","E128°37’27.77""",하도습지
834,미호교습지,경상북도 예천군 보문면 작곡리,"N36°40’41.20""","E128°31’22.49""",하도습지
835,오신교습지,경상북도 예천군 보문면 오신리,"N36°41’51.72""","E128°33’40.80""",하도습지
836,평은습지,경상북도 영주시 평은면 강동리,"N36°44’15.37""","E128°40’47.65""",하도습지
837,안교습지,경상북도 안동시 남후면 하아리,"N36°33’46.15""","E128°33’51.39""",하도습지
838,병산리습지,경상북도 안동시 풍천면 하회리,"N36°32’06.44""","E128°32’07.81""",하도습지
839,마애리습지,경상북도 안동시 풍산읍 마애리,"N36°33’02.05""","E128°35’22.63""",하도습지
840,구담습지(안동),경상북도 안동시 풍천면 광덕리,"N36°32’49.10""","E128°29’41.73""",하도습지
841,검암습지,경상북도 안동시 풍산읍 회곡리,"N36°32’45.38""","E128°38’22.50""",하도습지
842,월평습지(안동),경상북도 안동시 남후면 무릉리,"N36°31’14.23""","E128°40’57.24""",하도습지
843,송티재습지,경상북도 안동시 도산면 분천리,"N36°42’48.07""","E128°50’10.27""",담수호습지
844,기사리습지,경상북도 안동시 예안면 기사리,"N36°38’31.66""","E128°51’51.92""",담수호습지
845,단사습지,경상북도 안동시 도산면 단천리,"N36°44’01.23""","E128°52’55.96""",하도습지
846,지촌습지,경상북도 안동시 예안면 귀단리,"N36°41’08.33""","E128°52’47.29""",담수호습지
847,벌티습지,경상북도 안동시 임동면 사월리,"N36°36’08.94""","E128°54’17.94""",담수호습지
848,뱃티재습지,경상북도 안동시 임동면 마령리,"N36°36’02.67""","E128°56’14.46""",담수호습지
849,마령습지,경상북도 안동시 임동면 마령리,"N36°34’59.46""","E128°57’05.10""",담수호습지
850,병성천습지,경상북도 상주시 사벌면 금흔리,"N36°26’11.84""","E128°13’27.08""",하도습지
851,낙상습지,경상북도 상주시 사벌면 원흥리,"N36°27’35.77""","E128°11’28.79""",하도습지
852,남천습지,경상북도 상주시 낙동면 운평리,"N36°23’28.16""","E128°09’46.23""",하도습지
853,중덕저수지,경상북도 상주시 사벌면 금흔리,"N36°26’46.75""","E128°10’52.03""",담수호습지
854,단밀습지,경상북도 의성군 단밀면 속암리,"N36°21’35.28""","E128°23’50.95""",하도습지
855,미천 보습지1,경상북도 안동시 일직면 구천리,"N36°28’41.74""","E128°39’56.11""",보습지
856,미천 보습지2,경상북도 안동시 일직면 광연리,"N36°26’17.88""","E128°40’10.30""",보습지
857,미천 보습지3,경상북도 의성군 단촌면 병방리,"N36°25’59.05""","E128°42’57.32""",보습지
858,위천 하도습지,경상북도 의성군 비안면 쌍계리,"N36°19’02.68""","E128°32’00.54""",하도습지
859,쌍계천 보습지,경상북도 의성군 봉양면 구산리,"N36°17’12.38""","E128°36’45.96""",보습지
860,남대천 보습지,경상북도 의성군 의성읍 원당리,"N36°21’00.46""","E128°40’08.80""",보습지
861,강호습지,경상북도 김천시 아포읍 지리,"N36°11’42.99""","E128°14’16.80""",하도습지
862,샛강습지,경상북도 구미시 고아읍 문성리,"N36°07’52.82""","E128°21’17.47""",배후습지
863,해평습지,경상북도 구미시 고아읍 괴평리,"N36°10’08.00""","E128°22’53.34""",하도습지
864,금오산저수지,경상북도 김천시 아포읍 대성리,"N36°07’04.41""","E128°18’58.91""",인공호습지
865,장제지습지,경상북도 의성군 가음면 장리,"N36°14’17.56""","E128°43’26.28""",담수호습지
866,순호지,경상북도 의성군 가음면 순호리,"N36°12’21.95""","E128°43’38.82""",담수호습지
867,새마습지,경상북도 군위군 산성면 운산리,"N36°06’33.98""","E128°41’56.53""",배후습지
868,하마지습지,경상북도 영천시 신녕면 완전리,"N36°02’16.28""","E128°47’57.67""",담수호습지
869,갈마지못습지,경상북도 영천시 화산면 대기리,"N36°01’04.7""","E128°55’06.1""",인공호습지
870,소월지습지,경상북도 경산시 와촌면 소월리,"N35°56’41.6""","E128°49’39.0""",인공호습지
871,신지습지,경상북도 경산시 하양읍 교리,"N35°55’36.3""","E128°48’56.9""",인공호습지
872,대내지습지,경상북도 영천시 화남면 신호리,"N36°02’31.20""","E128°56’31.89""",담수호습지
873,송촌리습지,경기도 남양주시 조안면 송촌리,"N37°34’18.19""","E127°19’45.69""",하도습지
874,안흥1습지(동두천),경기도 양주시 은현면 봉암리,"N37°55’28.29""","E127°01’24.55""",소택지
875,안흥2습지(동두천),경기도 양주시 은현면 봉암리,"N37°55’17.50""","E127°01’11.16""",소택지
876,포천1습지,경기도 포천시 군내면 용정리,"N37°53’26.92""","E127°11’04.88""",소택지
877,포천2습지,경기도 포천시 군내면 용정리,"N37°53’22.74""","E127°11’15.17""",소택지
878,삼성당습지,경기도 포천시 신북면 삼성당리,"N37°57’03.79""","E127°11’23.49""",소택지
879,구읍습지,경기도 포천시 군내면 구읍리,"N37°53’17.85""","E127°12’51.74""",소택지
880,추동습지(포천),경기도 포천시 창수면 추동리,"N37°58’57.93""","E127°10’57.05""",하도습지
881,어룡습지,경기도 포천시 군내면 용정리,"N37°53’25.99""","E127°10’49.82""",소택지
882,상판습지,경기도 가평군 조종면 상판리,"N37°54’06.33""","E127°23’09.52""",소택지
883,신팔1습지,경기도 포천시 내촌면 신팔리,"N37°49’51.09""","E127°15’57.41""",소택지
884,신팔2습지,경기도 포천시 내촌면 신팔리,"N37°50’56.82""","E127°16’48.09""",소택지
885,명덕습지,경기도 포천시 화현면 명덕리,"N37°51’18.73""","E127°16’02.78""",소택지
886,승안습지,경기도 가평군 가평읍 승안리,"N37°50’42.50""","E127°28’41.69""",소택지
887,산유1습지,경기도 가평군 가평읍 산유리,"N37°45’47.05""","E127°29’55.27""",소택지
888,산유2습지,경기도 가평군 가평읍 산유리,"N37°45’29.93""","E127°29’38.06""",소택지
889,상천1습지,경기도 가평군 청평면 상천리,"N37°46’53.21""","E127°27’52.79""",인공수로습지
890,상천2습지,경기도 가평군 청평면 상천리,"N37°47’13.13""","E127°25’56.60""",담수호습지
891,화악습지,경기도 가평군 북면 화악리,"N37°56’15.05""","E127°33’35.68""",소택지
892,지암습지,강원도 춘천시 사북면 지암리,"N37°58’56.73""","E127°36’51.69""",소택지
893,인람습지,강원도 춘천시 사북면 인람리,"N37°59’35.32""","E127°39’43.85""",소택지
894,고성습지,강원도 춘천시 사북면 고성리,"N37°59’34.38""","E127°43’04.80""",소택지
895,방동습지,강원도 춘천시 서면 방동리,"N37°53’30.89""","E127°40’18.31""",담수호습지
896,이화습지,경기도 가평군 가평읍 이화리,"N37°47’40.15""","E127°30’32.99""",소택지
897,안보습지,강원도 춘천시 서면 안보리,"N37°50’16.67""","E127°34’42.37""",소택지
898,문배습지,강원도 춘천시 남산면 강촌리,"N37°47’26.84""","E127°36’12.42""",소택지
899,당림습지,강원도 춘천시 서면 당림리,"N37°51’06.63""","E127°36’00.88""",소택지
900,달전1습지,경기도 가평군 가평읍 달전리,"N37°48’25.50""","E127°31’00.12""",소택지
901,달전2습지,경기도 가평군 가평읍 달전리,"N37°48’30.91""","E127°31’01.05""",소택지
902,달전3습지,경기도 가평군 가평읍 달전리,"N37°48’36.15""","E127°31’03.71""",소택지
903,가정습지,강원도 춘천시 남면 가정리,"N37°45’05.22""","E127°34’05.49""",소택지
904,추곡습지,강원도 춘천시 남면 추곡리,"N37°45’26.57""","E127°39’35.87""",소택지
905,수동습지,강원도 춘천시 남산면 수동리,"N37°45’40.28""","E127°38’41.77""",소택지
906,군자습지,강원도 춘천시 동산면 군자리,"N37°45’30.49""","E127°44’14.01""",소택지
907,조정천 청평습지,경기도 가평군 청평면 청평리,"N37°44’42.85""","E127°25’48.35""",하도습지
908,사기막습지,경기도 가평군 청평면 청평리,"N37°43’28.23""","E127°24’54.42""",하도습지
909,익내습지,경기도 가평군 설악면 엄소리,"N37°39’24.38""","E127°29’06.32""",하도습지
910,점말습지(가평),경기도 가평군 설악면 이천리,"N37°38’59.83""","E127°26’42.66""",하도습지
911,하촌습지,경기도 가평군 설악면 엄소리,"N37°38’41.26""","E127°30’25.75""",하도습지
912,비석말습지,경기도 양평군 서종면 수입리,"N37°38’26.74""","E127°23’30.75""",하도습지
913,영천습지,경기도 가평군 설악면 이천리,"N37°39’22.66""","E127°26’49.19""",소택지
914,신원리 샘골습지,경기도 양평군 양서면 신원리,"N37°31’52.97""","E127°22’02.25""",하구갯벌습지
915,조안리습지,경기도 남양주시 조안면 조안리,"N37°32’32.92""","E127°18’37.55""",하도습지
916,개미기도랑습지,경기도 양평군 양서면 용담리,"N37°32’14.44""","E127°19’22.71""",하도습지
917,수대울습지,경기도 양평군 서종면 문호리,"N37°35’13.63""","E127°20’39.84""",하도습지
918,신원교습지,경기도 양평군 양서면 신원리,"N37°31’22.81""","E127°22’29.39""",하도습지
919,양수리습지,경기도 양평군 양서면 양수리,"N37°32’01.48""","E127°18’32.98""",하도습지
920,용담리습지,경기도 양평군 양서면 용담리,"N37°32’34.07""","E127°19’45.38""",하도습지
921,하문호습지,경기도 양평군 서종면 문호리,"N37°35’38.25""","E127°20’53.06""",하도습지
922,소내섬습지,경기도 광주시 남종면 우천리,"N37°30’25.33""","E127°17’46.53""",하도습지
923,귀여습지,경기도 광주시 남종면 귀여리,"N37°30’30.81""","E127°18’54.06""",하도습지
924,건지미습지,경기도 양평군 양서면 양수리,"N37°34’33.74""","E127°20’14.39""",담수호습지
925,복포천 하류습지,경기도 양평군 양서면 국수리,"N37°30’38.64""","E127°23’28.26""",하구갯벌습지
926,낙촌습지,경기도 양평군 서종면 수능리,"N37°35’50.85""","E127°22’45.07""",하도습지
927,복포교습지,경기도 양평군 양서면 복포리,"N37°30’48.04""","E127°25’20.50""",하도습지
928,아신리습지,경기도 양평군 옥천면 아신리,"N37°30’38.90""","E127°26’28.19""",하도습지
929,장현습지,경기도 양평군 서종면 수능리,"N37°35’25.02""","E127°22’50.18""",하도습지
930,광동리 인공습지,경기도 광주시 퇴촌면 광동리,"N37°28’17.96""","E127°18’02.31""",하구갯벌습지
931,경안천습지,경기도 광주시 퇴촌면 정지리,"N37°26’37.79""","E127°18’11.87""",하도습지
932,서하리습지,경기도 광주시 초월읍 서하리,"N37°25’58.51""","E127°18’46.55""",하도습지
933,역리습지,경기도 광주시 오포읍 양벌리,"N37°23’43.76""","E127°15’11.65""",하도습지
934,오송계습지,경기도 광주시 초월읍 지월리,"N37°25’56.15""","E127°17’37.02""",하도습지
935,오빈습지,경기도 양평군 양평읍 오빈리,"N37°29’51.62""","E127°28’18.54""",하도습지
936,곤지암습지,경기도 광주시 곤지암읍 신대리,"N37°21’04.60""","E127°20’20.89""",하도습지
937,금사습지,경기도 여주시 금사면 금사리,"N37°24’32.33""","E127°32’07.07""",하도습지
938,흑천하류습지,경기도 양평군 양평읍 회현리,"N37°27’08.69""","E127°30’00.72""",하도습지
939,서원습지,경기도 여주시 북내면 주암리,"N37°23’28.03""","E127°40’57.71""",하도습지
940,양화천 하류습지,경기도 여주시 능서면 내양리,"N37°21’03.01""","E127°34’05.62""",하도습지
941,양화천 율극리습지,경기도 여주시 흥천면 율극리,"N37°19’59.59""","E127°34’22.99""",하도습지
942,양화천 구양리습지,경기도 여주시 능서면 구양리,"N37°19’00.84""","E127°34’13.40""",하도습지
943,복대습지,경기도 여주시 흥천면 상백리,"N37°22’08.77""","E127°32’57.26""",하도습지
944,이포습지,경기도 여주시 대신면 천서리,"N37°23’19.66""","E127°32’31.93""",하도습지
945,흥천교습지,경기도 이천시 백사면 상용리,"N37°19’58.64""","E127°32’08.12""",하도습지
946,신진리이호습지,경기도 여주시 강천면 이호리,"N37°16’56.71""","E127°40’40.14""",배후습지
947,노리게습지,강원도 원주시 호저면 주산리,"N37°23’27.87""","E127°56’24.44""",하도습지
948,둔둔리습지,강원도 횡성군 횡성읍 모평리,"N37°27’11.02""","E127°58’07.69""",하도습지
949,하태교습지,강원도 원주시 호저면 주산리,"N37°22’51.78""","E127°56’31.53""",하도습지
950,문막교습지,강원도 원주시 문막읍 건등리,"N37°18’35.22""","E127°48’30.96""",하도습지
951,물구비습지,강원도 원주시 문막읍 포진리,"N37°17’13.29""","E127°48’10.98""",하도습지
952,원주 안창대교습지,강원도 원주시 문막읍 동화리,"N37°20’13.05""","E127°49’26.29""",하도습지
953,섬강 간현리습지,강원도 원주시 지정면 안창리,"N37°21’18.80""","E127°49’53.47""",하도습지
954,간현리 구하도습지,강원도 원주시 지정면 간현리,"N37°21’13.15""","E127°50’17.57""",하도습지
955,봉미교습지,강원도 원주시 흥업면 사제리,"N37°20’05.94""","E127°53’39.03""",하도습지
956,사제교습지,강원도 원주시 흥업면 사제리,"N37°19’45.41""","E127°53’29.64""",하도습지
957,상광터습지,강원도 원주시 흥업면 사제리,"N37°20’47.25""","E127°52’38.48""",하도습지
958,자감교습지,강원도 원주시 흥업면 흥업리,"N37°18’28.48""","E127°54’56.38""",하도습지
959,중부동습지,강원도 원주시 호저면 만종리,"N37°20’49.56""","E127°53’39.41""",하도습지
960,하광터습지,강원도 원주시 지정면 보통리,"N37°20’47.37""","E127°53’06.46""",하도습지
961,매지저수지(흥업저수지),강원도 원주시 흥업면 매지리,"N37°16’50.85""","E127°54’23.50""",인공호습지
962,삼합리섬습지,경기도 여주시 점동면 도리,"N37°13’38.59""","E127°43’10.16""",하도습지
963,봉현교습지,강원도 원주시 흥업면 사제리,"N37°19’24.69""","E127°53’30.56""",하도습지
964,샘개나루습지,강원도 원주시 부론면 정산리,"N37°09’31.77""","E127°46’03.23""",하도습지
965,덕은나루습지,강원도 원주시 부론면 단강리,"N37°09’00.23""","E127°46’53.89""",하도습지
966,화당습지(도곡),충청북도 제천시 백운면 도곡리,"N37°09’48.23""","E127°59’36.62""",하도습지
967,덕음습지,충청북도 충주시 소태면 덕은리,"N37°07’29.81""","E127°47’55.65""",하도습지
968,부도골습지,충청북도 충주시 중앙탑면 장천리,"N37°03’09.98""","E127°52’14.20""",하도습지
969,비내섬습지,충청북도 충주시 앙성면 조천리,"N37°06’36.81""","E127°48’50.75""",하도습지
970,여우섬습지,충청북도 충주시 중앙탑면 장천리,"N37°04’53.44""","E127°52’00.88""",하도습지
971,월상습지(충주),충청북도 충주시 금가면 월상리,"N37°02’05.65""","E127°52’07.25""",하도습지
972,탑평습지,충청북도 충주시 중앙탑면 용전리,"N37°01’36.94""","E127°51’07.49""",하도습지
973,하청나루습지,충청북도 충주시 중앙탑면 가흥리,"N37°04’53.47""","E127°50’09.13""",하도습지
974,두모소습지,충청북도 충주시 엄정면 목계리,"N37°03’49.19""","E127°53’19.24""",하도습지
975,버레습지,충청북도 충주시 동량면 조동리,"N37°00’55.58""","E127°58’23.01""",하도습지
976,용대습지,충청북도 충주시 동량면 용교리,"N37°01’16.09""","E127°56’01.05""",하도습지
977,원곡천습지,충청북도 충주시 엄정면 신만리,"N37°05’45.58""","E127°55’54.40""",하도습지
978,원포습지,충청북도 충주시 금가면 원포리,"N37°01’03.73""","E127°52’24.34""",하도습지
979,원토곡습지,충청북도 충주시 동량면 대전리,"N37°02’03.91""","E127°57’12.10""",인공수로습지
980,아래황이습지,강원도 양양군 서면 서림리,"N37°57’57.07""","E128°31’03.42""",저습지
981,신사동습지,강원도 강릉시 주문진읍 삼교리,"N37°53’33.06""","E128°43’32.95""",저습지
982,유어리습지,강원도 양양군 현남면 하월천리,"N37°54’24.67""","E128°44’26.37""",저층습원
983,명개습지,강원도 홍천군 내면 명개리,"N37°49’31.30""","E128°33’53.14""",소택지
984,작은질뫼늪,강원도 평창군 대관령면 횡계리,"N37°45’34.70""","E128°42’05.22""",저층습원
985,장덕리습지,강원도 강릉시 주문진읍 향호리,"N37°53’05.57""","E128°47’21.22""",저층습원
986,삼교리습지,강원도 강릉시 주문진읍 장덕리,"N37°52’50.51""","E128°46’00.86""",하도습지
987,사천진리습지,강원도 강릉시 사천면 판교리,"N37°50’31.49""","E128°51’34.25""",저층습원
988,버들골습지,강원도 강릉시 연곡면 유등리,"N37°50’29.52""","E128°46’20.56""",저층습원
989,장덕고개습지,강원도 강릉시 주문진읍 장덕리,"N37°52’01.17""","E128°47’26.49""",저습지
990,안고개습지,강원도 강릉시 사천면 산대월리,"N37°48’32.67""","E128°52’43.25""",저층습원
991,오대천습지,강원도 평창군 진부면 송정리,"N37°39’23.23""","E128°34’25.04""",하도습지
992,싸리재습지(평창),강원도 평창군 대관령면 차항리,"N37°41’06.06""","E128°40’27.25""",저층습원
993,차항리습지,강원도 평창군 대관령면 차항리,"N37°41’14.96""","E128°40’54.34""",저층습원
994,투구봉습지,강원도 평창군 대관령면 용산리,"N37°40’36.65""","E128°40’17.09""",저습지
995,원복동습지2,강원도 평창군 대관령면 유천리,"N37°37’51.91""","E128°37’36.84""",소택지
996,송천습지(평창),강원도 평창군 대관령면 횡계리,"N37°39’52.01""","E128°42’17.09""",하도습지
997,전은발습지,강원도 강릉시 구정면 구정리,"N37°42’02.75""","E128°51’40.23""",소택지
998,버들고개습지,강원도 강릉시 성산면 산북리,"N37°42’02.93""","E128°50’57.58""",저층습원
999,어흘리습지,강원도 강릉시 성산면 어흘리,"N37°43’52.93""","E128°47’48.61""",저층습원
1000,노루목이산습지,강원도 강릉시 성산면 어흘리,"N37°43’23.90""","E128°47’58.75""",저층습원
1001,보광습지(강릉),강원도 강릉시 성산면 관음리,"N37°44’24.60""","E128°48’48.31""",저층습원
1002,관음리습지,강원도 강릉시 성산면 관음리,"N37°44’21.31""","E128°49’27.15""",저층습원
1003,하시동습지,강원도 강릉시 강동면 하시동리,"N37°44’01.27""","E128°57’43.98""",저층습원
1004,도화목이습지,강원도 강릉시 왕산면 대기리,"N37°34’33.43""","E128°47’53.93""",하도습지
1005,백복령습지,강원도 정선군 임계면 가목리,"N37°32’37.20""","E128°57’27.96""",저층습원
1006,병방산습지,강원도 정선군 정선읍 북실리,"N37°20’28.14""","E128°38’52.87""",저층습원
1007,이기령습지,강원도 정선군 임계면 가목리,"N37°29’10.29""","E128°59’19.54""",저층습원
1008,시루습지,강원도 영월군 중동면 녹전리,"N37°08’47.58""","E128°42’35.86""",하도습지
1009,삼일습지,강원도 화천군 사내면 삼일리,"N38°02’46.32""","E127°32’18.43""",소택지
1010,음지말습지,강원도 영월군 김삿갓면 외룡리,"N37°07’06.18""","E128°39’03.79""",하도습지
1011,기전습지,강원도 영월군 김삿갓면 외룡리,"N37°06’46.50""","E128°39’59.61""",하도습지
1012,화절령습지,강원도 정선군 사북읍 사북리,"N37°11’58.15""","E128°48’33.95""",고층습원
1013,내덕습지,강원도 영월군 상동읍 내덕리,"N37°07’09.95""","E128°45’30.02""",하도습지
1014,심곡동습지,강원도 강릉시 옥계면 도직리,"N37°34’34.97""","E129°04’39.81""",저층습원
1015,괴란동습지,강원도 강릉시 옥계면 도직리,"N37°34’21.16""","E129°04’07.86""",소택지
1016,심곡제습지,강원도 강릉시 옥계면 도직리,"N37°34’45.01""","E129°05’09.47""",담수호습지
1017,망상사구습지,강원도 강릉시 옥계면 도직리,"N37°35’21.48""","E129°05’47.80""",사구습지
1018,달방저수지습지,강원도 강릉시 옥계면 남양리,"N37°30’34.24""","E129°01’45.83""",담수호습지
1019,망운산채굴습지,강원도 강릉시 옥계면 남양리,"N37°35’16.36""","E129°02’48.90""",채굴지습지
1020,미로습지,강원도 삼척시 미로면 무사리,"N37°25’31.85""","E129°07’14.00""",하도습지
1021,동막리습지,강원도 삼척시 근덕면 동막리,"N37°19’39.16""","E129°13’06.49""",저층습원
1022,대평동습지,강원도 삼척시 근덕면 동막리,"N37°18’08.08""","E129°11’39.18""",하도습지
1023,광태리습지,강원도 삼척시 근덕면 동막리,"N37°20’14.56""","E129°14’18.28""",하도습지
1024,매원리습지,강원도 삼척시 근덕면 매원리,"N37°17’39.81""","E129°16’51.67""",저층습원
1025,삼척궁촌리습지,강원도 삼척시 근덕면 궁촌리,"N37°18’23.54""","E129°15’58.06""",저층습원
1026,부거습지,경기도 연천군 신서면 대광리,"N38°13’09.52""","E127°08’31.48""",고층습원
1027,대광2습지,경기도 연천군 신서면 대광리,"N38°12’35.28""","E127°08’00.97""",인공수로습지
1028,진상습지,경기도 연천군 군남면 진상리,"N38°03’53.66""","E127°01’09.65""",소택지
1029,선곡1습지,경기도 연천군 군남면 선곡리,"N38°06’10.71""","E127°01’56.50""",소택지
1030,선곡2습지,경기도 연천군 군남면 선곡리,"N38°06’13.49""","E127°02’20.50""",소택지
1031,선곡3습지,경기도 연천군 군남면 선곡리,"N38°06’09.69""","E127°02’43.11""",소택지
1032,오가습지,경기도 포천시 창수면 오가리,"N38°01’02.65""","E127°10’47.92""",소택지
1033,주원습지,경기도 포천시 창수면 주원리,"N38°00’51.86""","E127°11’21.78""",소택지
1034,운산습지,경기도 포천시 창수면 운산리,"N38°02’56.13""","E127°12’18.20""",소택지
1035,형리습지,강원도 철원군 갈말읍 문혜리,"N38°11’18.00""","E127°21’28.45""",소택지
1036,용화습지,강원도 철원군 갈말읍 신철원리,"N38°07’59.58""","E127°20’59.78""",소택지
1037,문혜습지,강원도 철원군 갈말읍 문혜리,"N38°10’22.16""","E127°19’26.85""",하도습지
1038,능곡습지,강원도 철원군 갈말읍 문혜리,"N38°10’16.53""","E127°22’56.01""",소택지
1039,산정1습지,경기도 포천시 영북면 운천리,"N38°04’13.63""","E127°17’42.06""",소택지
1040,산정2습지,경기도 포천시 영북면 산정리,"N38°04’08.75""","E127°18’30.55""",소택지
1041,도평습지,경기도 포천시 이동면 도평리,"N38°06’22.90""","E127°23’51.59""",소택지
1042,광덕습지(화천),강원도 화천군 사내면 광덕리,"N38°04’35.38""","E127°28’53.31""",소택지
1043,다목습지,강원도 화천군 상서면 다목리,"N38°11’21.55""","E127°32’50.42""",소택지
1044,구운1습지,강원도 화천군 상서면 구운리,"N38°08’35.69""","E127°33’47.82""",저층습원
1045,구운2습지,강원도 화천군 상서면 구운리,"N38°08’31.98""","E127°33’40.41""",소택지
1046,대광1습지,경기도 연천군 신서면 답곡리,"N38°11’39.07""","E127°05’26.90""",인공수로습지
1047,황학습지,강원도 화천군 상서면 부촌리,"N38°11’27.86""","E127°38’34.31""",소택지
1048,부촌습지,강원도 화천군 상서면 부촌리,"N38°11’24.69""","E127°40’36.40""",소택지
1049,사창1습지(화천),강원도 화천군 사내면 사창리,"N38°04’56.25""","E127°30’47.13""",소택지
1050,도덕습지,강원도 화천군 사내면 사창리,"N38°04’30.41""","E127°30’22.58""",소택지
1051,사창2습지(화천),강원도 화천군 사내면 사창리,"N38°05’19.54""","E127°30’23.48""",인공수로습지
1052,충원습지,충청남도 태안군 소원면 소근리,"N36°49’05.55""","E126°12’04.19""",담수호습지
1053,호래제습지,전라남도 신안군 압해읍 복룡리,"N34°53’34.65""","E126°18’50.83""",인공호습지
1054,현경제습지,전라남도 무안군 현경면 양학리,"N34°59’51.78""","E126°25’58.03""",인공호습지
1055,태봉천습지1,전라남도 무안군 청계면 사마리,"N34°58’13.98""","E126°26’31.15""",보습지
1056,태봉천습지2,전라남도 무안군 청계면 사마리,"N34°58’20.96""","E126°26’14.70""",보습지
1057,화원제습지,전라남도 해남군 화원면 장춘리,"N34°38’32.55""","E126°18’42.90""",인공호습지
1058,윗방축제습지,전라남도 영암군 삼호읍 용앙리,"N34°44’51.93""","E126°27’43.81""",인공호습지
1059,용두하천습지,전라남도 영암군 삼호읍 용앙리,"N34°43’57.49""","E126°28’40.19""",하도습지
1060,난전리습지,전라남도 영암군 삼호읍 서호리,"N34°43’45.79""","E126°28’30.47""",하도습지
1061,초두제습지,전라남도 해남군 산이면 초송리,"N34°38’44.84""","E126°27’02.09""",인공호습지
1062,삼덕교 하천습지,전라남도 해남군 문내면 석교리,"N34°36’27.23""","E126°22’17.35""",하도습지
1063,용암습지(해남),전라남도 해남군 문내면 용암리,"N34°35’34.14""","E126°20’33.64""",논
1064,둔전제습지,전라남도 진도군 군내면 세등리,"N34°31’28.18""","E126°19’12.14""",인공호습지
1065,군내호습지,전라남도 진도군 군내면 녹진리,"N34°33’27.31""","E126°15’21.23""",간척호습지
1066,군내천 간척습지,전라남도 진도군 진도읍 수유리,"N34°31’49.59""","E126°14’28.85""",간척호습지
1067,금자천습지,전라남도 해남군 산이면 금송리,"N34°36’37.02""","E126°29’16.09""",보습지
1068,연호 하천습지,전라남도 해남군 황산면 송호리,"N34°35’42.61""","E126°28’10.19""",하도습지
1069,병온제습지,전라남도 해남군 황산면 송호리,"N34°34’42.25""","E126°27’27.93""",인공호습지
1070,미력제습지,전라남도 해남군 황산면 연당리,"N34°34’20.84""","E126°24’40.26""",인공호습지
1071,남동저수지,전라남도 해남군 황산면 연당리,"N34°34’17.64""","E126°24’06.23""",인공호습지
1072,고천암호,전라남도 해남군 해남읍 내사리,"N34°32’20.09""","E126°29’18.06""",간척호습지
1073,염대천습지,전라남도 진도군 진도읍 포산리,"N34°27’23.63""","E126°13’25.87""",보습지
1074,갈사습지,경상남도 하동군 금성면 궁항리,"N34°57’31.76""","E127°47’18.19""",하도습지
1075,고전습지,경상남도 하동군 금성면 궁항리,"N34°59’43.26""","E127°47’38.63""",하도습지
1076,배알도습지,경상남도 하동군 금성면 고포리,"N34°57’55.03""","E127°45’52.85""",하도습지
1077,문동저수지습지,경상남도 거제시 일운면 소동리,"N34°51’27.45""","E128°39’18.06""",인공호습지
1078,익산 신천습지,전라북도 김제시 백구면 삼정리,"N35°55’04.18""","E126°57’20.05""",하도습지
1079,조문습지,전라북도 김제시 백구면 삼정리,"N35°55’08.37""","E126°56’18.58""",하도습지
1080,신성제습지,전라북도 익산시 황등면 구자리,"N36°02’21.00""","E126°55’48.83""",인공호습지
1081,동산동습지,전라북도 김제시 백구면 백구리,"N35°54’42.91""","E126°57’24.49""",우각호습지
1082,옛뚜기습지,전라북도 김제시 백구면 삼정리,"N35°55’28.81""","E126°57’45.01""",하도습지
1083,신복습지,전라북도 김제시 백구면 반월리,"N35°54’14.96""","E126°58’24.16""",우각호습지
1084,마전습지,전라북도 익산시 춘포면 춘포리,"N35°53’23.40""","E126°59’49.26""",우각호습지
1085,상도지습지,전라북도 익산시 춘포면 삼포리,"N35°56’32.38""","E126°59’17.90""",인공호습지
1086,구담습지(전주),전라북도 김제시 백구면 마산리,"N35°53’16.08""","E127°00’00.21""",우각호습지
1087,신덕습지(김제),전라북도 김제시 부량면 용성리,"N35°45’26.52""","E126°51’06.10""",하도습지
1088,마교지습지,전라북도 김제시 용지면 신정리,"N35°50’23.85""","E126°57’54.63""",담수호습지
1089,검산수원지,전라북도 김제시 하동,"N35°48’34.27""","E126°54’11.03""",인공호습지
1090,월산하제습지,전라북도 완주군 삼례읍 신금리,"N35°55’35.64""","E127°05’33.24""",저층습원
1091,왕궁습지,전라북도 익산시 왕궁면 흥암리,"N35°58’17.49""","E127°05’18.07""",저층습원
1092,동고도리습지,전라북도 익산시 금마면 동고도리,"N35°59’06.76""","E127°03’45.38""",저습지
1093,사천습지,전라북도 익산시 춘포면 용연리,"N35°53’51.97""","E127°01’46.65""",하도습지
1094,신천습지(전주),전라북도 완주군 삼례읍 하리,"N35°53’54.52""","E127°06’36.67""",하도습지
1095,주교제습지(익산),전라북도 익산시 왕궁면 온수리,"N35°55’21.68""","E127°04’17.71""",담수호습지
1096,흑석제습지,전라북도 익산시 왕궁면 온수리,"N35°55’43.53""","E127°03’19.56""",담수호습지
1097,구암제습지,전라북도 완주군 봉동읍 구암리,"N35°56’36.83""","E127°06’02.92""",담수호습지
1098,앵금제습지,전라북도 익산시 왕궁면 구덕리,"N35°57’01.13""","E127°05’29.92""",담수호습지
1099,익산 상암제습지,전라북도 익산시 왕궁면 광암리,"N35°58’57.36""","E127°05’24.39""",담수호습지
1100,서고도연동제습지,전라북도 익산시 금마면 서고도리,"N35°59’06.22""","E127°02’41.88""",담수호습지
1101,화신습지,전라북도 익산시 춘포면 춘포리,"N35°54’00.30""","E127°00’50.41""",우각호습지
1102,동계습지,전라북도 익산시 춘포면 용연리,"N35°53’18.53""","E127°01’20.29""",우각호습지
1103,교전습지,전라북도 완주군 고산면 읍내리,"N35°58’07.55""","E127°12’48.55""",하도습지
1104,신덕습지(완주),전라북도 완주군 봉동읍 신성리,"N35°54’59.80""","E127°09’25.02""",하도습지
1105,마그네습지,전라북도 완주군 봉동읍 신성리,"N35°55’27.42""","E127°10’02.03""",하도습지
1106,쌍정습지,전라북도 완주군 용진읍 신지리,"N35°55’55.42""","E127°10’13.70""",하도습지
1107,보상리습지,전라북도 완주군 용진읍 신지리,"N35°56’09.47""","E127°10’15.74""",하도습지
1108,농은습지,전라북도 완주군 용진읍 상운리,"N35°52’52.97""","E127°09’06.06""",보습지
1109,한사월습지,전라북도 완주군 용진읍 상운리,"N35°53’13.01""","E127°08’58.48""",하도습지
1110,서계습지,전라북도 완주군 용진읍 상운리,"N35°53’55.82""","E127°08’21.47""",하도습지
1111,대암습지,전라북도 완주군 용진읍 상운리,"N35°53’31.47""","E127°08’47.53""",하도습지
1112,고천습지,전라북도 완주군 봉동읍 구만리,"N35°54’49.00""","E127°08’42.92""",하도습지
1113,고당습지(전주),전라북도 완주군 용진읍 상운리,"N35°52’35.00""","E127°09’20.42""",하도습지
1114,갈우제습지,전라북도 완주군 용진읍 운곡리,"N35°53’54.02""","E127°09’27.37""",담수호습지
1115,완주운곡습지,전라북도 완주군 용진읍 운곡리,"N35°54’32.72""","E127°10’07.62""",담수호습지
1116,제상제습지,전라북도 완주군 봉동읍 은하리,"N35°57’12.20""","E127°08’51.91""",담수호습지
1117,안심리습지,전라북도 완주군 이서면 금평리,"N35°48’51.24""","E127°04’10.84""",저습지
1118,금평리습지,전라북도 완주군 이서면 상개리,"N35°48’41.20""","E127°03’22.57""",저층습원
1119,토끼골습지,전라북도 완주군 이서면 남계리,"N35°51’10.10""","E127°02’08.55""",저층습원
1120,부동습지,전라북도 완주군 이서면 갈산리,"N35°51’53.70""","E127°03’15.89""",저층습원
1121,개태제습지,전라북도 완주군 이서면 상개리,"N35°49’15.01""","E127°02’02.91""",담수호습지
1122,지산제습지,전라북도 완주군 이서면 은교리,"N35°48’41.62""","E127°02’05.08""",담수호습지
1123,빙동제습지,전라북도 완주군 이서면 상개리,"N35°49’19.35""","E127°01’25.83""",담수호습지
1124,금평제습지,전라북도 완주군 이서면 금평리,"N35°48’58.40""","E127°03’46.98""",담수호습지
1125,한절지습지,전라북도 완주군 이서면 이성리,"N35°48’16.65""","E127°05’43.24""",담수호습지
1126,부동제습지,전라북도 완주군 이서면 남계리,"N35°51’53.56""","E127°03’00.04""",담수호습지
1127,상관습지,전라북도 완주군 상관면 의암리,"N35°47’15.71""","E127°13’36.35""",저습지
1128,명덕리습지,전라북도 완주군 소양면 명덕리,"N35°51’54.21""","E127°11’47.61""",저층습원
1129,덕진호습지,전라북도 완주군 용진읍 구억리,"N35°50’55.38""","E127°07’22.49""",인공호습지
1130,망우제습지,전라북도 완주군 이서면 남계리,"N35°51’51.68""","E127°01’53.62""",담수호습지
1131,왕사봉습지,전라북도 완주군 운주면 고당리,"N35°59’42.77""","E127°20’45.50""",저층습원
1132,싸리재습지(진안),전라북도 진안군 주천면 대불리,"N35°59’16.45""","E127°21’36.62""",담수호습지
1133,중고개습지,전라북도 진안군 정천면 갈용리,"N35°53’35.06""","E127°26’32.64""",저습지
1134,주천도화습지,전라북도 진안군 주천면 신양리,"N35°57’59.17""","E127°26’12.29""",생태수변공원
1135,해월리습지,전라북도 완주군 소양면 해월리,"N35°51’56.17""","E127°16’20.17""",소택지
1136,대목재습지,전라북도 진안군 진안읍 운산리,"N35°49’42.66""","E127°26’46.74""",저층습원
1137,미재실습지,전라북도 진안군 진안읍 단양리,"N35°46’10.67""","E127°25’21.77""",저층습원
1138,운산리생태습지,전라북도 진안군 진안읍 운산리,"N35°48’50.61""","E127°27’41.62""",생태수변공원
1139,월석교습지,전라북도 장수군 번암면 대론리,"N35°29’59.27""","E127°31’21.01""",하도습지
1140,대산습지(거창),경상남도 거창군 남상면 월평리,"N35°38’59.06""","E127°56’49.90""",하도습지
1141,옥매습지,경상남도 함양군 유림면 옥매리,"N35°31’09.57""","E127°45’46.04""",하도습지
1142,유림습지,경상남도 함양군 함양읍 백천리,"N35°30’54.30""","E127°47’00.19""",하도습지
1143,율림습지,경상남도 함양군 수동면 상백리,"N35°36’37.34""","E127°48’03.93""",하도습지
1144,수동농공단지습지,경상남도 함양군 함양읍 백천리,"N35°31’34.78""","E127°46’59.49""",하도습지
1145,창평교습지,경상남도 함양군 지곡면 도촌리,"N35°33’19.26""","E127°46’45.88""",하도습지
1146,대궁교습지,경상남도 함양군 유림면 대궁리,"N35°29’38.29""","E127°48’43.86""",보습지
1147,삼산교습지,전라북도 남원시 운봉읍 산덕리,"N35°25’13.82""","E127°31’25.95""",하도습지
1148,인월습지,전라북도 남원시 인월면 인월리,"N35°27’11.23""","E127°36’25.91""",하도습지
1149,중군교습지,전라북도 남원시 인월면 중군리,"N35°26’47.22""","E127°36’25.84""",하도습지
1150,덕산저수지습지,전라북도 남원시 운봉읍 주촌리,"N35°24’20.04""","E127°30’39.27""",인공호습지
1151,산내교습지,전라북도 남원시 산내면 대정리,"N35°25’10.87""","E127°37’10.48""",하도습지
1152,왕등재습지,경상남도 산청군 삼장면 유평리,"N35°23’29.13""","E127°47’14.87""",고층습원
1153,외고개습지,경상남도 산청군 삼장면 유평리,"N35°23’04.68""","E127°46’49.88""",소택지
1154,범학늪,경상남도 산청군 신안면 외송리,"N35°21’43.64""","E127°54’58.53""",하도습지
1155,오미늪,경상남도 진주시 명석면 오미리,"N35°15’14.06""","E127°59’13.01""",인공호습지
1156,중평습지,전라남도 구례군 간전면 수평리,"N35°09’58.95""","E127°32’33.46""",하도습지
1157,파도습지,전라남도 구례군 간전면 간문리,"N35°11’25.88""","E127°32’30.56""",하도습지
1158,한수습지,전라남도 구례군 토지면 송정리,"N35°11’41.34""","E127°34’02.24""",하도습지
1159,화정습지(구례),전라남도 구례군 토지면 파도리,"N35°11’12.85""","E127°31’40.66""",하도습지
1160,다압금천습지,경상남도 하동군 화개면 부춘리,"N35°09’35.15""","E127°39’10.19""",하도습지
1161,악양습지(하동),경상남도 하동군 악양면 봉대리,"N35°08’18.30""","E127°41’49.45""",하도습지
1162,영당습지,경상남도 하동군 화개면 덕은리,"N35°10’56.86""","E127°37’35.10""",하도습지
1163,평사습지,전라남도 광양시 다압면 고사리,"N35°08’10.21""","E127°41’15.59""",하도습지
1164,두곡습지(하동),경상남도 하동군 하동읍 읍내리,"N35°04’41.83""","E127°43’57.86""",하도습지
1165,하동습지,전라남도 광양시 다압면 신원리,"N35°03’38.52""","E127°44’35.90""",하도습지
1166,본촌늪,경상남도 사천시 곤명면 본촌리,"N35°09’11.72""","E127°57’41.24""",하도습지
1167,완사늪,경상남도 사천시 곤명면 신흥리,"N35°07’48.46""","E127°59’15.34""",하도습지
1168,원내리 하천습지,경상남도 진주시 수곡면 원내리,"N35°09’33.40""","E127°57’45.60""",하도습지
1169,원외늪,경상남도 진주시 수곡면 원외리,"N35°10’02.08""","E127°56’18.60""",하도습지
1170,창촌늪,경상남도 하동군 옥종면 북방리,"N35°10’31.03""","E127°55’42.91""",하도습지
1171,관정늪,경상남도 산청군 단성면 관정리,"N35°14’43.35""","E127°56’40.32""",담수호습지
1172,금성늪(사천),경상남도 사천시 곤명면 금성리,"N35°08’40.95""","E127°58’24.69""",인공호습지
1173,내촌늪,경상남도 진주시 대평면 당촌리,"N35°10’14.01""","E127°59’01.16""",인공호습지
1174,상촌늪,경상남도 진주시 대평면 상촌리,"N35°12’54.06""","E127°57’51.62""",인공호습지
1175,전령늪,경상남도 진주시 대평면 대평리,"N35°14’02.20""","E127°58’24.17""",인공호습지
1176,정곡늪,경상남도 사천시 곤명면 정곡리,"N35°08’12.37""","E127°58’08.75""",인공호습지
1177,하촌늪,경상남도 진주시 대평면 상촌리,"N35°12’12.97""","E127°58’35.98""",인공호습지
1178,신월1습지,경상남도 하동군 하동읍 목도리,"N35°01’47.04""","E127°47’02.20""",하도습지
1179,신월2습지,경상남도 하동군 고전면 신월리,"N35°01’24.45""","E127°46’55.73""",하도습지
1180,흥룡습지,전라남도 광양시 다압면 고사리,"N35°06’39.41""","E127°41’44.19""",하도습지
1181,강정습지,경상북도 성주군 가천면 중산리,"N35°54’17.48""","E128°09’06.22""",하도습지
1182,성주호1습지,경상북도 성주군 금수면 무학리,"N35°54’58.46""","E128°07’27.42""",하도습지
1183,사창하도습지,경상북도 성주군 수륜면 오천리,"N35°48’36.37""","E128°13’44.39""",하도습지
1184,용지습지,전라남도 담양군 고서면 금현리,"N35°32’00.75""","E128°05’30.92""",하도습지
1185,용문습지,경상남도 합천군 용주면 가호리,"N35°32’43.56""","E128°04’38.38""",인공호습지
1186,못재늪,경상남도 합천군 율곡면 내천리,"N35°36’38.30""","E128°13’43.00""",저층습원
1187,박실늪,경상남도 합천군 용주면 용지리,"N35°32’33.19""","E128°07’18.36""",하도습지
1188,용주습지,경상남도 합천군 용주면 고품리,"N35°31’49.96""","E128°06’22.62""",하도습지
1189,항곡습지,경상남도 합천군 율곡면 두사리,"N35°36’12.27""","E128°13’21.51""",하도습지
1190,임북습지,경상남도 합천군 율곡면 임북리,"N35°35’21.97""","E128°11’25.58""",하도습지
1191,정양지,경상남도 합천군 대양면 정양리,"N35°32’54.12""","E128°10’01.80""",인공호습지
1192,연당지,경상남도 합천군 용주면 성산리,"N35°33’33.46""","E128°07’55.94""",담수호습지
1193,내곡지,경상북도 고령군 쌍림면 평지리,"N35°39’18.85""","E128°17’24.12""",담수호습지
1194,황지연못(대구),대구광역시 달성군 유가면 봉리,"N35°41’25.67""","E128°27’36.79""",대체습지
1195,대산저수지,대구광역시 달성군 유가면 용리,"N35°41’15.78""","E128°28’20.63""",담수호습지
1196,김흥저수지,대구광역시 달성군 옥포면 김흥리,"N35°44’55.88""","E128°29’20.16""",담수호습지
1197,내천습지,경상남도 합천군 쌍책면 건태리,"N35°35’59.47""","E128°14’46.18""",하도습지
1198,원촌리습지,경상남도 창녕군 고암면 원촌리,"N35°35’12.37""","E128°29’21.88""",담수호습지
1199,금천리습지(청도),경상북도 청도군 각북면 금천리,"N35°43’05.81""","E128°34’34.10""",저층습원
1200,주리1습지,대구광역시 달성군 가창면 주리,"N35°44’41.91""","E128°36’24.62""",저습지
1201,용리습지,대구광역시 달성군 유가면 용리,"N35°41’25.72""","E128°30’02.24""",소택지
1202,옥천리습지,경상남도 창녕군 창녕읍 옥천리,"N35°32’50.29""","E128°32’56.79""",소택지
1203,우천리습지,경상남도 창녕군 고암면 우천리,"N35°33’49.78""","E128°30’44.50""",소택지
1204,고연정저수지,경상남도 창녕군 고암면 억만리,"N35°34’16.74""","E128°30’17.85""",담수호습지
1205,호방습지,경상북도 청도군 매전면 호화리,"N35°37’55.65""","E128°50’36.16""",하도습지
1206,오진습지,경상북도 청도군 운문면 방음리,"N35°42’35.08""","E128°57’44.83""",하도습지
1207,매화습지,경상북도 청도군 청도읍 사촌리,"N35°34’37.13""","E128°47’51.57""",하도습지
1208,평능습지,경상남도 밀양시 상동면 안인리,"N35°32’54.11""","E128°45’57.26""",하도습지
1209,가곡습지(밀양),경상남도 밀양시 산외면 남기리,"N35°30’41.99""","E128°46’23.89""",하도습지
1210,예전습지,경상북도 청도군 매전면 예전리,"N35°37’41.22""","E128°49’11.24""",하도습지
1211,내호습지,경상남도 밀양시 상동면 옥산리,"N35°33’55.58""","E128°46’09.07""",하도습지
1212,단장습지,경상남도 밀양시 산외면 금곡리,"N35°30’18.93""","E128°50’04.81""",하도습지
1213,사자평습지,경상남도 밀양시 단장면 구천리,"N35°32’07.13""","E128°59’30.95""",저층습원
1214,사연습지,경상남도 밀양시 단장면 사연리,"N35°30’55.82""","E128°52’47.26""",하도습지
1215,생비량삼거리습지,경상남도 산청군 생비량면 가계리,"N35°21’14.34""","E128°04’39.57""",하도습지
1216,디디미못,경상남도 함안군 군북면 동촌리,"N35°15’12.17""","E128°21’39.46""",담수호습지
1217,못골습지,경상남도 함안군 칠북면 검단리,"N35°20’37.71""","E128°31’31.92""",인공수로습지
1218,장수방소류지,경상남도 함안군 칠원읍 운곡리,"N35°18’48.55""","E128°32’59.51""",담수호습지
1219,모암소류지,경상남도 창원시의창구 동읍 신방리,"N35°17’28.06""","E128°40’21.94""",담수호습지
1220,화양리1습지,경상남도 창원시의창구 동읍 화양리,"N35°17’53.46""","E128°39’51.46""",대체습지
1221,화양리2습지,경상남도 창원시의창구 동읍 화양리,"N35°18’26.46""","E128°39’30.32""",인공수로습지
1222,화량리3습지,경상남도 창원시의창구 동읍 화양리,"N35°18’28.56""","E128°39’23.69""",소택지
1223,단조늪,경상남도 양산시 원동면 선리,"N35°31’21.59""","E129°03’01.21""",고층습원
1224,가화늪,경상남도 진주시 명석면 가화리,"N35°12’44.36""","E128°00’19.01""",인공호습지
1225,대밭골늪,경상남도 진주시 금산면 속사리,"N35°11’05.19""","E128°08’16.20""",하도습지
1226,신담늪,경상남도 진주시 금곡면 정자리,"N35°07’43.17""","E128°10’55.89""",하도습지
1227,옥산늪,경상남도 진주시 문산읍 옥산리,"N35°09’55.72""","E128°08’57.91""",하도습지
1228,정자늪,경상남도 진주시 문산읍 두산리,"N35°08’12.97""","E128°09’51.38""",하도습지
1229,연논늪,경상남도 진주시 문산읍 이곡리,"N35°09’00.63""","E128°09’38.98""",우각호습지
1230,주봉저수지습지,경상남도 진주시 금곡면 가봉리,"N35°07’29.25""","E128°13’26.33""",인공호습지
1231,소리재못소류지,경상남도 함안군 군북면 사촌리,"N35°14’10.82""","E128°22’05.45""",저층습원
1232,기일골소류지,경상남도 함안군 가야읍 혈곡리,"N35°14’07.31""","E128°22’57.90""",담수호습지
1233,봉성리습지,경상남도 함안군 함안면 봉성리,"N35°13’55.56""","E128°24’51.95""",소택지
1234,미산소류지,경상남도 함안군 함안면 파수리,"N35°13’22.47""","E128°24’39.08""",인공호습지
1235,토성저수지,경상남도 김해시 진례면 송정리,"N35°14’12.36""","E128°44’35.45""",인공수로습지
1236,도강저수지,경상남도 김해시 진례면 송정리,"N35°14’50.80""","E128°43’51.45""",인공호습지
1237,사파정저수지,경상남도 김해시 진례면 신안리,"N35°13’04.32""","E128°42’38.91""",담수호습지
1238,고촌천2습지,경상북도 영천시 고경면 전사리,"N35°59’49.63""","E129°02’06.51""",하도습지
1239,고촌천1습지,경상북도 영천시 고경면 동도리,"N35°59’57.54""","E129°04’15.29""",하도습지
1240,심곡지습지,경상북도 경주시 서면 도리,"N35°55’20.36""","E129°04’07.38""",담수호습지
1241,오미지습지(경주),경상북도 경주시 건천읍 신평리,"N35°52’00.81""","E129°04’49.24""",담수호습지
1242,이조천 하상습지,경상북도 경주시 내남면 상신리,"N35°45’08.50""","E129°09’21.07""",하도습지
1243,배동 구하도습지,경상북도 경주시 내남면 망성리,"N35°47’19.99""","E129°11’51.64""",우각호습지
1244,서출지습지,경상북도 경주시 내남면 용장리,"N35°47’47.19""","E129°14’32.68""",담수호습지
1245,화랑촌습지,경상북도 경주시 천북면 화산리,"N35°54’35.28""","E129°18’56.63""",소택지
1246,산막골습지,경상북도 경주시 천북면 갈곡리,"N35°54’03.87""","E129°19’01.44""",소택지
1247,감뒤골습지,경상북도 경주시 감포읍 감포리,"N35°49’00.53""","E129°29’07.53""",소택지
1248,호동습지,경상북도 경주시 감포읍 호동리,"N35°49’09.09""","E129°27’55.53""",소택지
1249,오류습지,경상북도 경주시 감포읍 오류리,"N35°49’15.72""","E129°30’26.38""",사구습지
1250,미역골습지,경상북도 경주시 내남면 노곡리,"N35°43’39.94""","E129°12’15.52""",하도습지
1251,이조습지,경상북도 경주시 내남면 노곡리,"N35°44’51.18""","E129°12’04.87""",하도습지
1252,삽다리못,울산광역시 울주군 두동면 월평리,"N35°41’01.47""","E129°12’32.37""",인공호습지
1253,외바위골늪,울산광역시 울주군 삼남면 가천리,"N35°32’17.23""","E129°05’57.11""",담수호습지
1254,떼기늪,경상북도 경주시 양남면 신대리,"N35°39’55.16""","E129°22’13.00""",저습지
1255,기백이재늪,경상북도 경주시 양남면 신대리,"N35°40’01.39""","E129°22’13.53""",저습지
1256,만디늪,경상북도 경주시 양남면 신대리,"N35°40’02.37""","E129°22’29.95""",저습지
1257,기령늪,경상북도 경주시 양남면 신대리,"N35°39’59.10""","E129°22’27.22""",저습지
1258,고추늪,경상북도 경주시 양남면 신대리,"N35°40’01.38""","E129°22’21.70""",저습지
1259,돌티미늪,경상북도 경주시 양남면 신대리,"N35°40’06.14""","E129°22’27.66""",저습지
1260,매실긴늪,경상북도 경주시 양남면 신대리,"N35°39’48.69""","E129°22’33.25""",저습지
1261,매실큰늪,경상북도 경주시 양남면 신대리,"N35°39’55.60""","E129°22’33.43""",저층습원
1262,깊은골늪,경상북도 경주시 양남면 신대리,"N35°40’05.27""","E129°22’39.47""",저습지
1263,매실옆늪,경상북도 경주시 양남면 신대리,"N35°39’37.18""","E129°22’29.93""",저층습원
1264,신흥재북늪,경상북도 경주시 양남면 신대리,"N35°39’56.14""","E129°22’39.19""",저습지
1265,신흥재샛늪,경상북도 경주시 양남면 신대리,"N35°39’47.31""","E129°22’36.39""",저습지
1266,창포늪,경상북도 경주시 양남면 신대리,"N35°39’17.51""","E129°22’50.33""",저층습원
1267,신흥재남늪,경상북도 경주시 양남면 신대리,"N35°39’36.66""","E129°22’33.17""",저습지
1268,대종천하류부하상습지,경상북도 경주시 양북면 구길리,"N35°44’52.51""","E129°28’08.11""",하도습지
1269,감은사못,경상북도 경주시 양북면 용당리,"N35°44’51.21""","E129°28’36.16""",인공수로습지
1270,송계습지,경상남도 산청군 생비량면 가계리,"N35°21’34.36""","E128°05’03.23""",하도습지
1271,내회습지,울산광역시 울주군 온산읍 삼평리,"N35°23’54.22""","E129°19’13.96""",하도습지
1272,용암습지(울주),울산광역시 울주군 청량면 용암리,"N35°28’58.92""","E129°19’44.84""",하도습지
1273,회야습지,울산광역시 울주군 청량면 중리,"N35°28’02.76""","E129°16’05.45""",인공호습지
1274,하회큰늪,울산광역시 울주군 온양읍 고산리,"N35°26’40.76""","E129°15’43.03""",담수호습지
1275,도가늪,경상남도 진주시 문산읍 이곡리,"N35°08’28.40""","E128°09’55.75""",배후습지
1276,민어습지,충청남도 태안군 이원면 포지리,"N36°54’24.99""","E126°14’52.86""",간척호습지
1277,학암포습지,충청남도 태안군 원북면 방갈리,"N36°53’49.82""","E126°12’42.00""",사구습지
1278,소라섬습지,충청남도 태안군 원북면 방갈리,"N36°53’01.97""","E126°13’58.37""",인공호습지
1279,관리습지,충청남도 태안군 이원면 관리,"N36°53’41.93""","E126°16’12.13""",간척호습지
1280,신두습지,충청남도 태안군 원북면 황촌리,"N36°50’47.07""","E126°12’48.04""",하도습지
1281,만리습지,충청남도 태안군 소원면 의항리,"N36°48’33.98""","E126°10’20.88""",간척호습지
1282,수룡습지,충청남도 태안군 근흥면 수룡리,"N36°45’08.75""","E126°14’00.86""",담수호습지
1283,두웅습지,충청남도 태안군 원북면 신두리,"N36°50’10.83""","E126°11’46.46""",담수호습지
1284,내리습지,충청남도 태안군 이원면 내리,"N36°56’48.03""","E126°17’39.90""",소택지
1285,모리골습지,충청남도 서산시 대산읍 대로리,"N36°57’40.10""","E126°24’55.37""",저층습원
1286,대호지습지,충청남도 당진시 고대면 당진포리,"N36°56’28.32""","E126°32’32.31""",하도습지
1287,지곡습지,충청남도 서산시 지곡면 도성리,"N36°53’00.53""","E126°25’36.23""",인공호습지
1288,광암습지,충청남도 서산시 대산읍 대로리,"N36°56’33.05""","E126°23’04.08""",내수면어업
1289,출포습지,충청남도 당진시 대호지면 출포리,"N36°52’46.66""","E126°28’29.72""",인공호습지
1290,점말습지(태안),충청남도 태안군 원북면 양산리,"N36°47’27.79""","E126°16’07.20""",소택지
1291,당산습지,충청남도 태안군 이원면 사창리,"N36°50’47.36""","E126°17’31.56""",인공수로습지
1292,갈두습지,충청남도 태안군 태안읍 삭선리,"N36°48’53.57""","E126°16’45.89""",간척호습지
1293,사창습지(태안),충청남도 태안군 이원면 사창리,"N36°50’29.52""","E126°17’12.52""",담수호습지
1294,솔감습지,충청남도 태안군 태안읍 도내리,"N36°48’49.57""","E126°20’08.72""",간척호습지
1295,풍전습지,충청남도 서산시 인지면 풍전리,"N36°46’38.86""","E126°25’21.32""",담수호습지
1296,천의리습지,충청남도 당진시 정미면 천의리,"N36°53’37.89""","E126°33’48.25""",하도습지
1297,석문습지,충청남도 당진시 석문면 삼봉리,"N36°59’00.41""","E126°32’31.84""",담수호습지
1298,금곡습지(당진),충청남도 당진시 송악읍 금곡리,"N36°55’06.34""","E126°44’01.91""",하도습지
1299,채운리습지,충청남도 당진시 고대면 항곡리,"N36°53’12.12""","E126°36’28.16""",하도습지
1300,초대습지,충청남도 당진시 신평면 초대리,"N36°54’11.53""","E126°44’18.99""",인공호습지
1301,사기소리습지,충청남도 당진시 정미면 대운산리,"N36°51’01.08""","E126°36’44.48""",소택지
1302,용장리습지,충청남도 서산시 운산면 용장리,"N36°47’57.82""","E126°35’13.81""",하도습지
1303,대운산리습지,충청남도 당진시 정미면 대운산리,"N36°50’19.91""","E126°35’36.21""",하도습지
1304,대방들습지,충청남도 당진시 정미면 대운산리,"N36°50’40.15""","E126°35’51.32""",보습지
1305,덕마리습지,충청남도 당진시 정미면 덕마리,"N36°51’08.28""","E126°36’09.28""",하도습지
1306,성암리습지,충청남도 서산시 음암면 성암리,"N36°46’22.86""","E126°31’55.86""",하도습지
1307,성암습지,충청남도 서산시 음암면 탑곡리,"N36°47’16.94""","E126°32’09.24""",담수호습지
1308,면천습지,충청남도 당진시 면천면 원동리,"N36°48’29.00""","E126°40’32.42""",담수호습지
1309,금천습지(당진),충청남도 당진시 신평면 금천리,"N36°53’17.26""","E126°47’07.42""",소택지
1310,대반천습지,경기도 평택시 현덕면 덕목리,"N36°57’32.09""","E126°58’20.85""",배후습지
1311,성내습지,충청남도 아산시 영인면 성내리,"N36°52’37.59""","E126°59’11.15""",담수호습지
1312,궁평습지,충청남도 아산시 선장면 궁평리,"N36°48’25.61""","E126°51’27.37""",하도습지
1313,대골쇠골습지,충청남도 아산시 선장면 신문리,"N36°50’17.03""","E126°51’22.26""",하도습지
1314,대음습지,충청남도 아산시 인주면 대음리,"N36°50’28.02""","E126°50’44.42""",하도습지
1315,솟벌섬습지,충청남도 아산시 인주면 문방리,"N36°51’34.80""","E126°50’32.52""",하도습지
1316,영인습지,충청남도 아산시 영인면 아산리,"N36°51’28.85""","E126°57’31.38""",소택지
1317,곡교천습지,충청남도 아산시 염치읍 석정리,"N36°47’54.70""","E126°59’09.19""",하도습지
1318,신정호습지,충청남도 아산시 신창면 행목리,"N36°46’10.20""","E126°58’30.03""",담수호습지
1319,새터습지,충청남도 아산시 신창면 오목리,"N36°47’17.18""","E126°56’08.23""",담수호습지
1320,황골습지,충청남도 태안군 근흥면 도황리,"N36°41’18.06""","E126°11’25.82""",저층습원
1321,태안 신대습지,충청남도 태안군 근흥면 용신리,"N36°42’40.92""","E126°13’23.78""",인공호습지
1322,정죽습지,충청남도 태안군 근흥면 정죽리,"N36°41’13.79""","E126°09’51.87""",간척호습지
1323,부남호2습지,충청남도 서산시 부석면 송시리,"N36°42’15.13""","E126°20’53.13""",하도습지
1324,몽산포습지,충청남도 태안군 남면 달산리,"N36°39’45.68""","E126°17’33.19""",사구습지
1325,간월호습지,충청남도 서산시 부석면 지산리,"N36°43’01.23""","E126°27’50.58""",하도습지
1326,모월습지,충청남도 서산시 인지면 산동리,"N36°42’46.86""","E126°26’37.33""",간척호습지
1327,부남호1습지,충청남도 태안군 남면 양잠리,"N36°38’21.73""","E126°21’20.87""",인공호습지
1328,창정호습지,충청남도 태안군 안면읍 정당리,"N36°33’19.55""","E126°20’03.06""",석호습지
1329,백사장습지,충청남도 태안군 안면읍 창기리,"N36°35’01.89""","E126°18’53.50""",사구습지
1330,신온리습지,충청남도 태안군 남면 신온리,"N36°36’36.00""","E126°18’07.00""",소택지
1331,홍성호습지,충청남도 홍성군 서부면 신리,"N36°31’20.76""","E126°29’43.15""",간척호습지
1332,남당습지,충청남도 홍성군 서부면 남당리,"N36°31’58.26""","E126°28’54.51""",간척호습지
1333,삼송습지,충청남도 서산시 해미면 삼송리,"N36°44’12.45""","E126°33’19.89""",소택지
1334,도당천습지,충청남도 서산시 해미면 웅소성리,"N36°43’31.47""","E126°30’56.10""",하도습지
1335,신창습지,충청남도 서산시 운산면 신창리,"N36°45’01.29""","E126°34’40.67""",담수호습지
1336,택리교습지,충청남도 홍성군 홍북읍 석택리,"N36°39’51.25""","E126°42’27.74""",하도습지
1337,수촌잠수교습지,충청남도 홍성군 홍북읍 갈산리,"N36°40’19.88""","E126°42’33.60""",하도습지
1338,서내습지,충청남도 예산군 삽교읍 성리,"N36°42’53.02""","E126°44’23.76""",하도습지
1339,연골습지,충청남도 홍성군 광천읍 벽계리,"N36°32’12.46""","E126°36’54.89""",소택지
1340,덕정습지,충청남도 홍성군 광천읍 신진리,"N36°30’58.23""","E126°37’09.11""",하도습지
1341,구동습지,충청남도 홍성군 은하면 목현리,"N36°30’49.81""","E126°33’35.40""",하도습지
1342,해창교습지,충청남도 홍성군 결성면 금곡리,"N36°31’57.72""","E126°33’41.08""",하도습지
1343,신기습지(홍성),충청남도 홍성군 갈산면 행산리,"N36°35’58.32""","E126°32’38.71""",하도습지
1344,잠수교습지,충청남도 홍성군 갈산면 행산리,"N36°35’24.46""","E126°32’34.40""",하도습지
1345,노루목습지,충청남도 홍성군 결성면 교항리,"N36°35’08.65""","E126°32’15.16""",보습지
1346,쌍천교습지,충청남도 홍성군 갈산면 내갈리,"N36°35’52.59""","E126°33’40.93""",하도습지
1347,광천교습지,충청남도 홍성군 광천읍 상정리,"N36°29’56.25""","E126°37’00.14""",보습지
1348,와룡천습지,충청남도 홍성군 서부면 광리,"N36°37’00.79""","E126°30’18.12""",하도습지
1349,공리습지,충청남도 홍성군 구항면 오봉리,"N36°35’47.75""","E126°36’05.26""",담수호습지
1350,옹암포습지,충청남도 홍성군 광천읍 옹암리,"N36°29’08.08""","E126°36’52.54""",하도습지
1351,홍양교습지,충청남도 홍성군 금마면 장성리,"N36°35’50.67""","E126°41’02.38""",하도습지
1352,청광리습지,충청남도 홍성군 구항면 청광리,"N36°33’12.48""","E126°38’49.30""",하도습지
1353,지정습지,충청남도 홍성군 구항면 지정리,"N36°32’44.60""","E126°38’23.17""",하도습지
1354,벽계1습지,충청남도 홍성군 광천읍 벽계리,"N36°31’47.95""","E126°37’48.94""",하도습지
1355,벽계2습지,충청남도 홍성군 광천읍 매현리,"N36°31’23.84""","E126°37’28.03""",하도습지
1356,내죽리습지,충청남도 홍성군 광천읍 내죽리,"N36°30’50.76""","E126°39’28.75""",하도습지
1357,홍양저수지,충청남도 홍성군 금마면 송암리,"N36°35’18.48""","E126°45’35.36""",인공호습지
1358,득적습지,충청남도 예산군 예산읍 신례원리,"N36°42’49.94""","E126°51’10.27""",저층습원
1359,손지리습지,충청남도 예산군 대흥면 손지리,"N36°39’58.69""","E126°49’03.22""",하도습지
1360,산성리습지,충청남도 예산군 예산읍 산성리,"N36°40’50.69""","E126°49’21.37""",하도습지
1361,딴산습지,충청남도 예산군 응봉면 입침리,"N36°38’38.29""","E126°48’41.50""",하도습지
1362,원장들습지,충청남도 예산군 신암면 두곡리,"N36°44’58.70""","E126°50’24.04""",하도습지
1363,예당호 신리 큰사태습지,충청남도 예산군 응봉면 등촌리,"N36°37’44.69""","E126°47’23.60""",담수호습지
1364,산정교습지,충청남도 예산군 대술면 마전리,"N36°38’26.02""","E126°52’57.69""",하도습지
1365,송악습지,충청남도 아산시 송악면 궁평리,"N36°43’09.53""","E126°59’09.31""",담수호습지
1366,관음습지,충청남도 예산군 광시면 동산리,"N36°35’00.49""","E126°47’46.55""",배후습지
1367,예당호 무봉리 안골습지,충청남도 예산군 광시면 월송리,"N36°36’22.41""","E126°49’05.13""",하도습지
1368,하장대리습지,충청남도 청양군 비봉면 록평리,"N36°32’02.93""","E126°46’22.74""",하도습지
1369,은사교습지,충청남도 예산군 광시면 용두리,"N36°33’48.34""","E126°46’51.17""",하도습지
1370,광시교습지,충청남도 예산군 광시면 시목리,"N36°32’40.08""","E126°46’36.58""",보습지
1371,예당호 신리습지,충청남도 예산군 응봉면 신리,"N36°37’27.75""","E126°47’22.31""",인공호습지
1372,예당호 교촌습지,충청남도 예산군 대흥면 교촌리,"N36°37’00.12""","E126°47’21.74""",담수호습지
1373,예당호 장전습지,충청남도 예산군 광시면 장전리,"N36°35’29.75""","E126°47’55.46""",인공호습지
1374,예당호 중앙생태공원,충청남도 예산군 대흥면 동서리,"N36°36’30.41""","E126°47’37.84""",생태수변공원
1375,장고개습지,충청남도 공주시 신풍면 화흥리,"N36°33’01.84""","E126°58’58.89""",소택지
1376,옥녀봉습지,충청남도 공주시 유구읍 유구리,"N36°32’40.67""","E126°57’45.32""",소택지
1377,석남습지,충청남도 공주시 유구읍 유구리,"N36°33’33.96""","E126°57’20.03""",하도습지
1378,만천습지,충청남도 공주시 신풍면 산정리,"N36°31’40.40""","E126°57’19.07""",하도습지
1379,신영습지,충청남도 공주시 유구읍 신영리,"N36°33’44.47""","E126°57’46.63""",하도습지
1380,유구천습지,충청남도 공주시 유구읍 석남리,"N36°32’38.75""","E126°57’10.66""",하도습지
1381,명곡습지,충청남도 공주시 유구읍 명곡리,"N36°35’58.31""","E126°55’52.98""",담수호습지
1382,중장리습지1,충청남도 태안군 안면읍 중장리,"N36°28’53.36""","E126°20’53.51""",인공호습지
1383,승언2습지,충청남도 태안군 안면읍 승언리,"N36°31’09.71""","E126°21’12.74""",인공호습지
1384,승언1습지,충청남도 태안군 안면읍 승언리,"N36°30’36.72""","E126°21’45.48""",인공호습지
1385,매산저수지습지,충청남도 청양군 화성면 매산리,"N36°26’05.66""","E126°44’14.85""",담수호습지
1386,남곡습지,충청남도 보령시 주교면 관창리,"N36°21’00.83""","E126°34’39.12""",하구염습지
1387,개화리습지,충청남도 보령시 미산면 도화담리,"N36°17’43.80""","E126°39’29.16""",보습지
1388,도화담습지,충청남도 보령시 미산면 풍계리,"N36°17’47.49""","E126°39’58.20""",하도습지
1389,웅천습지,충청남도 보령시 웅천읍 성동리,"N36°15’20.49""","E126°36’54.43""",하도습지
1390,풍계습지,충청남도 보령시 미산면 풍계리,"N36°17’10.28""","E126°40’21.52""",담수호습지
1391,대창들습지,충청남도 보령시 웅천읍 대천리,"N36°14’16.29""","E126°35’45.64""",보습지
1392,옥산저수지습지(부여),충청남도 부여군 옥산면 봉산리,"N36°11’49.89""","E126°43’36.51""",인공호습지
1393,화산들습지(서천),충청남도 서천군 서천읍 오석리,"N36°05’41.78""","E126°40’44.10""",하도습지
1394,두북습지,충청남도 서천군 기산면 두북리,"N36°03’22.88""","E126°43’58.54""",하도습지
1395,창내습지,경기도 평택시 오성면 창내리,"N36°58’43.57""","E127°01’21.18""",하도습지
1396,신호리습지,경기도 평택시 팽성읍 석봉리,"N36°59’38.43""","E127°03’21.76""",하도습지
1397,통북동습지,경기도 평택시 팽성읍 신궁리,"N36°58’56.73""","E127°04’56.64""",하도습지
1398,평궁리습지,경기도 평택시 팽성읍 평궁리,"N36°58’13.89""","E127°05’55.86""",하도습지
1399,팽성습지,경기도 평택시 팽성읍 석봉리,"N36°59’08.02""","E127°02’19.87""",하도습지
1400,방축골습지,경기도 안성시 미양면 양변리,"N36°56’59.49""","E127°14’45.78""",저층습원
1401,건천리습지,충청남도 천안시서북구 성환읍 양령리,"N36°58’12.08""","E127°08’28.29""",하도습지
1402,후평리습지,경기도 안성시 대덕면 죽리,"N36°59’41.22""","E127°12’37.63""",하도습지
1403,풍기동습지,충청남도 아산시 배방읍 신흥리,"N36°46’10.15""","E127°00’53.09""",소택지
1404,휴대리습지,충청남도 아산시 배방읍 휴대리,"N36°46’38.11""","E127°07’02.52""",소택지
1405,산동리윗습지,충청남도 아산시 음봉면 산동리,"N36°51’23.89""","E127°05’57.20""",소택지
1406,산동리아랫습지,충청남도 아산시 음봉면 산동리,"N36°51’09.37""","E127°05’57.20""",소택지
1407,부대동습지,충청남도 천안시서북구 성거읍 요방리,"N36°50’35.76""","E127°09’46.74""",소택지
1408,석현리습지,충청북도 진천군 백곡면 석현리,"N36°52’54.11""","E127°22’18.93""",소택지
1409,석하리1습지,경기도 안성시 금광면 석하리,"N36°57’04.28""","E127°19’23.63""",소택지
1410,석하리2습지,경기도 안성시 금광면 석하리,"N36°57’21.36""","E127°18’16.13""",소택지
1411,금광저수지,경기도 안성시 금광면 금광리,"N36°59’12.33""","E127°20’02.28""",인공호습지
1412,청룡저수지,경기도 안성시 서운면 청용리,"N36°54’29.31""","E127°17’02.99""",인공호습지
1413,중동저수지,경기도 안성시 서운면 인리,"N36°56’06.85""","E127°16’12.57""",인공호습지
1414,뒤방죽,경기도 안성시 서운면 양촌리,"N36°57’12.95""","E127°15’37.40""",담수호습지
1415,인처동저수지,경기도 안성시 서운면 인리,"N36°56’36.36""","E127°16’29.10""",인공호습지
1416,북산방죽,경기도 안성시 서운면 인리,"N36°55’55.47""","E127°15’48.36""",인공호습지
1417,뒤들방죽습지,충청북도 제천시 봉양읍 미당리,"N37°09’26.40""","E128°11’55.46""",담수호습지
1418,구암리습지,충청북도 진천군 광혜원면 구암리,"N36°58’53.99""","E127°24’14.50""",소택지
1419,병천리습지,충청남도 천안시동남구 병천면 병천리,"N36°47’24.50""","E127°17’43.59""",하도습지
1420,가전리습지,충청남도 천안시동남구 병천면 가전리,"N36°45’47.96""","E127°16’29.93""",소택지
1421,오곡리윗습지,충청남도 천안시동남구 북면 오곡리,"N36°49’46.14""","E127°16’46.73""",소택지
1422,오곡리아랫습지,충청남도 천안시동남구 북면 오곡리,"N36°49’49.94""","E127°16’44.83""",소택지
1423,태락리습지,충청북도 진천군 문백면 태락리,"N36°48’13.94""","E127°25’17.26""",소택지
1424,은탄리습지,충청북도 진천군 문백면 은탄리,"N36°47’42.38""","E127°28’21.40""",소택지
1425,장월습지,충청북도 진천군 문백면 구곡리,"N36°50’40.98""","E127°29’07.96""",하도습지
1426,강당리습지,충청남도 아산시 송악면 강당리,"N36°43’12.48""","E127°01’22.14""",소택지
1427,광덕리습지,충청남도 천안시동남구 광덕면 광덕리,"N36°40’32.45""","E127°03’47.47""",소택지
1428,용정리1습지,충청남도 천안시동남구 풍세면 용정리,"N36°44’32.48""","E127°06’44.41""",소택지
1429,대정1습지,충청남도 천안시동남구 풍세면 용정리,"N36°44’04.68""","E127°06’42.10""",소택지
1430,대정2습지,충청남도 천안시동남구 풍세면 용정리,"N36°44’16.33""","E127°06’47.54""",소택지
1431,솔모랭이습지,충청남도 천안시동남구 풍세면 용정리,"N36°44’42.16""","E127°06’31.25""",소택지
1432,용정리2습지,충청남도 천안시동남구 풍세면 용정리,"N36°44’32.93""","E127°06’19.29""",소택지
1433,송성습지,세종특별자치시 세종특별자치시 전동면 송성리,"N36°38’57.12""","E127°12’56.62""",하도습지
1434,삼밭실습지,충청남도 공주시 정안면 전평리,"N36°33’53.82""","E127°06’24.71""",소택지
1435,원방이습지,충청남도 공주시 정안면 대산리,"N36°36’29.55""","E127°06’35.05""",소택지
1436,전평습지,충청남도 공주시 정안면 석송리,"N36°33’50.29""","E127°07’24.25""",하도습지
1437,해월습지,충청남도 공주시 사곡면 해월리,"N36°30’25.92""","E127°01’03.53""",하도습지
1438,고당습지(공주),충청남도 공주시 사곡면 고당리,"N36°31’01.16""","E127°01’18.33""",하도습지
1439,평기리윗습지,세종특별자치시 세종특별자치시 장군면 평기리,"N36°30’37.85""","E127°12’12.15""",소택지
1440,평기리아랫습지,세종특별자치시 세종특별자치시 장군면 평기리,"N36°30’35.73""","E127°12’08.97""",소택지
1441,청라리습지,세종특별자치시 세종특별자치시 연서면 청라리,"N36°35’12.48""","E127°11’33.76""",소택지
1442,송학습지,세종특별자치시 세종특별자치시 장군면 송학리,"N36°31’44.21""","E127°11’38.83""",하도습지
1443,중흥지습지,충청남도 공주시 의당면 도신리,"N36°34’08.97""","E127°10’20.14""",인공호습지
1444,공북리습지,충청북도 흥덕구 오송읍 공북리,"N36°39’22.91""","E127°18’21.24""",소택지
1445,국사리습지,충청북도 흥덕구 옥산면 국사리,"N36°41’42.36""","E127°22’55.58""",소택지
1446,후기리습지,충청북도 청원구 오창읍 후기리,"N36°44’17.01""","E127°23’47.25""",소택지
1447,고복리습지,세종특별자치시 세종특별자치시 연서면 고복리,"N36°36’48.06""","E127°15’22.47""",소택지
1448,척산리습지,충청북도 서원구 남이면 척산리,"N36°34’21.81""","E127°25’51.55""",소택지
1449,산막리습지,충청북도 서원구 남이면 산막리,"N36°32’35.80""","E127°23’22.05""",소택지
1450,노호리습지,세종특별자치시 세종특별자치시 부강면 노호리,"N36°30’08.22""","E127°23’50.28""",소택지
1451,소지미습지,충청남도 공주시 계룡면 화은리,"N36°25’59.81""","E127°08’18.40""",저층습원
1452,석장리동습지,세종특별자치시 세종특별자치시 장군면 은용리,"N36°27’42.61""","E127°11’26.11""",소택지
1453,매봉재산습지,충청남도 논산시 노성면 구암리,"N36°18’41.39""","E127°06’30.11""",저층습원
1454,장구봉습지,충청남도 공주시 탄천면 대학리,"N36°22’06.36""","E127°01’30.02""",소택지
1455,사장골습지,충청남도 공주시 탄천면 삼각리,"N36°19’04.92""","E127°01’46.61""",저층습원
1456,세탑리습지,충청남도 부여군 초촌면 세탑리,"N36°17’08.37""","E127°01’15.37""",저층습원
1457,지경제습지,충청남도 논산시 상월면 지경리,"N36°18’30.68""","E127°09’37.45""",담수호습지
1458,금천리습지(세종),세종특별자치시 세종특별자치시 금남면 금천리,"N36°26’01.21""","E127°19’09.91""",저층습원
1459,갓점골습지,충청북도 상당구 문의면 가호리,"N36°23’38.03""","E127°28’11.87""",저습지
1460,사슴골습지,충청북도 상당구 문의면 가호리,"N36°23’40.63""","E127°29’31.28""",저층습원
1461,추동습지(대전),충청북도 상당구 문의면 가호리,"N36°22’39.24""","E127°28’42.51""",소택지
1462,물안다리습지,충청남도 금산군 복수면 지량리,"N36°15’56.52""","E127°20’16.35""",저습지
1463,덕골습지,충청남도 계룡시 두마면 왕대리,"N36°16’07.70""","E127°18’27.73""",저층습원
1464,장판고개습지,충청남도 논산시 성동면 우곤리,"N36°11’33.37""","E127°00’24.29""",저층습원
1465,화정습지(논산),충청남도 논산시 성동면 개척리,"N36°10’31.44""","E127°01’24.83""",하도습지
1466,동화습지(논산),충청남도 논산시 채운면 장화리,"N36°10’36.22""","E127°03’13.08""",하도습지
1467,아호습지,충청남도 논산시 은진면 성평리,"N36°11’52.43""","E127°07’31.17""",하도습지
1468,구당습지,충청남도 논산시 광석면 신당리,"N36°14’40.08""","E127°04’25.82""",담수호습지
1469,지밑습지,충청남도 논산시 광석면 중리,"N36°14’40.76""","E127°03’48.10""",담수호습지
1470,석서습지,충청남도 논산시 양촌면 모촌리,"N36°08’57.63""","E127°12’43.12""",하도습지
1471,탑정호,충청남도 논산시 부적면 신풍리,"N36°10’20.90""","E127°10’53.29""",담수호습지
1472,병촌제습지,충청남도 논산시 부적면 반송리,"N36°12’25.52""","E127°08’20.82""",담수호습지
1473,다듬재습지,전라북도 익산시 금마면 산북리,"N36°01’35.27""","E127°03’12.29""",저층습원
1474,신양습지(익산),충청남도 논산시 연무읍 마전리,"N36°04’40.25""","E127°05’23.11""",하도습지
1475,야황제습지,충청남도 논산시 연무읍 마전리,"N36°05’49.92""","E127°05’32.24""",담수호습지
1476,연동제습지,전라북도 익산시 삼기면 연동리,"N36°01’53.82""","E127°00’35.78""",담수호습지
1477,현천습지(익산),전라북도 익산시 여산면 태성리,"N36°04’22.78""","E127°05’56.01""",담수호습지
1478,진기습지,전라북도 익산시 여산면 두여리,"N36°04’55.24""","E127°03’08.09""",간척호습지
1479,옥골제습지,충청남도 논산시 연무읍 마전리,"N36°06’19.57""","E127°04’39.68""",담수호습지
1480,동봉리습지,전라북도 익산시 왕궁면 동봉리,"N36°01’04.12""","E127°06’04.39""",채굴지습지
1481,화평리습지,전라북도 완주군 화산면 화평리,"N36°02’19.04""","E127°12’46.35""",하도습지
1482,왕암습지,충청남도 논산시 가야곡면 삼전리,"N36°06’48.49""","E127°09’46.73""",논
1483,삼동원습지,충청남도 논산시 벌곡면 양산리,"N36°13’49.29""","E127°15’36.78""",저층습원
1484,기성습지,충청남도 논산시 벌곡면 조동리,"N36°14’44.14""","E127°18’44.87""",하도습지
1485,대덕습지,충청남도 논산시 벌곡면 대덕리,"N36°10’44.79""","E127°17’22.94""",하도습지
1486,지량습지,충청남도 금산군 복수면 신대리,"N36°14’22.57""","E127°22’31.08""",하도습지
1487,신대습지(금산),충청남도 금산군 복수면 신대리,"N36°13’06.15""","E127°22’40.82""",하도습지
1488,백암습지(금산),충청남도 금산군 복수면 백암리,"N36°11’02.12""","E127°23’03.69""",하도습지
1489,백곡지습지,충청북도 진천군 백곡면 사송리,"N36°51’41.96""","E127°23’40.76""",인공호습지
1490,신기습지(논산),충청남도 논산시 양촌면 신기리,"N36°07’32.59""","E127°15’17.59""",하도습지
1491,백암습지(단양),충청북도 단양군 가곡면 가대리,"N36°11’02.12""","E127°23’03.69""",하도습지
1492,어천리습지,경상북도 청송군 파천면 어천리,"N36°29’20.98""","E129°00’18.67""",배후습지
1493,용전천2습지,경상북도 청송군 파천면 중평리,"N36°28’16.21""","E129°01’55.28""",하도습지
1494,용전천3습지,경상북도 청송군 청송읍 송생리,"N36°23’23.54""","E129°04’34.78""",하도습지
1495,용전천4습지,경상북도 청송군 부동면 상평리,"N36°21’49.04""","E129°04’40.89""",하도습지
1496,대서천3습지,경상북도 포항시 북구 죽장면 하옥리,"N36°16’58.14""","E129°14’31.10""",하도습지
1497,대서천2습지,경상북도 포항시 북구 죽장면 하옥리,"N36°17’28.08""","E129°14’43.46""",하도습지
1498,영덕오십천1습지,경상북도 영덕군 지품면 오천리,"N36°26’07.78""","E129°20’19.93""",하도습지
1499,영창습지,경상북도 영덕군 강구면 하저리,"N36°24’30.67""","E129°23’18.69""",소택지
1500,성법소류지습지,경상북도 포항시 북구 기북면 성법리,"N36°11’12.83""","E129°12’31.90""",담수호습지
1501,기계천3습지,경상북도 포항시 북구 기북면 오덕리,"N36°08’30.13""","E129°10’44.25""",하도습지
1502,저암못습지,경상북도 포항시 북구 기북면 관천리,"N36°07’29.14""","E129°09’01.47""",담수호습지
1503,영천호1습지,경상북도 영천시 자양면 용산리,"N36°04’59.11""","E129°02’22.62""",담수호습지
1504,영천호2습지,경상북도 영천시 자양면 삼귀리,"N36°04’56.76""","E129°03’27.42""",담수호습지
1505,영천호3습지,경상북도 영천시 자양면 노항리,"N36°04’02.22""","E129°02’56.96""",담수호습지
1506,기계천구하도습지,경상북도 경주시 안강읍 노당리,"N36°02’47.48""","E129°14’09.68""",우각호습지
1507,기계천1습지,경상북도 포항시 북구 기계면 성계리,"N36°03’23.55""","E129°13’37.97""",하도습지
1508,숲각단습지,경상북도 포항시 북구 기계면 현내리,"N36°03’53.06""","E129°12’39.66""",간척호습지
1509,기계천2습지,경상북도 포항시 북구 기계면 현내리,"N36°03’53.19""","E129°12’08.36""",하도습지
1510,덕산서사습지,경상북도 경주시 안강읍 산대리,"N36°00’33.92""","E129°10’42.41""",인공호습지
1511,월포습지(포항),경상북도 포항시 북구 청하면 월포리,"N36°12’28.28""","E129°21’10.65""",채굴지습지
1512,경상북도수목원습지,경상북도 포항시 북구 죽장면 상옥리,"N36°13’07.06""","E129°15’28.03""",생태수변공원
1513,장자습지(포항),경상북도 포항시 북구 흥해읍 덕장리,"N36°08’34.36""","E129°20’53.19""",담수호습지
1514,곡강천하구습지,경상북도 포항시 북구 흥해읍 흥안리,"N36°07’44.06""","E129°24’09.04""",하구염습지
1515,배머리못습지,경상북도 포항시 남구 연일읍 생지리,"N36°00’29.00""","E129°21’03.25""",우각호습지
1516,천마곡습지,경상북도 포항시 북구 흥해읍 남송리,"N36°06’03.02""","E129°23’24.57""",소택지
1517,대서천1습지,경상북도 영덕군 달산면 옥산리,"N36°21’42.20""","E129°17’24.17""",하도습지
1518,공릉천 하도습지,경기도 파주시 탄현면 갈현리,"N37°45’53.03""","E126°44’31.63""",하도습지
1519,공릉천 구하도습지,경기도 파주시 탄현면 갈현리,"N37°45’28.12""","E126°43’26.53""",하도습지
1520,고려저수지습지,인천광역시 강화군 내가면 고천리,"N37°42’58.25""","E126°23’51.13""",담수호습지
1521,덕은동습지,서울특별시 서대문구 북가좌동,"N37°34’38.45""","E126°51’57.19""",담수호습지
1522,난지수변생태습지,서울특별시 서대문구 북가좌동,"N37°34’17.96""","E126°52’02.81""",생태수변공원
1523,운서습지,인천광역시 옹진군 북도면 모도리,"N37°28’17.09""","E126°23’04.55""",수질정화습지
1524,대매도랑습지,인천광역시 옹진군 북도면 신도리,"N37°25’34.22""","E126°26’30.69""",수질정화습지
1525,영종도 동양염전습지,인천광역시 옹진군 북도면 모도리,"N37°26’53.51""","E126°23’51.55""",인공수로습지
1526,고잔동습지,경기도 화성시 송산면 독지리,"N37°23’28.71""","E126°40’36.99""",생태수변공원
1527,송도유수지습지,경기도 화성시 송산면 독지리,"N37°22’10.09""","E126°38’09.01""",수질정화습지
1528,청명습지,경기도 화성시 서신면 홍법리,"N37°10’23.00""","E126°43’26.18""",소택지
1529,큰마실습지,충청남도 당진시 석문면 교로리,"N37°02’54.30""","E126°31’06.31""",하구갯벌습지
1530,삼존습지,경기도 화성시 송산면 삼존리,"N37°13’22.05""","E126°45’49.53""",인공호습지
1531,덕우습지,경기도 화성시 봉담읍 유리,"N37°10’04.69""","E126°55’25.77""",인공호습지
1532,화옹방조제,경기도 화성시 우정읍 매향리,"N37°03’53.11""","E126°44’54.98""",간척호습지
1533,멱우습지,경기도 화성시 우정읍 멱우리,"N37°05’44.84""","E126°48’23.41""",담수호습지
1534,홍원교습지,경기도 평택시 포승읍 홍원리,"N37°01’44.73""","E126°53’09.79""",하도습지
1535,고잔습지,경기도 평택시 청북읍 고잔리,"N37°04’04.72""","E126°54’34.79""",인공호습지
1536,통삼리1습지,경기도 처인구 남사면 통삼리,"N37°08’04.32""","E127°07’58.62""",소택지
1537,통삼리2습지,경기도 처인구 남사면 통삼리,"N37°08’13.92""","E127°08’09.67""",소택지
1538,마산리습지,경기도 평택시 진위면 마산리,"N37°05’19.09""","E127°05’40.00""",소택지
1539,방직골습지,경기도 평택시 진위면 은산리,"N37°05’01.67""","E127°06’54.03""",소택지
1540,배다리저수지,경기도 안성시 공도읍 진사리,"N36°59’57.64""","E127°07’08.65""",인공호습지
1541,팔무당골습지,경기도 안성시 원곡면 산하리,"N37°05’23.24""","E127°07’57.72""",소택지
1542,산하리습지,경기도 안성시 원곡면 산하리,"N37°05’13.73""","E127°08’09.05""",소택지
1543,고당리1습지,경기도 처인구 원삼면 고당리,"N37°10’29.33""","E127°18’22.62""",소택지
1544,고당리2습지,경기도 처인구 원삼면 고당리,"N37°10’33.57""","E127°18’18.71""",소택지
1545,쌍지리작은습지,경기도 안성시 고삼면 쌍지리,"N37°07’12.07""","E127°17’32.29""",소택지
1546,쌍지리큰습지,경기도 안성시 고삼면 쌍지리,"N37°07’24.65""","E127°17’27.09""",소택지
1547,월향리습지,경기도 안성시 고삼면 월향리,"N37°05’41.59""","E127°16’06.20""",소택지
1548,내우리습지,경기도 안성시 보개면 동신리,"N36°59’55.02""","E127°17’45.23""",하도습지
1549,장릉리습지,경기도 안성시 죽산면 장능리,"N37°03’24.89""","E127°23’26.75""",소택지
1550,용설리습지,경기도 안성시 죽산면 용설리,"N37°02’40.22""","E127°27’01.04""",소택지
1551,두교리습지,경기도 안성시 죽산면 두교리,"N37°01’09.71""","E127°26’54.88""",소택지
1552,새말습지,강원도 홍천군 두촌면 천현리,"N37°51’56.81""","E128°00’54.59""",하도습지
1553,조개동늪,강원도 홍천군 내면 명개리,"N37°50’30.54""","E128°33’13.02""",고층습원
1554,질뫼늪,강원도 평창군 대관령면 횡계리,"N37°45’58.33""","E128°42’18.45""",고층습원
1555,매호,강원도 양양군 현남면 광진리,"N37°57’00.89""","E128°46’17.97""",우각호습지
1556,향호,강원도 강릉시 주문진읍 향호리,"N37°54’41.75""","E128°48’36.30""",석호습지
1557,보광리1습지,강원도 강릉시 성산면 보광리,"N37°45’53.68""","E128°46’02.99""",저층습원
1558,보광리2습지,강원도 강릉시 성산면 보광리,"N37°46’03.24""","E128°46’13.47""",저층습원
1559,연곡천 하구습지,강원도 강릉시 연곡면 동덕리,"N37°51’08.23""","E128°49’37.28""",하구염습지
1560,강릉남대천하구습지,강원도 강릉시 강동면 하시동리,"N37°46’14.30""","E128°56’33.83""",하도습지
1561,경포호,강원도 강릉시 사천면 산대월리,"N37°47’49.87""","E128°54’14.31""",석호습지
1562,순포호(순포개습지),강원도 강릉시 사천면 산대월리,"N37°49’10.86""","E128°53’12.28""",석호습지
1563,자포곡습지,강원도 횡성군 둔내면 우용리,"N37°30’19.46""","E128°12’37.30""",하도습지
1564,화동저수지,강원도 횡성군 둔내면 화동리,"N37°34’19.76""","E128°15’00.30""",인공호습지
1565,냉이재습지,강원도 평창군 봉평면 흥정리,"N37°36’55.45""","E128°17’53.18""",저층습원
1566,자포습지,강원도 횡성군 둔내면 삽교리,"N37°30’34.50""","E128°15’26.03""",보습지
1567,흥정습지,강원도 평창군 봉평면 창동리,"N37°36’30.66""","E128°22’27.92""",하도습지
1568,둔내습지,강원도 횡성군 둔내면 삽교리,"N37°31’11.48""","E128°16’23.94""",담수호습지
1569,원복동습지1,강원도 평창군 대관령면 유천리,"N37°38’09.03""","E128°37’51.74""",고층습원
1570,대관령습지,강원도 평창군 대관령면 횡계리,"N37°41’42.81""","E128°45’12.78""",고층습원
1571,구정리습지,강원도 강릉시 구정면 구정리,"N37°41’58.02""","E128°52’09.60""",소택지
1572,화약골늪,강원도 평창군 대관령면 횡계리,"N37°40’54.80""","E128°45’11.00""",저습지
1573,풍호습지,강원도 강릉시 강동면 하시동리,"N37°44’26.32""","E128°58’02.94""",석호습지
1574,운산동2습지,강원도 강릉시 강동면 상시동리,"N37°44’04.50""","E128°56’32.07""",소택지
1575,운산동1습지,강원도 강릉시 강동면 상시동리,"N37°43’46.80""","E128°55’54.63""",소택지
1576,앞개습지,강원도 강릉시 강동면 하시동리,"N37°44’18.73""","E128°57’12.81""",석호습지
1577,하시동리습지,강원도 강릉시 강동면 하시동리,"N37°44’36.55""","E128°57’41.25""",석호습지
1578,매봉산습지(강릉),강원도 강릉시 왕산면 고단리,"N37°33’43.94""","E128°49’03.81""",저층습원
1579,부평리습지,강원도 인제군 남면 부평리,"N37°59’41.57""","E128°06’03.69""",하도습지
1580,안흥습지(횡성),강원도 횡성군 안흥면 안흥리,"N37°24’26.64""","E128°09’09.48""",보습지
1581,둔방내저수지,강원도 횡성군 둔내면 현천리,"N37°29’44.35""","E128°11’42.93""",인공호습지
1582,본부락습지,강원도 영월군 주천면 도천리,"N37°17’42.56""","E128°14’12.03""",하도습지
1583,선계습지,강원도 횡성군 강림면 강림리,"N37°21’23.01""","E128°08’39.59""",하도습지
1584,황둔천습지,강원도 원주시 신림면 송계리,"N37°16’04.89""","E128°11’50.34""",하도습지
1585,가리내습지,강원도 횡성군 강림면 강림리,"N37°22’30.04""","E128°08’24.49""",보습지
1586,개건너습지,강원도 횡성군 강림면 강림리,"N37°22’19.63""","E128°07’45.89""",보습지
1587,여만습지,강원도 평창군 평창읍 여만리,"N37°23’09.89""","E128°23’48.10""",보습지
1588,다수습지,강원도 평창군 평창읍 계장리,"N37°23’47.18""","E128°22’30.29""",하도습지
1589,주천습지,강원도 영월군 주천면 신일리,"N37°15’56.73""","E128°15’58.85""",하도습지
1590,무릉습지,강원도 영월군 주천면 주천리,"N37°17’05.54""","E128°15’56.76""",하도습지
1591,진바리습지,강원도 평창군 평창읍 도돈리,"N37°20’11.02""","E128°21’41.96""",하도습지
1592,금산습지,강원도 영월군 주천면 주천리,"N37°15’44.50""","E128°16’49.84""",보습지
1593,매운습지,강원도 영월군 한반도면 광전리,"N37°16’42.70""","E128°20’11.15""",하도습지
1594,노가리습지,강원도 평창군 평창읍 입탄리,"N37°19’47.90""","E128°21’15.74""",하도습지
1595,안도내습지,강원도 영월군 무릉도원면 도원리,"N37°17’12.16""","E128°14’43.69""",하도습지
1596,천동습지,강원도 평창군 평창읍 천동리,"N37°19’47.48""","E128°22’38.67""",하도습지
1597,북평습지,강원도 정선군 북평면 남평리,"N37°26’36.55""","E128°39’48.64""",하도습지
1598,어라전습지,강원도 정선군 북평면 남평리,"N37°25’21.67""","E128°39’10.05""",하도습지
1599,정선습지,강원도 정선군 정선읍 봉양리,"N37°22’45.78""","E128°39’27.05""",하도습지
1600,여랑보습지,강원도 정선군 여량면 여량리,"N37°28’10.59""","E128°44’24.30""",보습지
1601,귤암리습지,강원도 정선군 정선읍 귤암리,"N37°21’13.70""","E128°37’14.05""",하도습지
1602,진탄습지,강원도 영월군 영월읍 문산리,"N37°17’21.80""","E128°33’07.21""",하도습지
1603,점재습지,강원도 정선군 신동읍 운치리,"N37°16’19.85""","E128°36’08.91""",하도습지
1604,임계습지,강원도 정선군 임계면 봉산리,"N37°28’53.38""","E128°50’44.24""",하도습지
1605,혈천동습지,강원도 정선군 임계면 낙천리,"N37°27’48.73""","E128°50’35.15""",하도습지
1606,골지천습지,강원도 정선군 임계면 낙천리,"N37°28’33.47""","E128°50’27.07""",하도습지
1607,돈들습지,강원도 정선군 임계면 용산리,"N37°26’55.63""","E128°51’18.63""",하도습지
1608,느리습지,강원도 정선군 임계면 반천리,"N37°28’06.75""","E128°48’00.86""",인공호습지
1609,광동호습지,강원도 삼척시 하장면 숙암리,"N37°20’22.56""","E128°57’35.74""",인공호습지
1610,용암습지(제천),강원도 원주시 신림면 용암리,"N37°12’06.74""","E128°05’39.90""",하도습지
1611,궁골습지,충청북도 제천시 봉양읍 구학리,"N37°09’46.92""","E128°06’04.58""",우각호습지
1612,벼루막달습지,충청북도 제천시 봉양읍 연박리,"N37°07’49.72""","E128°06’41.83""",하도습지
1613,팔송습지,충청북도 제천시 봉양읍 팔송리,"N37°08’24.72""","E128°07’10.33""",보습지
1614,백마저수지,충청북도 제천시 백운면 방학리,"N37°10’11.76""","E128°01’04.63""",인공수로습지
1615,신동습지,충청북도 제천시 봉양읍 장평리,"N37°07’45.49""","E128°10’16.48""",보습지
1616,장평습지,충청북도 제천시 봉양읍 장평리,"N37°07’59.28""","E128°08’59.77""",하도습지
1617,안말지,충청북도 제천시 송학면 포전리,"N37°12’11.17""","E128°13’55.07""",인공수로습지
1618,뒤실지,충청북도 제천시 송학면 포전리,"N37°12’11.22""","E128°14’30.96""",담수호습지
1619,솔방죽습지,충청북도 제천시 송학면 도화리,"N37°09’23.56""","E128°12’31.27""",인공수로습지
1620,솔티소류지,충청북도 제천시 송학면 무도리,"N37°08’47.48""","E128°14’05.37""",인공수로습지
1621,절골소류지,충청북도 제천시 송학면 무도리,"N37°08’26.91""","E128°13’55.06""",인공수로습지
1622,오미저수지(제천),충청북도 제천시 송학면 오미리,"N37°14’39.11""","E128°11’49.14""",인공수로습지
1623,명돌습지,충청북도 충주시 산척면 명서리,"N37°04’02.22""","E128°02’56.91""",하도습지
1624,삼탄습지,충청북도 충주시 산척면 명서리,"N37°04’03.58""","E128°01’53.19""",하도습지
1625,요골습지,충청북도 제천시 봉양읍 연박리,"N37°06’33.41""","E128°06’30.24""",하도습지
1626,굴탄습지,충청북도 제천시 봉양읍 공전리,"N37°05’44.49""","E128°05’06.63""",보습지
1627,신리습지,충청북도 제천시 청풍면 읍리,"N37°00’35.13""","E128°09’32.09""",인공호습지
1628,산곡소류지,충청북도 제천시 금성면 동막리,"N37°06’05.70""","E128°12’25.66""",인공수로습지
1629,산곡저수지,충청북도 제천시 금성면 월림리,"N37°05’46.40""","E128°10’59.06""",인공수로습지
1630,몽암사소류지,충청북도 제천시 금성면 동막리,"N37°07’04.81""","E128°11’40.45""",인공수로습지
1631,구룡저수지,충청북도 제천시 금성면 구룡리,"N37°04’25.23""","E128°10’19.93""",인공호습지
1632,한반도습지,강원도 영월군 한반도면 옹정리,"N37°12’59.36""","E128°20’12.50""",하도습지
1633,내신평습지,강원도 영월군 주천면 용석리,"N37°14’18.05""","E128°17’46.74""",보습지
1634,괴골습지,강원도 영월군 한반도면 옹정리,"N37°13’52.31""","E128°21’04.64""",하도습지
1635,사슬치습지,강원도 영월군 주천면 용석리,"N37°13’32.47""","E128°17’42.81""",하도습지
1636,마골제소류지,충청북도 단양군 매포읍 김산리,"N37°07’12.09""","E128°15’27.98""",담수호습지
1637,한천제소류지,충청북도 단양군 매포읍 김산리,"N37°06’48.90""","E128°15’26.71""",인공호습지
1638,화랏습지,강원도 영월군 한반도면 신천리,"N37°13’57.34""","E128°18’56.46""",하도습지
1639,뭇두리습지,강원도 영월군 남면 북쌍리,"N37°11’56.35""","E128°23’54.97""",하도습지
1640,선돌습지,강원도 영월군 영월읍 방절리,"N37°11’44.27""","E128°25’45.19""",하도습지
1641,영월습지,강원도 영월군 영월읍 덕포리,"N37°10’07.16""","E128°28’20.11""",하도습지
1642,매포습지,충청북도 단양군 매포읍 가평리,"N37°04’29.68""","E128°16’35.17""",하도습지
1643,매포천습지,충청북도 단양군 매포읍 하괴리,"N37°00’24.74""","E128°20’09.32""",하도습지
1644,우덕습지,충청북도 단양군 매포읍 하괴리,"N37°00’30.55""","E128°19’49.80""",하도습지
1645,파랑소류지,충청북도 단양군 적성면 파랑리,"N37°03’48.18""","E128°15’14.62""",인공호습지
1646,도곡소류지,충청북도 단양군 매포읍 도곡리,"N37°02’30.80""","E128°16’15.36""",인공호습지
1647,각기못,충청북도 단양군 적성면 각기리,"N37°00’59.51""","E128°16’45.13""",인공수로습지
1648,영춘습지,충청북도 단양군 영춘면 하리,"N37°04’18.94""","E128°29’17.51""",하도습지
1649,안마을습지,충청북도 단양군 가곡면 가대리,"N37°02’12.78""","E128°23’52.20""",하도습지
1650,향산습지,충청북도 단양군 가곡면 향산리,"N37°03’47.64""","E128°25’20.82""",하도습지
1651,사평습지,충청북도 단양군 가곡면 사평리,"N37°01’54.53""","E128°23’09.04""",하도습지
1652,보발습지,충청북도 단양군 가곡면 향산리,"N37°02’59.89""","E128°24’53.67""",하도습지
1653,고습어구습지,강원도 영월군 김삿갓면 진별리,"N37°08’11.06""","E128°31’51.33""",하도습지
1654,옥동습지,강원도 영월군 김삿갓면 예밀리,"N37°07’30.94""","E128°34’35.13""",하도습지
1655,용진습지,충청북도 단양군 영춘면 용진리,"N37°05’28.53""","E128°30’24.24""",하도습지
1656,황지연못(태백),강원도 삼척시 도계읍 심포리,"N37°10’22.36""","E128°59’28.05""",용천습지
1657,청옥산습지,경상북도 봉화군 소천면 고선리,"N37°02’27.34""","E128°57’56.92""",고층습원
1658,옹점동1습지,강원도 삼척시 미로면 사둔리,"N37°28’14.43""","E129°07’04.56""",소택지
1659,옹점동2습지,강원도 삼척시 미로면 무사리,"N37°28’24.22""","E129°07’30.28""",소택지
1660,추암동습지,강원도 삼척시 미로면 무사리,"N37°28’35.54""","E129°09’10.38""",하도습지
1661,마읍천습지,강원도 삼척시 근덕면 부남리,"N37°21’55.31""","E129°13’51.98""",하도습지
1662,구문소습지,경상북도 봉화군 석포면 대현리,"N37°05’28.90""","E129°02’35.65""",하도습지
1663,사군다리습지,경상북도 봉화군 석포면 대현리,"N37°05’30.30""","E129°02’08.63""",하도습지
1664,면산습지,경상북도 봉화군 석포면 석포리,"N37°05’24.4""","E129°07’12.1""",저층습원
1665,가곡천습지,강원도 삼척시 원덕읍 산양리,"N37°08’37.66""","E129°18’01.49""",하도습지
1666,가곡천하구습지,강원도 삼척시 원덕읍 월천리,"N37°09’54.83""","E129°20’14.27""",하도습지
1667,부구습지,경상북도 울진군 북면 부구리,"N37°06’00.15""","E129°22’15.19""",하도습지
1668,신일교습지,강원도 삼척시 도계읍 심포리,"N37°10’52.00""","E128°59’04.29""",하도습지
1669,남강천2교습지,경상남도 함양군 유림면 대궁리,"N35°30’53.21""","E127°48’05.19""",보습지
1670,서화천 계곡습지,강원도 인제군 서화면 서화리,"N38°15’58.65""","E128°13’54.55""",하도습지
1671,거진북천습지,강원도 고성군 간성읍 상리,"N38°23’06.34""","E128°27’28.11""",보습지
1672,고성 북천습지,강원도 고성군 간성읍 봉호리,"N38°23’56.35""","E128°28’14.36""",하도습지
1673,고성 남천습지,강원도 고성군 죽왕면 향목리,"N38°23’01.30""","E128°29’24.71""",보습지
1674,북천중류부하상습지,강원도 고성군 간성읍 어천리,"N38°22’08.60""","E128°25’32.98""",하도습지
1675,화진포호,강원도 고성군 현내면 죽정리,"N38°27’54.96""","E128°26’08.38""",석호습지
1676,봉포호,강원도 고성군 토성면 봉포리,"N38°15’03.53""","E128°33’39.67""",석호습지
1677,송지호,강원도 고성군 죽왕면 오봉리,"N38°19’49.86""","E128°30’54.46""",석호습지
1678,천진호,강원도 고성군 토성면 봉포리,"N38°15’12.14""","E128°33’20.57""",우각호습지
1679,선유담습지,강원도 고성군 죽왕면 공현진리,"N38°21’25.66""","E128°30’14.35""",석호습지
1680,대암산용늪,강원도 인제군 서화면 서흥리,"N38°13’09.66""","E128°07’29.55""",고층습원
1681,늪둔치습지,강원도 인제군 북면 원통리,"N38°07’58.84""","E128°13’47.23""",하도습지
1682,솔거리습지,강원도 인제군 북면 원통리,"N38°07’35.26""","E128°13’07.38""",하도습지
1683,이평리습지,강원도 인제군 인제읍 합강리,"N38°06’09.21""","E128°11’43.23""",하도습지
1684,인제38대교습지,강원도 인제군 남면 남전리,"N38°01’18.01""","E128°07’38.92""",하도습지
1685,광포호,강원도 고성군 토성면 봉포리,"N38°14’30.23""","E128°33’58.91""",석호습지
1686,영랑호,강원도 고성군 토성면 용촌리,"N38°13’05.69""","E128°34’42.82""",석호습지
1687,청초호,강원도 고성군 토성면 용촌리,"N38°11’47.55""","E128°35’18.07""",석호습지
1688,임천습지,강원도 양양군 양양읍 월리,"N38°03’24.22""","E128°36’42.68""",하도습지
1689,양양남대천습지,강원도 양양군 양양읍 송암리,"N38°04’57.29""","E128°38’08.85""",하도습지
1690,군개(군갯벌)습지,강원도 양양군 현북면 중광정리,"N38°01’38.75""","E128°42’57.72""",석호습지
1691,가평리습지1,강원도 양양군 손양면 가평리,"N38°05’46.69""","E128°39’10.47""",석호습지
1692,쌍호,강원도 양양군 손양면 오산리,"N38°05’06.77""","E128°39’44.63""",석호습지
1693,염개습지,강원도 양양군 손양면 여운포리,"N38°02’17.32""","E128°41’56.61""",석호습지
1694,가평리습지2,강원도 양양군 손양면 가평리,"N38°06’09.6""","E128°38’51.3""",석호습지
1695,소황병산늪,강원도 강릉시 연곡면 삼산리,"N37°46’21.12""","E128°40’42.51""",고층습원
1696,윤내미물,제주특별자치도 제주시 애월읍 신엄리,"N33°28’07.49""","E126°22’07.64""",담수호습지
1697,연화못,제주특별자치도 제주시 애월읍 하가리,"N33°27’16.51""","E126°20’51.10""",담수호습지
1698,납읍 웃못,제주특별자치도 제주시 애월읍 납읍리,"N33°26’21.14""","E126°19’42.39""",담수호습지
1699,돌개기못,제주특별자치도 제주시 한림읍 상대리,"N33°23’32.05""","E126°18’39.32""",담수호습지
1700,역고못,제주특별자치도 제주시 한림읍 상대리,"N33°23’15.64""","E126°18’31.85""",담수호습지
1701,걸월이못,제주특별자치도 제주시 한림읍 금악리,"N33°22’48.67""","E126°18’38.06""",담수호습지
1702,수산저수지,제주특별자치도 제주시 애월읍 수산리,"N33°28’10.10""","E126°23’17.33""",인공호습지
1703,좌랑못,제주특별자치도 제주시 애월읍 유수암리,"N33°26’08.09""","E126°23’16.10""",담수호습지
1704,김수장군못,제주특별자치도 제주시 애월읍 고성리,"N33°24’45.96""","E126°26’14.82""",담수호습지
1705,남생이못,제주특별자치도 제주시 조천읍 신촌리,"N33°31’59.10""","E126°36’51.38""",담수호습지
1706,동백동산습지,제주특별자치도 제주시 조천읍 선흘리,"N33°31’00.80""","E126°43’03.19""",저층습원
1707,반못,제주특별자치도 제주시 조천읍 선흘리,"N33°30’31.11""","E126°43’02.65""",담수호습지
1708,물장오리오름습지,제주특별자치도 제주시 조천읍 교래리,"N33°24’32.64""","E126°36’28.77""",저층습원
1709,조리세미,제주특별자치도 제주시 조천읍 와흘리,"N33°28’09.18""","E126°36’23.10""",담수호습지
1710,물찻오름습지,제주특별자치도 제주시 조천읍 교래리,"N33°23’43.89""","E126°39’05.69""",저층습원
1711,덕천 웃못,제주특별자치도 제주시 구좌읍 덕천리,"N33°28’56.94""","E126°44’43.78""",담수호습지
1712,몰순이못,제주특별자치도 제주시 구좌읍 덕천리,"N33°27’47.04""","E126°44’36.80""",담수호습지
1713,바농못,제주특별자치도 제주시 조천읍 와흘리,"N33°27’46.26""","E126°39’01.90""",담수호습지
1714,모사니물,제주특별자치도 제주시 구좌읍 덕천리,"N33°30’16.61""","E126°46’19.76""",담수호습지
1715,미나리못,제주특별자치도 제주시 구좌읍 송당리,"N33°27’12.42""","E126°48’02.39""",담수호습지
1716,갈마못,제주특별자치도 서귀포시 성산읍 신풍리,"N33°23’14.30""","E126°48’39.06""",담수호습지
1717,다도리못,제주특별자치도 서귀포시 표선면 성읍리,"N33°23’40.71""","E126°46’59.56""",담수호습지
1718,매미못,제주특별자치도 서귀포시 성산읍 삼달리,"N33°22’35.94""","E126°50’37.05""",담수호습지
1719,이전물,제주특별자치도 서귀포시 성산읍 수산리,"N33°26’31.56""","E126°51’36.29""",담수호습지
1720,한못,제주특별자치도 서귀포시 성산읍 수산리,"N33°25’43.74""","E126°50’34.97""",담수호습지
1721,대나물,제주특별자치도 서귀포시 성산읍 수산리,"N33°25’44.34""","E126°52’39.01""",담수호습지
1722,혼인지,제주특별자치도 서귀포시 성산읍 온평리,"N33°24’54.84""","E126°53’37.61""",담수호습지
1723,새미얏물,제주특별자치도 제주시 한경면 낙천리,"N33°19’18.00""","E126°13’44.31""",담수호습지
1724,용수저수지,제주특별자치도 제주시 한경면 용수리,"N33°19’02.33""","E126°11’16.05""",인공호습지
1725,펄랑호,제주특별자치도 제주시 한림읍 협재리,"N33°24’24.73""","E126°13’49.30""",담수호습지
1726,강정못,제주특별자치도 제주시 한경면 저지리,"N33°20’00.07""","E126°16’34.89""",담수호습지
1727,군물,제주특별자치도 서귀포시 안덕면 사계리,"N33°14’59.67""","E126°19’04.03""",담수호습지
1728,뱅듸못,제주특별자치도 제주시 한림읍 금악리,"N33°21’28.13""","E126°17’46.50""",담수호습지
1729,봉우리못,제주특별자치도 서귀포시 대정읍 보성리,"N33°15’17.60""","E126°16’16.50""",담수호습지
1730,성구못,제주특별자치도 서귀포시 안덕면 상창리,"N33°16’32.89""","E126°21’50.23""",담수호습지
1731,세미소,제주특별자치도 제주시 한림읍 금악리,"N33°21’03.60""","E126°19’20.98""",담수호습지
1732,수월이못,제주특별자치도 서귀포시 대정읍 안성리,"N33°15’29.79""","E126°16’42.33""",담수호습지
1733,정물,제주특별자치도 제주시 한림읍 금악리,"N33°20’31.00""","E126°19’40.36""",담수호습지
1734,맨처남물,제주특별자치도 서귀포시 대정읍 신도리,"N33°17’06.05""","E126°11’46.70""",담수호습지
1735,일과 웃못,제주특별자치도 서귀포시 대정읍 일과리,"N33°14’06.28""","E126°14’39.34""",담수호습지
1736,남문못,제주특별자치도 서귀포시 대정읍 인성리,"N33°14’48.12""","E126°16’34.77""",담수호습지
1737,1100고지습지,제주특별자치도 제주시 애월읍 광령리,"N33°21’27.14""","E126°27’55.73""",저층습원
1738,제주 숨은물뱅듸,제주특별자치도 제주시 애월읍 광령리,"N33°21’51.76""","E126°26’59.20""",저층습원
1739,백록담,제주특별자치도 서귀포시 남원읍 하례리,"N33°21’44.36""","E126°31’59.68""",저층습원
1740,사라오름습지,제주특별자치도 서귀포시 남원읍 신례리,"N33°22’14.81""","E126°34’13.60""",저층습원
1741,물영아리오름습지,제주특별자치도 서귀포시 남원읍 수망리,"N33°22’08.19""","E126°41’30.55""",저층습원
1742,고타리못,제주특별자치도 서귀포시 성산읍 신천리,"N33°21’04.55""","E126°51’28.46""",담수호습지
1743,남선못,제주특별자치도 서귀포시 표선면 가시리,"N33°22’14.80""","E126°47’31.94""",담수호습지
1744,신안 장도 산지습지,전라남도 신안군 흑산면 비리,"N34°40’10.92""","E125°22’12.46""",저층습원
1745,나주호습지,전라남도 나주시 다도면 방산리,"N34°55’11.08""","E126°51’53.47""",담수호습지
1746,송현제습지,전라남도 나주시 봉황면 송현리,"N34°57’45.35""","E126°48’10.13""",담수호습지
1747,도산습지,전라남도 화순군 청풍면 세청리,"N34°53’20.97""","E126°58’34.36""",저습지
1748,이양습지,전라남도 화순군 청풍면 세청리,"N34°54’11.15""","E126°59’00.04""",하도습지
1749,선창보습지,전라남도 화순군 청풍면 풍암리,"N34°54’59.31""","E126°59’07.00""",하도습지
1750,웃들습지,전라남도 화순군 춘양면 부곡리,"N34°58’02.04""","E126°58’11.97""",하도습지
1751,대초천습지,전라남도 나주시 남평읍 우산리,"N34°59’03.17""","E126°53’01.04""",하도습지
1752,궁성산습지,전라남도 영암군 금정면 세류리,"N34°52’36.40""","E126°47’02.76""",저습지
1753,맹진리습지,전라남도 해남군 마산면 송석리,"N34°37’21.62""","E126°37’29.14""",보습지
1754,동호리습지,전라남도 영암군 삼호읍 동호리,"N34°44’55.45""","E126°31’27.19""",하도습지
1755,북창습지,전라남도 해남군 마산면 외호리,"N34°38’00.76""","E126°36’20.70""",하도습지
1756,기둥습지,전라남도 영암군 미암면 호포리,"N34°41’21.25""","E126°31’31.29""",인공수로습지
1757,오복습지,전라남도 영암군 삼호읍 망산리,"N34°42’42.15""","E126°30’23.93""",인공수로습지
1758,미암습지,전라남도 영암군 미암면 남산리,"N34°40’01.90""","E126°32’45.99""",간척호습지
1759,연구제습지,전라남도 해남군 마산면 노하리,"N34°37’38.41""","E126°32’40.12""",담수호습지
1760,갈동교습지,전라남도 강진군 작천면 갈동리,"N34°43’06.07""","E126°44’25.15""",하도습지
1761,금쇄동습지,전라남도 해남군 현산면 구시리,"N34°30’10.98""","E126°34’05.08""",저습지
1762,삼산천1습지,전라남도 강진군 도암면 석문리,"N34°33’23.88""","E126°43’40.95""",보습지
1763,삼산천2습지,전라남도 해남군 삼산면 봉학리,"N34°31’35.35""","E126°33’41.55""",보습지
1764,삼산천3습지,전라남도 해남군 삼산면 창리,"N34°31’31.66""","E126°35’40.05""",보습지
1765,백도제습지,전라남도 해남군 삼산면 구림리,"N34°30’09.37""","E126°36’07.87""",담수호습지
1766,성자습지,전라남도 해남군 삼산면 평활리,"N34°30’52.93""","E126°36’49.81""",하도습지
1767,팔산교습지,전라남도 해남군 옥천면 신계리,"N34°36’20.83""","E126°38’13.97""",하도습지
1768,옥전교습지,전라남도 강진군 도암면 항촌리,"N34°31’59.92""","E126°43’40.02""",하도습지
1769,작천교습지,전라남도 강진군 작천면 삼당리,"N34°42’02.32""","E126°47’02.00""",하도습지
1770,석교습지(강진),전라남도 강진군 군동면 석교리,"N34°38’07.11""","E126°48’51.81""",하도습지
1771,용소리습지,전라남도 강진군 군동면 용소리,"N34°38’25.15""","E126°51’08.98""",하도습지
1772,안지교습지,전라남도 강진군 군동면 덕천리,"N34°38’23.31""","E126°50’44.02""",하도습지
1773,봉림리습지,전라남도 강진군 옴천면 봉림리,"N34°44’52.66""","E126°49’03.97""",하도습지
1774,용동제습지(강진),전라남도 강진군 작천면 삼열리,"N34°42’55.93""","E126°46’23.69""",담수호습지
1775,하고제습지,전라남도 강진군 병영면 성동리,"N34°43’21.02""","E126°48’35.71""",담수호습지
1776,용물쏘습지,전라남도 강진군 군동면 용소리,"N34°38’32.61""","E126°50’47.23""",하도습지
1777,사안리습지,전라남도 장흥군 장흥읍 영전리,"N34°41’02.76""","E126°52’23.92""",보습지
1778,석동교습지,전라남도 장흥군 장흥읍 사안리,"N34°40’19.41""","E126°52’47.92""",하도습지
1779,한들보1습지,전라남도 장흥군 장흥읍 행원리,"N34°41’10.27""","E126°53’43.86""",보습지
1780,한들보2습지,전라남도 장흥군 부산면 내안리,"N34°42’00.87""","E126°54’01.33""",보습지
1781,감천교습지,전라남도 장흥군 장흥읍 영전리,"N34°39’50.10""","E126°53’08.98""",하도습지
1782,송암리습지,전라남도 장흥군 장흥읍 평장리,"N34°39’12.28""","E126°52’30.75""",하도습지
1783,해창제습지,전라남도 장흥군 안양면 해창리,"N34°37’52.36""","E126°59’45.28""",간척호습지
1784,만덕리습지,전라남도 강진군 도암면 만덕리,"N34°34’30.76""","E126°45’02.62""",소택지
1785,신기리습지,전라남도 강진군 도암면 신기리,"N34°31’11.45""","E126°45’05.91""",간척호습지
1786,논정방조제습지,전라남도 강진군 도암면 신기리,"N34°30’55.01""","E126°45’22.45""",간척호습지
1787,신흥천습지,전라남도 장흥군 관산읍 농안리,"N34°33’50.69""","E126°53’51.12""",하도습지
1788,차경습지,전라남도 강진군 신전면 벌정리,"N34°29’22.85""","E126°44’42.02""",하구갯벌습지
1789,대천습지(완도),전라남도 완도군 군외면 신학리,"N34°22’10.12""","E126°38’38.31""",하도습지
1790,대문리습지,전라남도 완도군 완도읍 대신리,"N34°19’16.68""","E126°41’04.71""",하구갯벌습지
1791,완도호1습지,전라남도 완도군 완도읍 정도리,"N34°18’31.18""","E126°41’21.42""",간척호습지
1792,완도호2습지,전라남도 완도군 완도읍 정도리,"N34°18’39.15""","E126°41’28.31""",간척호습지
1793,완도호3습지,전라남도 완도군 완도읍 정도리,"N34°18’28.29""","E126°41’38.02""",간척호습지
1794,안창제습지,전라남도 완도군 완도읍 정도리,"N34°18’33.81""","E126°42’21.30""",담수호습지
1795,항동리습지,전라남도 완도군 고금면 세동리,"N34°23’52.70""","E126°50’18.94""",소택지
1796,신장마을습지,전라남도 완도군 고금면 세동리,"N34°24’25.97""","E126°49’13.02""",하도습지
1797,고금호습지,전라남도 완도군 고금면 세동리,"N34°23’17.55""","E126°50’05.64""",간척호습지
1798,해동리습지,전라남도 완도군 약산면 해동리,"N34°23’36.72""","E126°56’19.17""",소택지
1799,해동방조제습지,전라남도 완도군 약산면 해동리,"N34°23’26.29""","E126°56’02.64""",간척호습지
1800,신기습지,전라남도 완도군 신지면 신상리,"N34°19’46.74""","E126°50’46.94""",소택지
1801,상리습지,전라남도 완도군 신지면 신상리,"N34°20’04.66""","E126°50’45.20""",소택지
1802,약산담수호습지,전라남도 완도군 약산면 관산리,"N34°22’17.85""","E126°53’07.24""",간척호습지
1803,양하리1습지,전라남도 완도군 노화읍 신양리,"N34°12’34.75""","E126°34’45.66""",소택지
1804,양하리2습지,전라남도 완도군 노화읍 신양리,"N34°12’26.35""","E126°34’47.49""",소택지
1805,월송리습지,전라남도 완도군 보길면 예송리,"N34°09’34.51""","E126°34’23.46""",소택지
1806,부황천습지,전라남도 완도군 보길면 부황리,"N34°09’56.23""","E126°33’26.07""",하도습지
1807,포전리습지,전라남도 완도군 노화읍 이포리,"N34°11’10.97""","E126°34’43.81""",간척호습지
1808,활목습지,전라남도 완도군 노화읍 충도리,"N34°11’40.08""","E126°35’28.08""",담수호습지
1809,화원동습지,전라남도 완도군 보길면 부황리,"N34°09’59.81""","E126°33’32.34""",담수호습지
1810,통리습지,전라남도 완도군 보길면 중통리,"N34°09’42.49""","E126°34’31.27""",간척호습지
1811,도청리습지,전라남도 완도군 청산면 당락리,"N34°10’32.49""","E126°51’15.40""",논
1812,지리청송습지,전라남도 완도군 청산면 지리,"N34°11’49.58""","E126°51’49.30""",논
1813,읍리습지,전라남도 완도군 청산면 당락리,"N34°10’15.20""","E126°52’08.02""",배후습지
1814,원동리습지,전라남도 완도군 청산면 상동리,"N34°10’50.32""","E126°54’04.03""",소택지
1815,중흥리습지,전라남도 완도군 청산면 신흥리,"N34°10’56.09""","E126°54’21.71""",논
1816,광양 서천습지,전라남도 광양시 광양읍 익신리,"N34°56’52.52""","E127°35’51.00""",하구갯벌습지
1817,순천 동천습지,전라남도 순천시 해룡면 대안리,"N34°54’11.32""","E127°30’59.20""",하도습지
1818,이사천습지,전라남도 순천시 해룡면 대안리,"N34°54’33.86""","E127°29’59.67""",하도습지
1819,인덕저수지습지,전라남도 광양시 광양읍 덕례리,"N34°57’19.71""","E127°33’14.23""",담수호습지
1820,동천 구하도습지,전라남도 순천시 해룡면 중흥리,"N34°54’04.34""","E127°31’27.84""",우각호습지
1821,이사천 구하도1습지,전라남도 순천시 해룡면 중흥리,"N34°54’02.58""","E127°30’27.07""",우각호습지
1822,이사천 구하도2습지,전라남도 순천시 해룡면 중흥리,"N34°53’35.95""","E127°30’44.43""",우각호습지
1823,수어천습지,전라남도 광양시 진상면 청암리,"N34°59’39.83""","E127°43’14.54""",하구갯벌습지
1824,가장습지,전라남도 여수시 율촌면 가장리,"N34°50’23.48""","E127°34’16.78""",소택지
1825,쌍봉천습지,전라남도 여수시 소라면 대포리,"N34°48’28.05""","E127°37’53.98""",하도습지
1826,섬진강하류 1습지,전라남도 광양시 진월면 오사리,"N34°59’54.34""","E127°46’45.42""",하도습지
1827,남양습지,경상남도 남해군 설천면 남양리,"N34°55’25.06""","E127°54’10.47""",소택지
1828,문의습지,경상남도 남해군 설천면 문의리,"N34°56’07.55""","E127°53’41.43""",소택지
1829,진목습지(남해),경상남도 남해군 설천면 진목리,"N34°53’26.53""","E127°54’59.48""",간척호습지
1830,다평습지,경상남도 사천시 서포면 다평리,"N34°59’43.21""","E127°58’10.98""",간척호습지
1831,술상습지,경상남도 하동군 진교면 술상리,"N34°59’08.56""","E127°54’45.01""",간척호습지
1832,대치습지(하동),경상남도 하동군 금남면 대치리,"N34°57’25.68""","E127°53’29.54""",간척호습지
1833,노량습지,경상남도 하동군 금남면 노량리,"N34°57’46.59""","E127°52’31.47""",담수호습지
1834,평현습지,경상남도 남해군 남해읍 평현리,"N34°49’47.61""","E127°52’25.71""",소택지
1835,일림산습지,전라남도 보성군 웅치면 대산리,"N34°40’59.57""","E127°00’28.85""",저층습원
1836,당두마을습지,전라남도 고흥군 풍양면 당두리,"N34°34’49.50""","E127°12’21.91""",인공호습지
1837,강산리습지,전라남도 고흥군 점암면 성기리,"N34°38’45.58""","E127°26’43.06""",간척호습지
1838,신흥교습지,전라남도 고흥군 포두면 길두리,"N34°34’37.24""","E127°20’59.53""",하도습지
1839,정암습지,전라남도 고흥군 포두면 옥강리,"N34°32’58.76""","E127°22’07.62""",하도습지
1840,세동제습지,전라남도 고흥군 포두면 차동리,"N34°32’40.16""","E127°21’26.04""",담수호습지
1841,시목습지,전라남도 고흥군 영남면 금사리,"N34°36’12.07""","E127°24’27.69""",보습지
1842,금산1호교습지,전라남도 고흥군 포두면 송산리,"N34°35’14.28""","E127°23’40.04""",간척호습지
1843,양화제방습지,전라남도 고흥군 영남면 양사리,"N34°35’29.37""","E127°27’22.00""",간척호습지
1844,상오교습지,전라남도 고흥군 포두면 오취리,"N34°33’59.25""","E127°23’23.54""",간척호습지
1845,옥적2습지,전라남도 여수시 화양면 옥적리,"N34°42’51.98""","E127°35’54.75""",소택지
1846,현천습지(여수),전라남도 여수시 화양면 창무리,"N34°44’41.13""","E127°35’56.84""",간척호습지
1847,옥적1습지,전라남도 여수시 화양면 옥적리,"N34°42’19.66""","E127°34’14.74""",간척호습지
1848,차우리습지,전라남도 완도군 금당면 차우리,"N34°25’14.56""","E127°03’44.04""",하도습지
1849,오룡습지,전라남도 고흥군 금산면 신평리,"N34°28’45.17""","E127°12’57.49""",소택지
1850,석정리습지,전라남도 고흥군 금산면 석정리,"N34°28’19.62""","E127°08’23.83""",논
1851,신평습지(고흥),전라남도 고흥군 금산면 신평리,"N34°29’13.48""","E127°10’27.57""",논
1852,금일습지,전라남도 완도군 금일읍 월송리,"N34°20’00.76""","E127°03’27.90""",소택지
1853,척치리습지,전라남도 완도군 금일읍 척치리,"N34°21’53.11""","E127°01’40.67""",논
1854,월송습지(완도),전라남도 완도군 금일읍 사동리,"N34°20’13.74""","E127°04’03.75""",논
1855,작은마을습지,전라남도 고흥군 도화면 구암리,"N34°28’13.17""","E127°19’15.22""",간척호습지
1856,신금습지,전라남도 고흥군 봉래면 신금리,"N34°28’01.45""","E127°27’42.29""",소택지
1857,동광제습지,전라남도 고흥군 봉래면 신금리,"N34°27’25.97""","E127°28’00.46""",담수호습지
1858,실안습지,경상남도 사천시 용현면 주문리,"N34°57’15.63""","E128°02’57.36""",소택지
1859,석지천습지,경상남도 고성군 하이면 덕호리,"N34°55’19.78""","E128°07’06.98""",하도습지
1860,가인습지,경상남도 남해군 창선면 가인리,"N34°52’50.65""","E128°02’53.17""",간척호습지
1861,학림습지,경상남도 고성군 하일면 학림리,"N34°56’32.47""","E128°12’23.64""",소택지
1862,봉현천습지,경상남도 고성군 하이면 석지리,"N34°56’44.30""","E128°07’32.43""",하도습지
1863,상죽습지,경상남도 남해군 창선면 상죽리,"N34°51’51.20""","E128°00’55.01""",간척호습지
1864,수산습지,경상남도 남해군 창선면 수산리,"N34°51’48.02""","E128°01’22.27""",간척호습지
1865,동천저수지습지,경상남도 남해군 삼동면 동천리,"N34°48’19.45""","E128°02’42.21""",담수호습지
1866,미룡습지,경상남도 고성군 삼산면 미룡리,"N34°56’32.44""","E128°15’33.41""",소택지
1867,법송습지,경상남도 통영시 도산면 법송리,"N34°53’42.73""","E128°22’22.14""",간척호습지
1868,원평습지,경상남도 통영시 용남면 원평리,"N34°53’03.93""","E128°27’17.61""",간척호습지
1869,신전습지(통영),경상남도 통영시 산양읍 신전리,"N34°46’34.40""","E128°24’33.21""",소택지
1870,동달습지,경상남도 통영시 용남면 동달리,"N34°52’00.20""","E128°26’47.20""",간척호습지
1871,덕곡습지,경상남도 거제시 하청면 덕곡리,"N34°57’12.96""","E128°37’21.30""",담수호습지
1872,대금습지,경상남도 거제시 장목면 시방리,"N34°57’37.43""","E128°42’15.12""",담수호습지
1873,산촌습지,경상남도 거제시 동부면 산촌리,"N34°49’51.07""","E128°35’35.20""",간척호습지
1874,소동습지,경상남도 거제시 일운면 소동리,"N34°50’30.29""","E128°41’01.73""",소택지
1875,구천천습지,경상남도 거제시 동부면 구천리,"N34°48’47.06""","E128°38’03.02""",하도습지
1876,신시도2습지,전라북도 군산시 옥도면 신시도리,"N35°49’11.11""","E126°27’48.56""",인공호습지
1877,당북리습지,전라북도 군산시 옥산면 당북리,"N35°56’26.03""","E126°42’44.71""",소택지
1878,백석제습지,전라북도 군산시 옥산면 당북리,"N35°56’05.65""","E126°43’00.74""",인공호습지
1879,부용저수지습지,전라북도 김제시 백구면 월봉리,"N35°52’50.45""","E126°56’57.99""",인공호습지
1880,호미지습지,전라북도 김제시 용지면 효정리,"N35°49’29.50""","E126°57’08.70""",인공호습지
1881,동호습지,전라북도 고창군 해리면 동호리,"N35°30’33.96""","E126°28’45.47""",사구습지
1882,해창습지,전라북도 부안군 변산면 대항리,"N35°41’10.73""","E126°34’10.58""",하도습지
1883,월포습지(부안),전라북도 부안군 하서면 장신리,"N36°12’28.28""","E129°21’10.65""",간척호습지
1884,심성제습지,전라북도 부안군 동진면 내기리,"N35°44’54.89""","E126°44’33.46""",담수호습지
1885,쌍구제습지,전라북도 부안군 동진면 내기리,"N35°44’37.64""","E126°44’51.04""",담수호습지
1886,건선제습지,전라북도 부안군 부안읍 연곡리,"N35°42’10.03""","E126°44’11.10""",담수호습지
1887,부제습지,전라북도 부안군 부안읍 신흥리,"N35°42’02.35""","E126°43’56.14""",담수호습지
1888,사산저수지습지,전라북도 부안군 주산면 사산리,"N35°39’39.70""","E126°40’53.95""",담수호습지
1889,신당제습지,전라북도 부안군 주산면 소주리,"N35°40’04.78""","E126°43’21.31""",담수호습지
1890,설성제습지,전라북도 부안군 주산면 돈계리,"N35°40’23.95""","E126°42’17.98""",담수호습지
1891,연지제습지,전라북도 부안군 주산면 사산리,"N35°39’42.96""","E126°42’09.14""",담수호습지
1892,연화동습지,전라북도 고창군 심원면 연화리,"N35°30’20.93""","E126°33’20.11""",저습지
1893,선운습지,전라북도 고창군 부안면 선운리,"N35°32’19.94""","E126°37’09.70""",저습지
1894,주진천하구습지,전라북도 고창군 심원면 용기리,"N35°30’49.12""","E126°35’46.83""",하구갯벌습지
1895,해리천하구습지,전라북도 고창군 해리면 금평리,"N35°30’35.25""","E126°30’09.89""",하구갯벌습지
1896,연화제습지,전라북도 고창군 심원면 연화리,"N35°30’38.75""","E126°33’06.56""",담수호습지
1897,수강산습지,전라북도 고창군 부안면 검산리,"N35°31’46.78""","E126°37’52.02""",저층습원
1898,갈곡천하구습지,전라북도 고창군 부안면 수앙리,"N35°33’11.91""","E126°40’06.18""",하구갯벌습지
1899,구형제습지,전라북도 고창군 성내면 옥제리,"N35°31’30.65""","E126°43’58.90""",담수호습지
1900,동림저수지습지,전라북도 고창군 성내면 신성리,"N35°32’41.38""","E126°43’22.77""",담수호습지
1901,생근제습지,전라북도 고창군 성내면 덕산리,"N35°33’58.84""","E126°44’19.20""",담수호습지
1902,시근제습지,전라북도 고창군 흥덕면 치룡리,"N35°32’01.87""","E126°42’22.55""",담수호습지
1903,상암저수지습지,전라북도 고창군 부안면 상암리,"N35°33’32.96""","E126°38’05.88""",담수호습지
1904,목우습지,전라북도 부안군 줄포면 우포리,"N35°34’14.28""","E126°40’30.34""",간척호습지
1905,선양제습지,전라북도 부안군 줄포면 우포리,"N35°34’28.91""","E126°40’26.26""",담수호습지
1906,연정제습지,전라북도 부안군 줄포면 장동리,"N35°36’03.75""","E126°41’59.81""",담수호습지
1907,월평제습지,전라북도 부안군 줄포면 파산리,"N35°36’15.81""","E126°42’30.56""",담수호습지
1908,영전저수지습지,전라북도 부안군 보안면 유천리,"N35°36’24.92""","E126°39’54.61""",담수호습지
1909,신창천하구습지,전라북도 부안군 보안면 유천리,"N35°35’32.64""","E126°39’26.84""",간척호습지
1910,부안자연생태공원,전라북도 부안군 줄포면 우포리,"N35°34’44.44""","E126°40’05.27""",생태수변공원
1911,만석습지,전라북도 정읍시 신태인읍 신용리,"N35°40’34.53""","E126°51’44.90""",하도습지
1912,오산습지(정읍),전라북도 정읍시 이평면 오금리,"N36°54’38.90""","E129°24’23.53""",하도습지
1913,야리습지,전라북도 정읍시 덕천면 달천리,"N35°38’37.64""","E126°51’44.43""",하도습지
1914,대산습지(정읍),전라북도 정읍시 정우면 대산리,"N35°37’39.93""","E126°51’46.51""",하도습지
1915,육리저수지습지,전라북도 정읍시 신태인읍 육리,"N35°42’58.09""","E126°52’00.95""",담수호습지
1916,내이습지,전라북도 정읍시 태인면 낙양리,"N35°40’05.69""","E126°54’53.46""",하도습지
1917,과목장습지,전라북도 정읍시 정우면 대사리,"N35°40’25.71""","E126°54’15.21""",하도습지
1918,가곡습지(정읍),전라북도 정읍시 북면 남산리,"N35°36’48.66""","E126°51’24.67""",하도습지
1919,신정습지(정읍),전라북도 정읍시 덕천면 우덕리,"N35°36’18.78""","E126°50’38.48""",하도습지
1920,용대저수지습지,전라북도 고창군 상하면 하장리,"N35°25’33.59""","E126°28’53.24""",담수호습지
1921,자룡천하구습지,전라북도 고창군 상하면 자룡리,"N35°25’37.76""","E126°27’09.42""",담수호습지
1922,섬포제습지,전라북도 고창군 상하면 용정리,"N35°26’56.07""","E126°27’12.01""",담수호습지
1923,석남제습지,전라북도 고창군 상하면 석남리,"N35°26’36.03""","E126°28’01.26""",담수호습지
1924,라성리습지,전라북도 고창군 상하면 장호리,"N35°28’54.77""","E126°28’06.88""",간척호습지
1925,하부습지,전라북도 고창군 해리면 광승리,"N35°29’32.64""","E126°28’07.49""",사구습지
1926,나성저수지습지,전라북도 고창군 해리면 사반리,"N35°28’48.20""","E126°29’00.64""",담수호습지
1927,와탄천습지,전라남도 영광군 영광읍 덕호리,"N35°19’38.36""","E126°28’50.52""",하도습지
1928,구암천습지,전라남도 영광군 법성면 진내리,"N35°22’29.26""","E126°26’35.59""",하구염습지
1929,칠곡제습지,전라남도 영광군 홍농읍 상하리,"N35°23’04.86""","E126°25’54.66""",담수호습지
1930,칠성제습지,전라남도 영광군 영광읍 덕호리,"N35°18’56.65""","E126°28’13.34""",담수호습지
1931,남동제습지,전라남도 영광군 군서면 남죽리,"N35°15’26.3""","E126°29’08.8""",담수호습지
1932,신흥제습지,전라남도 영광군 영광읍 신월리,"N35°19’00.45""","E126°29’29.88""",담수호습지
1933,장사골습지,전라북도 고창군 공음면 두암리,"N35°26’00.89""","E126°30’46.12""",저층습원
1934,학전제습지,전라북도 고창군 아산면 학전리,"N35°26’58.57""","E126°36’07.14""",담수호습지
1935,궁산제습지,전라북도 고창군 해리면 왕촌리,"N35°28’56.61""","E126°31’35.62""",담수호습지
1936,고라제습지,전라북도 고창군 무장면 고라리,"N35°24’33.00""","E126°34’07.88""",담수호습지
1937,옥산저수지습지(고창),전라북도 고창군 무장면 옥산리,"N35°24’06.97""","E126°35’10.31""",담수호습지
1938,고창 운곡습지,전라북도 고창군 아산면 용계리,"N35°27’59.73""","E126°38’40.47""",저층습원
1939,고창고인돌습지,전라북도 고창군 고창읍 죽림리,"N35°27’03.65""","E126°38’55.99""",저층습원
1940,비약골습지,전라북도 고창군 고창읍 화산리,"N35°24’20.23""","E126°42’07.65""",저층습원
1941,와촌리습지,전라북도 고창군 고수면 상평리,"N35°23’56.05""","E126°42’04.99""",소택지
1942,노동제습지,전라북도 고창군 고창읍 노동리,"N35°25’12.47""","E126°42’24.48""",담수호습지
1943,성산제습지,전라북도 고창군 고수면 와촌리,"N35°24’24.59""","E126°41’18.89""",담수호습지
1944,내동제습지,전라북도 고창군 고창읍 덕산리,"N35°25’17.65""","E126°41’26.03""",담수호습지
1945,연당제습지,전라북도 고창군 고수면 초내리,"N35°22’57.24""","E126°39’54.72""",담수호습지
1946,문덕재습지,전라남도 영광군 영광읍 학정리,"N35°16’07.76""","E126°31’41.07""",저층습원
1947,중산리습지,전라북도 고창군 대산면 중산리,"N35°22’07.83""","E126°35’46.86""",저층습원
1948,양지제습지,전라북도 고창군 대산면 해룡리,"N35°19’20.24""","E126°32’33.40""",담수호습지
1949,장자제습지,전라북도 고창군 대산면 연동리,"N35°19’49.83""","E126°32’27.58""",담수호습지
1950,성학제습지,전라북도 고창군 대산면 율촌리,"N35°19’57.93""","E126°33’44.62""",담수호습지
1951,주교제습지(영광),전라남도 영광군 대마면 홍교리,"N35°19’34.43""","E126°35’21.72""",담수호습지
1952,산정저수지,전라북도 고창군 대산면 산정리,"N35°20’24.8""","E126°34’53.9""",담수호습지
1953,칠암제습지,전라북도 고창군 공음면 칠암리,"N35°22’19.32""","E126°31’08.53""",담수호습지
1954,내계리습지,전라남도 장성군 삼계면 내계리,"N35°16’38.47""","E126°39’45.25""",소택지
1955,팔암산습지,전라남도 장성군 삼계면 덕산리,"N35°17’26.91""","E126°40’05.73""",저층습원
1956,운화산습지,전라남도 장성군 서삼면 용흥리,"N35°19’37.79""","E126°44’38.21""",저층습원
1957,무송리습지,전라북도 고창군 성송면 무송리,"N35°20’40.59""","E126°38’25.40""",저습지
1958,봉남보습지,전라남도 장성군 황룡면 황룡리,"N35°15’34.25""","E126°44’39.11""",하도습지
1959,평림댐인공습지,전라남도 장성군 삼계면 수산리,"N35°18’21.09""","E126°40’07.25""",수질정화습지
1960,삼봉끝습지,전라남도 신안군 임자면 도찬리,"N35°08’37.85""","E126°09’24.21""",간척호습지
1961,대기리습지,전라남도 신안군 임자면 진리,"N35°05’25.17""","E126°06’36.54""",간척호습지
1962,내양리습지,전라남도 신안군 지도읍 내양리,"N35°05’33.57""","E126°13’41.95""",인공수로습지
1963,당촌리습지,전라남도 신안군 지도읍 당촌리,"N35°02’14.59""","E126°09’12.97""",간척호습지
1964,서동제습지,전라남도 신안군 지도읍 봉리,"N35°06’23.18""","E126°11’24.67""",담수호습지
1965,지도해제습지,전라남도 신안군 지도읍 자동리,"N35°03’30.46""","E126°15’51.16""",간척호습지
1966,불갑천하구습지,전라남도 영광군 백수읍 상사리,"N35°15’33.09""","E126°23’16.09""",하구갯벌습지
1967,봉양제습지,전라남도 영광군 염산면 봉남리,"N35°13’00.39""","E126°21’55.90""",담수호습지
1968,구내제습지,전라남도 영광군 염산면 봉남리,"N35°13’21.59""","E126°21’10.86""",담수호습지
1969,가음습지,전라남도 영광군 염산면 봉남리,"N35°13’07.02""","E126°20’19.36""",간척호습지
1970,매봉산습지(영광),전라남도 영광군 불갑면 우곡리,"N35°11’57.80""","E126°28’26.16""",저습지
1971,보여리습지,전라남도 함평군 신광면 보여리,"N35°11’12.06""","E126°28’07.19""",저층습원
1972,송림습지,전라남도 영광군 군남면 대덕리,"N35°11’28.16""","E126°28’06.92""",저층습원
1973,대덕리습지,전라남도 영광군 군남면 대덕리,"N35°13’25.15""","E126°27’27.38""",소택지
1974,용암골습지,전라남도 영광군 군남면 용암리,"N35°11’01.51""","E126°26’45.88""",저습지
1975,수정동습지,전라남도 함평군 신광면 송사리,"N35°09’50.20""","E126°27’02.38""",저습지
1976,홍림고개습지,전라남도 함평군 손불면 월천리,"N35°09’05.56""","E126°25’28.29""",저층습원
1977,녹동습지,전라남도 영광군 불갑면 생곡리,"N35°12’55.90""","E126°28’59.54""",저층습원
1978,모자재습지,전라남도 영광군 염산면 오동리,"N35°11’00.42""","E126°23’52.98""",저습지
1979,복암습지,전라남도 함평군 손불면 동암리,"N35°08’43.27""","E126°27’32.53""",저층습원
1980,명도제습지,전라남도 영광군 염산면 상계리,"N35°13’27.65""","E126°23’49.26""",담수호습지
1981,봉덕제습지,전라남도 영광군 염산면 상계리,"N35°13’44.88""","E126°23’29.47""",담수호습지
1982,설도안강제습지,전라남도 영광군 염산면 오동리,"N35°12’49.61""","E126°23’00.76""",담수호습지
1983,용암제습지,전라남도 영광군 군남면 용암리,"N35°11’34.89""","E126°26’25.16""",담수호습지
1984,월천호습지,전라남도 함평군 손불면 월천리,"N35°07’56.19""","E126°24’31.85""",간척호습지
1985,산남제습지,전라남도 함평군 손불면 산남리,"N35°07’51.52""","E126°26’07.37""",담수호습지
1986,용학리습지,전라남도 무안군 해제면 천장리,"N35°05’27.94""","E126°17’59.99""",간척호습지
1987,가입습지,전라남도 무안군 현경면 가입리,"N35°05’37.99""","E126°20’56.89""",담수호습지
1988,대광습지(신안),전라남도 신안군 임자면 광산리,"N35°05’45.0""","E126°04’27.2""",사구습지
1989,중봉습지,전라남도 함평군 함평읍 대덕리,"N35°04’47.49""","E126°29’50.64""",저층습원
1990,감방산습지,전라남도 무안군 현경면 해운리,"N35°02’25.60""","E126°27’33.43""",저층습원
1991,목교제습지,전라남도 함평군 손불면 궁산리,"N35°06’24.50""","E126°28’30.97""",담수호습지
1992,자명제습지,전라남도 함평군 함평읍 옥산리,"N35°04’11.48""","E126°29’11.97""",담수호습지
1993,신촌제습지,전라남도 무안군 망운면 목동리,"N35°00’51.34""","E126°24’31.30""",담수호습지
1994,약곡저수지습지,전라남도 무안군 무안읍 용월리,"N35°01’05.37""","E126°28’47.88""",담수호습지
1995,예덕리습지,전라남도 함평군 월야면 예덕리,"N35°13’48.46""","E126°36’26.56""",저층습원
1996,구수동습지,전라남도 함평군 해보면 금계리,"N35°10’49.91""","E126°33’38.97""",저습지
1997,월암산습지,전라남도 영광군 묘량면 월암리,"N35°13’47.76""","E126°34’33.72""",소택지
1998,사창제습지,전라남도 함평군 해보면 대창리,"N35°09’12.99""","E126°36’22.15""",담수호습지
1999,초포제습지,전라남도 함평군 나산면 초포리,"N35°08’19.33""","E126°36’30.95""",담수호습지
2000,고두제습지,전라남도 함평군 해보면 금덕리,"N35°11’00.57""","E126°36’14.85""",담수호습지
2001,문암제습지,전라남도 함평군 해보면 문장리,"N35°11’20.39""","E126°36’38.34""",담수호습지
2002,송산제습지(함평),전라남도 함평군 해보면 산내리,"N35°09’47.03""","E126°33’48.99""",담수호습지
2003,불갑사저수지습지,전라남도 영광군 불갑면 금계리,"N35°14’02.89""","E126°31’48.88""",담수호습지
2004,원당습지(광주),전라남도 장성군 동화면 송계리,"N35°12’18.29""","E126°43’04.91""",저층습원
2005,감도산습지,전라남도 함평군 월야면 외치리,"N35°10’34.28""","E126°41’31.71""",저습지
2006,사한산습지,전라남도 함평군 나산면 수상리,"N35°08’57.23""","E126°40’42.57""",저층습원
2007,구룡리습지,전라남도 장성군 동화면 구룡리,"N35°14’02.10""","E126°42’30.17""",저층습원
2008,왕동저수지습지,전라남도 장성군 동화면 송계리,"N35°11’54.84""","E126°42’50.09""",담수호습지
2009,방축제습지(함평),전라남도 함평군 월야면 용월리,"N35°09’55.06""","E126°37’37.76""",담수호습지
2010,장성죽산제습지,전라남도 장성군 삼서면 금산리,"N35°12’20.62""","E126°39’16.94""",담수호습지
2011,평동저수지습지,전라남도 나주시 노안면 계림리,"N35°07’47.02""","E126°43’51.48""",담수호습지
2012,북동리습지,전라남도 나주시 문평면 북동리,"N35°05’22.90""","E126°36’16.71""",저층습원
2013,덕림습지,전라남도 함평군 나산면 덕림리,"N35°06’40.00""","E126°35’21.05""",저층습원
2014,죽정습지,전라남도 함평군 학교면 죽정리,"N35°01’37.62""","E126°33’43.36""",저층습원
2015,복천리습지,전라남도 함평군 학교면 복천리,"N35°02’45.23""","E126°35’15.00""",우각호습지
2016,송촌수질정화습지,전라남도 나주시 다시면 송촌리,"N35°01’59.16""","E126°35’43.40""",수질정화습지
2017,반곡제습지,전라남도 함평군 학교면 금송리,"N35°00’20.42""","E126°34’17.77""",담수호습지
2018,나주백운습지,전라남도 나주시 다시면 신광리,"N35°02’48.23""","E126°40’04.94""",저층습원
2019,월곡습지,전라남도 나주시 노안면 계림리,"N35°07’07.29""","E126°42’43.57""",저층습원
2020,용곡동습지,전라남도 나주시 노안면 유곡리,"N35°07’09.96""","E126°44’18.32""",저층습원
2021,유곡리습지,전라남도 나주시 노안면 유곡리,"N35°05’58.21""","E126°44’15.29""",저층습원
2022,연계제습지,전라남도 나주시 노안면 유곡리,"N35°06’41.33""","E126°43’52.78""",담수호습지
2023,복암제습지,전라남도 나주시 노안면 유곡리,"N35°05’37.34""","E126°44’41.05""",담수호습지
2024,하치제습지,전라남도 나주시 노안면 유곡리,"N35°05’18.52""","E126°43’51.19""",담수호습지
2025,산여울습지,전라남도 화순군 도곡면 덕곡리,"N35°00’09.92""","E126°53’21.11""",하도습지
2026,와룡교습지,전라북도 진안군 주천면 신양리,"N35°57’34.86""","E127°26’39.15""",하도습지
2027,용담호습지,전라북도 진안군 안천면 삼락리,"N35°56’20.95""","E127°31’30.63""",인공호습지
2028,대동마을습지,전라북도 진안군 부귀면 수항리,"N35°50’12.14""","E127°23’39.54""",하도습지
2029,석정마을습지,전라북도 진안군 부귀면 두남리,"N35°51’08.50""","E127°25’43.25""",하도습지
2030,원월평습지,전라북도 진안군 정천면 월평리,"N35°51’05.92""","E127°26’32.96""",하도습지
2031,원주평습지,전라북도 진안군 상전면 갈현리,"N35°49’22.10""","E127°28’24.69""",하도습지
2032,운산리소류지습지,전라북도 진안군 진안읍 운산리,"N35°48’53.64""","E127°26’30.67""",인공호습지
2033,대소교습지,전라북도 무주군 부남면 대소리,"N35°58’39.71""","E127°33’26.97""",하도습지
2034,대티교습지,전라북도 무주군 부남면 대유리,"N35°59’34.52""","E127°34’30.55""",하도습지
2035,상굴교습지,전라북도 무주군 부남면 굴암리,"N35°59’31.76""","E127°35’01.72""",하도습지
2036,상굴암습지,전라북도 무주군 부남면 굴암리,"N35°59’16.71""","E127°35’37.36""",하도습지
2037,용포교습지,전라북도 무주군 무주읍 용포리,"N35°59’13.56""","E127°36’41.99""",하도습지
2038,잠두1교습지,전라북도 무주군 무주읍 용포리,"N35°59’42.75""","E127°36’24.81""",하도습지
2039,한반도닮은하천내습지,전라북도 무주군 부남면 굴암리,"N35°59’18.81""","E127°34’03.49""",하도습지
2040,무주교습지,전라북도 무주군 무주읍 당산리,"N36°00’05.97""","E127°38’54.00""",하도습지
2041,주막촌습지,전라북도 무주군 무주읍 가옥리,"N35°58’43.76""","E127°38’54.29""",하도습지
2042,무주호습지,전라북도 무주군 적상면 포내리,"N35°57’47.35""","E127°42’43.35""",인공호습지
2043,대들마을습지,전라북도 진안군 동향면 자산리,"N35°49’45.90""","E127°33’03.46""",하도습지
2044,대야마을습지,전라북도 진안군 동향면 자산리,"N35°49’49.70""","E127°33’41.14""",하도습지
2045,불선동습지,전라북도 장수군 천천면 오봉리,"N35°46’13.02""","E127°32’29.78""",하도습지
2046,섬티교습지,전라북도 진안군 동향면 성산리,"N35°49’07.64""","E127°32’17.44""",하도습지
2047,죽도습지,전라북도 진안군 동향면 성산리,"N35°48’57.49""","E127°31’30.42""",하도습지
2048,칠보습지,전라북도 정읍시 칠보면 시산리,"N35°35’56.92""","E127°00’19.76""",하도습지
2049,능다리습지,전라북도 정읍시 산내면 능교리,"N35°34’00.14""","E127°01’34.45""",하도습지
2050,옥정호 옥정습지,전라북도 임실군 강진면 옥정리,"N35°32’41.66""","E127°05’57.87""",담수호습지
2051,칼보습지,전라북도 임실군 강진면 용수리,"N35°31’05.94""","E127°07’14.46""",하도습지
2052,임실강진습지,전라북도 임실군 덕치면 회문리,"N35°31’21.98""","E127°08’56.61""",하도습지
2053,까치덤습지,전라북도 임실군 신평면 용암리,"N35°37’28.50""","E127°11’58.01""",우각호습지
2054,옥정호 선거습지,전라북도 임실군 운암면 학암리,"N35°36’31.87""","E127°11’30.30""",담수호습지
2055,양화교습지,전라북도 진안군 성수면 좌포리,"N35°44’08.39""","E127°18’25.62""",하도습지
2056,화암제습지,전라북도 진안군 백운면 신암리,"N35°38’26.97""","E127°26’46.99""",인공호습지
2057,오수리습지,전라북도 임실군 오수면 신기리,"N35°30’41.20""","E127°19’34.75""",하도습지
2058,해곡마을습지,전라북도 임실군 삼계면 삼계리,"N35°30’02.05""","E127°17’00.99""",인공호습지
2059,반월마을습지,전라북도 장수군 천천면 월곡리,"N35°41’37.50""","E127°31’15.71""",하도습지
2060,방아재습지,전라북도 장수군 계남면 침곡리,"N35°44’11.10""","E127°34’26.50""",하도습지
2061,봄골마을습지,전라북도 장수군 천천면 춘송리,"N35°43’53.57""","E127°32’08.81""",하도습지
2062,송천교습지,전라북도 장수군 장수읍 송천리,"N35°38’29.53""","E127°30’49.19""",하도습지
2063,양명동습지,전라북도 장수군 천천면 춘송리,"N35°44’07.20""","E127°32’09.74""",하도습지
2064,운곡마을습지,전라북도 장수군 천천면 삼고리,"N35°43’29.75""","E127°31’55.98""",하도습지
2065,천천교습지,전라북도 장수군 천천면 용광리,"N35°45’13.93""","E127°32’29.99""",하도습지
2066,칠곡교습지,전라북도 장수군 장계면 장계리,"N35°43’45.79""","E127°34’51.13""",하도습지
2067,화음교습지,전라북도 장수군 계남면 신전리,"N35°41’50.90""","E127°34’40.09""",하도습지
2068,벽남제습지,전라북도 장수군 계남면 궁양리,"N35°41’02.60""","E127°35’04.62""",인공호습지
2069,오동제습지,전라북도 장수군 장계면 대곡리,"N35°41’47.20""","E127°37’30.97""",인공호습지
2070,상남습지,경상남도 함양군 서상면 상남리,"N35°43’33.12""","E127°40’52.87""",하도습지
2071,송계교습지,경상남도 함양군 서하면 송계리,"N35°38’59.64""","E127°41’29.53""",하도습지
2072,중남습지,경상남도 함양군 서상면 중남리,"N35°41’24.69""","E127°41’15.41""",하도습지
2073,함양하수종말처리장습지,경상남도 함양군 함양읍 이은리,"N35°30’33.16""","E127°44’39.19""",하도습지
2074,물우리습지,전라북도 임실군 덕치면 물우리,"N35°29’32.33""","E127°09’18.48""",하도습지
2075,내월습지,전라북도 순창군 적성면 내월리,"N35°25’22.98""","E127°13’17.31""",하도습지
2076,창주습지,전라북도 순창군 동계면 서호리,"N35°26’13.85""","E127°14’22.60""",하도습지
2077,천담습지,전라북도 임실군 덕치면 천담리,"N35°29’12.02""","E127°11’38.96""",하도습지
2078,무수리습지,전라북도 순창군 유등면 무수리,"N35°23’33.16""","E127°12’10.33""",하도습지
2079,제월리습지,전라북도 남원시 대강면 사석리,"N35°23’33.16""","E127°12’10.33""",하도습지
2080,사정습지(순창),전라북도 순창군 순창읍 남계리,"N35°20’07.43""","E127°13’33.56""",하도습지
2081,주산습지(곡성),전라남도 곡성군 옥과면 수리,"N35°22’04.31""","E127°08’42.34""",하도습지
2082,대가습지,전라북도 남원시 대강면 월탄리,"N35°17’56.54""","E127°08’58.47""",하도습지
2083,외이습지,전라북도 순창군 유등면 외이리,"N35°20’35.31""","E127°11’24.88""",하도습지
2084,송전습지,전라남도 곡성군 입면 송전리,"N35°21’36.71""","E127°11’38.80""",하도습지
2085,군촌습지,전라남도 곡성군 입면 제월리,"N35°19’15.66""","E127°11’30.30""",하도습지
2086,산수교습지,전라북도 임실군 삼계면 산수리,"N35°28’38.11""","E127°16’52.35""",하도습지
2087,어목리습지,전라북도 임실군 삼계면 산수리,"N35°29’50.83""","E127°17’05.09""",하도습지
2088,주월교습지,전라북도 순창군 동계면 주월리,"N35°27’23.52""","E127°16’19.48""",하도습지
2089,지당리습지,전라북도 남원시 주생면 지당리,"N35°22’48.58""","E127°20’19.43""",하도습지
2090,후천리습지,전라북도 순창군 동계면 수정리,"N35°28’25.67""","E127°16’30.52""",하도습지
2091,고소암취입보습지,전라북도 남원시 산동면 식련리,"N35°28’44.28""","E127°27’38.14""",하도습지
2092,남원대교습지,전라북도 남원시 주천면 용담리,"N35°24’37.09""","E127°23’37.55""",하도습지
2093,등구교습지,전라북도 남원시 산동면 대기리,"N35°29’39.32""","E127°29’38.33""",하도습지
2094,요천교습지,전라북도 남원시 이백면 척문리,"N35°25’58.31""","E127°25’06.78""",하도습지
2095,요천습지,전라북도 남원시 이백면 척문리,"N35°25’43.21""","E127°24’57.48""",하도습지
2096,유파취입보습지,전라북도 남원시 산동면 대기리,"N35°29’24.03""","E127°29’13.82""",하도습지
2097,이백교습지,전라북도 남원시 이백면 척문리,"N35°25’10.77""","E127°24’29.96""",하도습지
2098,금곡습지(곡성),전라남도 곡성군 곡성읍 신기리,"N35°18’44.23""","E127°17’32.54""",하도습지
2099,신촌습지(남원),전라북도 남원시 금지면 창산리,"N35°20’22.02""","E127°18’16.42""",하도습지
2100,옹정습지,전라북도 남원시 주생면 제천리,"N35°21’55.10""","E127°18’49.21""",하도습지
2101,용전습지(남원),전라북도 남원시 송동면 세전리,"N35°18’22.66""","E127°18’55.63""",하도습지
2102,장서리습지,전라북도 남원시 금지면 귀석리,"N35°18’17.36""","E127°18’19.69""",하도습지
2103,침실습지,전라남도 곡성군 곡성읍 신리,"N35°16’10.52""","E127°19’51.32""",하도습지
2104,현터습지,전라북도 남원시 송동면 양평리,"N35°19’46.87""","E127°18’29.99""",하도습지
2105,호곡습지,전라남도 곡성군 오곡면 침곡리,"N35°15’52.93""","E127°20’47.56""",하도습지
2106,고치습지,전라남도 곡성군 죽곡면 고치리,"N35°19’11.35""","E127°13’01.77""",하도습지
2107,비봉습지,전라남도 곡성군 죽곡면 유봉리,"N35°10’25.00""","E127°20’52.89""",하도습지
2108,태평습지,전라남도 곡성군 죽곡면 태평리,"N35°09’35.00""","E127°20’20.76""",하도습지
2109,삼태습지,전라남도 곡성군 목사동면 평리,"N35°08’57.49""","E127°19’35.95""",하도습지
2110,석곡습지,전라남도 곡성군 목사동면 공북리,"N35°08’00.57""","E127°17’23.98""",하도습지
2111,용정습지,전라남도 곡성군 죽곡면 용정리,"N35°07’53.71""","E127°15’59.20""",하도습지
2112,사림습지,전라남도 구례군 광의면 지천리,"N35°10’44.03""","E127°21’50.00""",하도습지
2113,비촌습지,전라남도 순천시 황전면 비촌리,"N35°13’32.63""","E127°27’25.43""",하도습지
2114,용강습지,전라남도 구례군 광의면 대산리,"N35°10’53.44""","E127°25’47.23""",하도습지
2115,월전습지,전라남도 구례군 토지면 용두리,"N35°14’08.81""","E127°27’00.25""",하도습지
2116,화평습지,전라남도 순천시 주암면 궁각리,"N35°11’35.79""","E127°30’18.10""",하도습지
2117,우봉골습지,경상북도 청도군 금천면 소천리,"N35°44’41.64""","E128°53’29.99""",논
2118,구촌리습지,경상북도 청도군 매전면 구촌리,"N35°35’21.09""","E128°48’04.78""",배후습지
2119,고답습지,경상남도 밀양시 상동면 고정리,"N35°33’50.86""","E128°47’56.64""",담수호습지
2120,양송정소류지습지,경상남도 밀양시 산내면 송백리,"N35°34’50.34""","E128°53’13.06""",담수호습지
2121,밀양강금시당습지,경상남도 밀양시 산외면 금천리,"N35°29’18.11""","E128°47’00.81""",하도습지
2122,오우진나루습지,경상남도 밀양시 상남면 외산리,"N35°22’59.34""","E128°48’24.34""",배후습지
2123,무릉리습지,경상남도 밀양시 단장면 무릉리,"N35°29’17.30""","E128°53’24.05""",인공호습지
2124,둔치도습지,경상남도 김해시 주촌면 농소리,"N35°09’05.98""","E128°53’44.01""",논
2125,동선지습지,경상남도 거제시 장목면 유호리,"N35°02’40.99""","E128°50’13.26""",담수호습지
2126,장항지습지,경상남도 거제시 장목면 유호리,"N35°02’48.62""","E128°49’53.25""",담수호습지
2127,죽도염습지,경상남도 거제시 장목면 유호리,"N35°03’16.07""","E128°50’16.30""",하구갯벌습지
2128,오야리습지,경상북도 경주시 안강읍 사방리,"N35°56’46.63""","E129°14’16.38""",하도습지
2129,칠평천습지,경상북도 경주시 안강읍 산대리,"N35°59’22.79""","E129°12’35.42""",하도습지
2130,오금습지,경상북도 경주시 강동면 오금리,"N35°59’15.26""","E129°15’21.06""",하도습지
2131,사방리습지,경상북도 경주시 안강읍 사방리,"N35°55’58.21""","E129°13’58.74""",하도습지
2132,나원동산습지,경상북도 경주시 현곡면 라원리,"N35°53’57.78""","E129°13’36.79""",인공호습지
2133,황성동습지,경상북도 경주시 현곡면 라원리,"N35°53’12.18""","E129°13’12.83""",하도습지
2134,소현천습지,경상북도 경주시 현곡면 오류리,"N35°53’01.00""","E129°11’23.80""",하도습지
2135,사박골습지,경상북도 경주시 안강읍 두류리,"N35°58’16.28""","E129°10’07.20""",하도습지
2136,용장습지(경주),경상북도 경주시 내남면 용장리,"N35°46’26.02""","E129°12’00.07""",하도습지
2137,사정습지(경주),경상북도 경주시 현곡면 금장리,"N35°22’04.31""","E127°08’42.34""",하도습지
2138,성건습지,경상북도 경주시 현곡면 금장리,"N35°51’12.29""","E129°12’02.37""",하도습지
2139,성동습지,경상북도 경주시 현곡면 금장리,"N35°50’48.60""","E129°13’30.29""",하도습지
2140,인왕동습지,경상북도 경주시 내남면 용장리,"N35°49’27.58""","E129°13’41.90""",하도습지
2141,대천습지(경주),경상북도 경주시 건천읍 모량리,"N35°49’13.56""","E129°09’46.85""",하도습지
2142,배동습지,경상북도 경주시 내남면 망성리,"N35°47’31.75""","E129°12’01.81""",하도습지
2143,국당습지,경상북도 경주시 강동면 유금리,"N35°59’15.51""","E129°17’01.94""",하도습지
2144,조박지저수지,경상북도 포항시 남구 연일읍 인주리,"N35°58’52.60""","E129°20’59.47""",인공호습지
2145,못산못,경상북도 포항시 남구 대송면 송동리,"N35°58’26.61""","E129°22’01.97""",인공호습지
2146,토함산목장못,경상북도 경주시 양북면 장항리,"N35°45’26.99""","E129°21’21.35""",저층습원
2147,숲머리습지,경상북도 경주시 천북면 물천리,"N35°50’48.07""","E129°15’24.95""",하도습지
2148,조양습지,경상북도 경주시 외동읍 방어리,"N35°46’22.15""","E129°16’32.65""",하도습지
2149,괘릉,경상북도 경주시 외동읍 활성리,"N35°45’30.97""","E129°19’13.90""",하도습지
2150,보문습지,경상북도 경주시 천북면 물천리,"N35°50’11.55""","E129°16’42.35""",담수호습지
2151,대재지,경상북도 경주시 외동읍 방어리,"N35°46’30.11""","E129°17’23.63""",인공호습지
2152,상학골습지,울산광역시 울주군 두서면 복안리,"N35°42’44.47""","E129°09’40.01""",담수호습지
2153,자못골습지,울산광역시 울주군 두동면 봉계리,"N35°41’58.06""","E129°13’07.32""",담수호습지
2154,배내뒷골습지,울산광역시 울주군 두동면 봉계리,"N35°42’21.70""","E129°13’17.98""",담수호습지
2155,명촌리습지,울산광역시 울주군 상북면 명촌리,"N35°34’28.03""","E129°04’50.91""",담수호습지
2156,사연하천습지,울산광역시 울주군 범서읍 사연리,"N35°34’33.24""","E129°12’42.99""",하도습지
2157,점촌하천습지,울산광역시 울주군 범서읍 구영리,"N35°33’47.24""","E129°14’30.03""",하도습지
2158,하서천하천습지,경상북도 경주시 양남면 하서리,"N35°40’46.08""","E129°27’39.75""",하도습지
2159,다운하천습지,울산광역시 울주군 범서읍 굴화리,"N35°33’30.79""","E129°15’53.18""",하도습지
2160,정자천하천습지,경상북도 경주시 양남면 수렴리,"N35°36’47.18""","E129°26’51.82""",하도습지
2161,당사해안습지,경상북도 경주시 양남면 수렴리,"N35°35’56.66""","E129°27’50.64""",하구염습지
2162,수도암습지,경상남도 양산시 하북면 지산리,"N35°28’55.02""","E129°03’35.67""",인공호습지
2163,통도사습지,경상남도 양산시 하북면 지산리,"N35°29’08.34""","E129°03’22.78""",인공호습지
2164,초천하천습지,울산광역시 울주군 웅촌면 초천리,"N35°27’49.10""","E129°12’46.87""",하도습지
2165,장군봉산지습지,경상남도 양산시 동면 금산리,"N35°17’36.20""","E129°03’14.08""",고층습원
2166,북안하천습지,경상남도 양산시 물금읍 범어리,"N35°21’07.09""","E129°02’00.12""",하도습지
2167,여락리습지,경상남도 양산시 동면 여락리,"N35°18’56.43""","E129°05’34.12""",담수호습지
2168,소산벌습지,부산광역시 기장군 철마면 웅천리,"N35°18’29.87""","E129°09’23.38""",소택지
2169,상곡지습지,부산광역시 기장군 정관읍 매학리,"N35°18’39.40""","E129°09’27.41""",담수호습지
2170,금성동습지,경상남도 김해시 대동면 조눌리,"N35°14’05.09""","E129°03’25.39""",저습지
2171,장산산지습지(부산),부산광역시 기장군 기장읍 내리,"N35°12’25.74""","E129°09’21.15""",고층습원
2172,중장리습지2,충청남도 태안군 안면읍 중장리,"N36°29’31.75""","E126°22’08.19""",소택지
2173,유두목습지,충청남도 태안군 안면읍 중장리,"N36°29’37.69""","E126°23’34.66""",하구염습지
2174,빼미습지,충청남도 태안군 안면읍 중장리,"N36°29’55.47""","E126°23’42.01""",인공호습지
2175,하만리습지,충청남도 보령시 천북면 하만리,"N36°28’06.26""","E126°30’37.58""",소택지
2176,소성리습지,충청남도 보령시 오천면 소성리,"N36°26’13.23""","E126°31’40.76""",인공호습지
2177,상송리습지,충청남도 홍성군 장곡면 상송리,"N36°29’50.15""","E126°42’52.50""",소택지
2178,신풍리습지,충청남도 홍성군 장곡면 신풍리,"N36°28’53.25""","E126°42’18.60""",소택지
2179,제석리습지,충청남도 보령시 남포면 제석리,"N36°19’09.93""","E126°34’15.32""",소택지
2180,원제습지,충청남도 보령시 남포면 제석리,"N36°19’05.42""","E126°33’48.65""",소택지
2181,두룡리습지,충청남도 보령시 웅천읍 두룡리,"N36°16’10.45""","E126°35’23.74""",소택지
2182,위라리1습지,충청남도 청양군 운곡면 위라리,"N36°29’10.49""","E126°49’05.17""",소택지
2183,위라리2습지,충청남도 청양군 운곡면 위라리,"N36°29’06.93""","E126°49’05.14""",소택지
2184,위라리3습지,충청남도 청양군 운곡면 위라리,"N36°29’04.68""","E126°49’11.22""",소택지
2185,효제골습지,충청남도 청양군 운곡면 위라리,"N36°29’15.92""","E126°49’10.99""",소택지
2186,마치리습지,충청남도 청양군 정산면 마치리,"N36°25’36.66""","E126°55’11.94""",소택지
2187,온직리습지,충청남도 청양군 남양면 온직리,"N36°22’12.53""","E126°48’09.83""",소택지
2188,범직습지,충청남도 청양군 남양면 온직리,"N36°21’53.14""","E126°47’54.34""",하도습지
2189,인양리습지,충청남도 청양군 청남면 인양리,"N36°20’07.25""","E126°55’44.69""",소택지
2190,신성리습지,충청남도 부여군 규암면 신성리,"N36°18’51.21""","E126°53’14.49""",소택지
2191,성북리습지,충청남도 서천군 비인면 성북리,"N36°09’15.53""","E126°35’55.27""",소택지
2192,금덕리습지,충청남도 서천군 판교면 금덕리,"N36°09’35.06""","E126°42’40.97""",소택지
2193,장암리습지,충청남도 서천군 장항읍 장암리,"N36°00’42.92""","E126°40’09.02""",소택지
2194,천당리습지,충청남도 부여군 충화면 천당리,"N36°10’25.90""","E126°47’51.54""",소택지
2195,오덕리습지,충청남도 부여군 충화면 오덕리,"N36°09’51.28""","E126°47’44.22""",소택지
2196,점리습지,충청남도 부여군 임천면 점리,"N36°13’30.59""","E126°53’53.93""",소택지
2197,용곡리습지,충청남도 서천군 시초면 용곡리,"N36°06’31.09""","E126°45’18.43""",소택지
2198,지현리습지,충청남도 서천군 한산면 지현리,"N36°04’52.70""","E126°47’31.01""",소택지
2199,성덕리습지,전라북도 군산시 성산면 성덕리,"N36°00’36.60""","E126°46’20.10""",소택지
2200,신목리습지,전라북도 익산시 함라면 신목리,"N36°02’12.25""","E126°52’54.46""",소택지
2201,신천습지(음성),충청북도 음성군 음성읍 평곡리,"N36°55’26.74""","E127°41’42.63""",하도습지
2202,용산리저수지,충청북도 음성군 음성읍 용산리,"N36°57’51.46""","E127°40’47.59""",인공호습지
2203,광덕습지(증평),충청북도 증평군 도안면 광덕리,"N36°49’59.28""","E127°36’59.83""",하도습지
2204,중석습지,충청북도 진천군 초평면 중석리,"N36°50’26.41""","E127°30’02.61""",하도습지
2205,진암습지,충청북도 진천군 초평면 진암리,"N36°46’12.87""","E127°31’41.13""",하도습지
2206,소매저수지,충청북도 괴산군 사리면 소매리,"N36°50’15.14""","E127°39’25.04""",인공호습지
2207,사담제,충청북도 괴산군 사리면 사담리,"N36°48’59.62""","E127°39’03.20""",인공호습지
2208,검단습지,충청북도 충주시 대소원면 완오리,"N36°58’08.14""","E127°50’46.34""",하도습지
2209,신중습지,충청북도 충주시 주덕읍 제내리,"N36°59’06.98""","E127°47’00.24""",하도습지
2210,용섬습지,충청북도 충주시 금가면 유송리,"N36°59’32.56""","E127°53’56.89""",하도습지
2211,서우습지,충청북도 충주시 대소원면 두정리,"N36°56’30.34""","E127°54’03.84""",하도습지
2212,탑동습지,충청북도 충주시 살미면 토계리,"N36°54’14.02""","E127°54’29.80""",하도습지
2213,셋개습지,충청북도 충주시 대소원면 문주리,"N36°54’04.68""","E127°55’05.87""",하도습지
2214,달천동막습지,충청북도 충주시 살미면 향산리,"N36°55’02.26""","E127°55’01.45""",하도습지
2215,대제지습지,충청북도 충주시 살미면 향산리,"N36°57’16.41""","E127°54’58.21""",인공호습지
2216,능암습지,충청북도 충주시 금가면 유송리,"N36°59’41.39""","E127°54’45.01""",우각호습지
2217,원검승습지,충청북도 괴산군 괴산읍 검승리,"N36°49’01.03""","E127°49’35.35""",하도습지
2218,터밭말습지,충청북도 괴산군 칠성면 두천리,"N36°47’20.48""","E127°50’24.56""",하도습지
2219,하문습지,충청북도 괴산군 불정면 하문리,"N36°51’57.51""","E127°52’38.98""",하도습지
2220,증평소류지,충청북도 증평군 증평읍 율리,"N36°43’06.96""","E127°37’27.07""",인공호습지
2221,장평교습지,충청북도 상당구 남일면 효촌리,"N36°35’03.24""","E127°30’07.75""",하도습지
2222,대청호 문의습지,충청북도 상당구 문의면 상장리,"N36°30’44.23""","E127°30’56.42""",인공호습지
2223,운암습지,충청북도 상당구 미원면 운암리,"N36°36’03.01""","E127°41’26.95""",하도습지
2224,귀만리습지,충청북도 괴산군 청천면 강평리,"N36°38’20.69""","E127°45’01.55""",하도습지
2225,도원습지,충청북도 괴산군 청천면 도원리,"N36°40’52.25""","E127°46’34.09""",하도습지
2226,수북리습지,충청북도 옥천군 동이면 석탄리,"N36°19’11.77""","E127°36’55.18""",하도습지
2227,쇠보두습지,충청북도 옥천군 안남면 지수리,"N36°19’09.35""","E127°40’39.64""",하도습지
2228,우매마을습지,충청북도 영동군 황간면 우매리,"N36°15’53.07""","E127°54’15.32""",하도습지
2229,금계교습지,경상북도 상주시 모동면 금천리,"N36°18’40.19""","E127°57’35.19""",하도습지
2230,안평마을습지,경상북도 상주시 모동면 덕곡리,"N36°19’39.62""","E127°57’57.91""",하도습지
2231,매산습지,경상북도 영천시 화산면 대기리,"N36°00’54.41""","E128°55’30.89""",하도습지
2232,상탄지습지,충청북도 제천시 덕산면 수산리,"N36°55’15.00""","E128°05’36.40""",인공호습지
2233,진말습지,충청북도 충주시 살미면 내사리,"N36°54’29.34""","E128°00’40.82""",인공호습지
2234,착골재습지,충청북도 제천시 수산면 수곡리,"N36°54’56.60""","E128°11’17.86""",소택지
2235,원대리습지,충청북도 제천시 수산면 수산리,"N36°55’55.01""","E128°12’29.02""",하도습지
2236,상천천습지,충청북도 제천시 수산면 하천리,"N36°57’50.48""","E128°13’36.87""",인공호습지
2237,시루섬습지,충청북도 단양군 단양읍 증도리,"N36°58’15.13""","E128°20’26.57""",하도습지
2238,단양 구동습지,충청북도 단양군 적성면 애곡리,"N36°57’16.59""","E128°19’40.11""",하도습지
2239,현천리습지(단양),충청북도 단양군 단양읍 현천리,"N36°56’31.21""","E128°19’40.31""",하도습지
2240,별곡습지,충청북도 단양군 단양읍 별곡리,"N36°59’29.02""","E128°21’51.12""",하도습지
2241,도담습지,충청북도 단양군 단양읍 도담리,"N36°59’56.38""","E128°20’46.18""",하도습지
2242,적성습지,충청북도 단양군 단성면 중방리,"N36°56’26.52""","E128°18’32.97""",하도습지
2243,문봉재2습지,충청북도 단양군 대강면,"N36°48’31.10""","E128°21’17.41""",저습지
2244,문봉재1습지,충청북도 단양군 대강면,"N36°48’28.73""","E128°21’25.51""",저습지
2245,내올산습지,충청북도 단양군 대강면,"N36°50’09.59""","E128°22’33.31""",소택지
2246,봉화습지,경상북도 봉화군 봉화읍 내성리,"N36°53’16.20""","E128°44’01.84""",보습지
2247,고현습지,경상북도 영주시 안정면 일원리,"N36°50’16.93""","E128°36’34.06""",보습지
2248,사미정계곡습지,경상북도 봉화군 법전면 소천리,"N36°54’02.65""","E128°56’19.55""",하도습지
2249,소아교습지,경상북도 문경시 마성면 외어리,"N36°41’51.23""","E128°07’18.59""",보습지
2250,아호교습지,경상북도 문경시 가은읍 작천리,"N36°38’02.61""","E128°03’15.12""",보습지
2251,막곡리습지,경상북도 문경시 호계면 막곡리,"N36°37’22.30""","E128°12’21.01""",하도습지
2252,견탄리습지,경상북도 문경시 호계면 별암리,"N36°38’39.00""","E128°10’04.53""",보습지
2253,지평지습지,경상북도 상주시 이안면 아천리,"N36°33’01.33""","E128°06’39.32""",인공호습지
2254,영순습지,경상북도 문경시 영순면 율곡리,"N36°31’49.93""","E128°13’39.32""",보습지
2255,신흥리습지,경상북도 상주시 함창읍 신흥리,"N36°33’00.96""","E128°11’05.76""",보습지
2256,금곡리습지,경상북도 상주시 함창읍 금곡리,"N36°32’06.02""","E128°12’54.85""",하도습지
2257,공검지,경상북도 상주시 공검면 양정리,"N36°30’55.56""","E128°09’35.62""",인공호습지
2258,평지저수지,경상북도 문경시 산양면 평지리,"N36°35’22.01""","E128°14’07.28""",인공호습지
2259,안동댐습지,경상북도 안동시 도산면 선양리,"N36°41’40.37""","E128°47’58.73""",인공호습지
2260,정상습지,경상북도 안동시 남선면 신석리,"N36°32’43.36""","E128°46’12.20""",하도습지
2261,임하습지,경상북도 안동시 임하면 임하리,"N36°30’54.59""","E128°50’09.89""",하도습지
2262,포진습지,경상북도 안동시 남선면 이천리,"N36°32’06.64""","E128°48’16.41""",하도습지
2263,진실지,경상북도 안동시 남선면 신흥리,"N36°30’21.52""","E128°46’12.71""",인공호습지
2264,관덕습지,경상북도 의성군 단촌면 관덕리,"N36°25’32.69""","E128°40’52.58""",보습지
2265,쌍계습지,경상북도 의성군 금성면 명덕리,"N36°16’11.13""","E128°39’07.77""",보습지
2266,길안습지,경상북도 안동시 임하면 오대리,"N36°28’51.81""","E128°53’10.95""",보습지
2267,만음습지,경상북도 안동시 길안면 만음리,"N36°26’16.19""","E128°54’11.99""",보습지
2268,묵계소,경상북도 안동시 길안면 묵계리,"N36°24’53.69""","E128°55’07.76""",우각호습지
2269,근곡리습지,경상북도 청송군 안덕면 신성리,"N36°20’00.21""","E128°59’12.49""",하도습지
2270,장전저수지,경상북도 청송군 안덕면 장전리,"N36°16’12.54""","E128°58’53.97""",인공호습지
2271,연화지,경상북도 김천시 봉산면 신리,"N36°08’14.76""","E128°05’35.55""",인공호습지
2272,동부습지,경상북도 김천시 개령면 동부리,"N36°09’54.57""","E128°11’35.54""",우각호습지
2273,조마습지,경상북도 김천시 조마면 장암리,"N36°02’29.48""","E128°06’09.96""",하도습지
2274,광기습지,경상북도 김천시 조마면 신안리,"N36°04’36.66""","E128°07’09.15""",하도습지
2275,미평습지,경상북도 김천시 구성면 미평리,"N36°01’29.77""","E128°02’25.07""",하도습지
2276,양금동습지,경상북도 김천시 감천면 금송리,"N36°06’15.38""","E128°07’33.06""",하도습지
2277,오봉저수지,경상북도 김천시 남면 오봉리,"N36°07’07.92""","E128°14’23.25""",인공호습지
2278,군위습지,경상북도 군위군 군위읍 금구리,"N36°11’11.79""","E128°34’16.56""",보습지
2279,나호습지,경상북도 군위군 우보면 나호리,"N36°11’11.39""","E128°38’44.88""",하도습지
2280,의흥습지,경상북도 군위군 의흥면 이지리,"N36°10’19.06""","E128°42’28.98""",하도습지
2281,성덕저수지,경상북도 청송군 현서면 수락리,"N36°13’48.48""","E128°57’38.13""",인공호습지
2282,양항습지,경상북도 영천시 임고면 양항리,"N36°00’26.37""","E128°58’31.31""",하도습지
2283,쌍전리1습지,경상북도 울진군 금강송면 쌍전리,"N36°56’55.69""","E129°11’02.13""",소택지
2284,쌍전리2습지,경상북도 울진군 금강송면 쌍전리,"N36°56’34.71""","E129°12’23.62""",소택지
2285,쌍전리3습지,경상북도 울진군 금강송면 쌍전리,"N36°56’37.36""","E129°11’08.66""",저층습원
2286,쌍전리4습지,경상북도 울진군 금강송면 쌍전리,"N36°56’39.17""","E129°11’49.84""",저층습원
2287,발리리습지,경상북도 영양군 수비면 발리리,"N36°46’24.54""","E129°11’10.98""",소택지
2288,신원리습지,경상북도 영양군 수비면 신원리,"N36°45’06.33""","E129°13’32.76""",담수호습지
2289,대흥리습지,경상북도 울진군 울진읍 대흥리,"N36°58’57.14""","E129°18’08.44""",소택지
2290,신림리습지,경상북도 울진군 울진읍 신림리,"N36°59’43.38""","E129°19’40.15""",저층습원
2291,왕피리습지,경상북도 울진군 금강송면 왕피리,"N36°53’01.89""","E129°16’41.35""",소택지
2292,천축산4습지,경상북도 울진군 금강송면 왕피리,"N36°55’30.5""","E129°18’17.7""",저층습원
2293,천축산1습지,경상북도 울진군 금강송면 왕피리,"N36°55’19.6""","E129°16’47.7""",저층습원
2294,읍남리습지,경상북도 울진군 울진읍 읍남리,"N36°59’38.06""","E129°23’05.85""",소택지
2295,산포리습지,경상북도 울진군 근남면 산포리,"N36°56’45.89""","E129°23’46.91""",소택지
2296,진복리1습지,경상북도 울진군 근남면 진복리,"N36°56’14.80""","E129°24’17.70""",소택지
2297,진복리2습지,경상북도 울진군 근남면 진복리,"N36°55’31.65""","E129°24’22.72""",소택지
2298,오산리습지,경상북도 울진군 매화면 오산리,"N36°53’43.71""","E129°24’41.53""",소택지
2299,덕신리습지,경상북도 울진군 매화면 덕신리,"N36°52’53.37""","E129°23’47.54""",소택지
2300,천축산2습지,경상북도 울진군 금강송면 왕피리,"N36°55’34.4""","E129°17’28.7""",저층습원
2301,천축산3습지,경상북도 울진군 금강송면 왕피리,"N36°55’41.3""","E129°18’06.4""",저층습원
2302,오산습지(울진),경상북도 울진군 매화면 오산리,"N36°54’38.90""","E129°24’23.53""",소택지
2303,매화리습지,경상북도 울진군 매화면 매화리,"N36°54’53.97""","E129°22’48.97""",하도습지
2304,말루동습지,경상북도 울진군 울진읍 읍남리,"N36°58’41.40""","E129°24’14.38""",하도습지
2305,수산리습지,경상북도 울진군 근남면 산포리,"N36°58’01.18""","E129°24’18.49""",하도습지
2306,노음리습지,경상북도 울진군 근남면 노음리,"N36°57’55.11""","E129°23’38.19""",하도습지
2307,연호습지,경상북도 울진군 울진읍 연지리,"N36°59’39.56""","E129°24’30.67""",담수호습지
2308,선구리습지,경상북도 울진군 온정면 선구리,"N36°45’43.97""","E129°22’18.04""",소택지
2309,삼산리습지,경상북도 울진군 기성면 삼산리,"N36°51’10.87""","E129°22’49.83""",소택지
2310,사동리습지,경상북도 울진군 기성면 사동리,"N36°48’56.82""","E129°27’00.73""",소택지
2311,황보리습지,경상북도 울진군 기성면 황보리,"N36°46’28.02""","E129°24’32.85""",저층습원
2312,감천습지,경상북도 영양군 영양읍 감천리,"N36°38’28.96""","E129°05’30.17""",하도습지
2313,황룡천 인공습지,경상북도 영양군 영양읍 황용리,"N36°41’01.87""","E129°06’30.69""",담수호습지
2314,반변천1습지,경상북도 영양군 영양읍 하원리,"N36°39’28.79""","E129°08’09.56""",하도습지
2315,파대지,경상북도 영양군 영양읍 삼지리,"N36°39’46.80""","E129°07’48.80""",담수호습지
2316,원당지(영양),경상북도 영양군 영양읍 하원리,"N36°40’01.37""","E129°08’10.66""",담수호습지
2317,연지(영양),경상북도 영양군 영양읍 삼지리,"N36°40’23.09""","E129°07’44.72""",담수호습지
2318,반변천2습지,경상북도 영양군 입암면 병옥리,"N36°32’36.35""","E129°04’08.85""",하도습지
2319,재피골못,경상북도 청송군 진보면 부곡리,"N36°33’19.50""","E129°01’05.71""",담수호습지
2320,덕인리습지,경상북도 울진군 온정면 덕인리,"N36°41’33.58""","E129°22’43.75""",소택지
2321,오곡리습지,경상북도 울진군 평해읍 오곡리,"N36°44’12.74""","E129°25’10.10""",소택지
2322,황보습지,경상북도 울진군 기성면 황보리,"N36°44’49.17""","E129°27’34.73""",하도습지
2323,평해습지,경상북도 울진군 평해읍 직산리,"N36°43’42.40""","E129°27’09.93""",하도습지
2324,월송습지(울진),경상북도 울진군 평해읍 월송리,"N36°44’28.74""","E129°28’11.76""",사구습지
2325,이천리습지,경상북도 영덕군 병곡면 이천리,"N36°35’45.10""","E129°21’22.49""",저층습원
2326,열두구부재늪,경상북도 영덕군 창수면 미곡리,"N36°34’59.78""","E129°19’25.02""",소택지
2327,미곡늪,경상북도 영덕군 창수면 미곡리,"N36°35’34.70""","E129°20’02.02""",하도습지
2328,송천늪(영덕),경상북도 영덕군 영해면 연평리,"N36°33’19.62""","E129°24’25.08""",하도습지
2329,고래불습지,경상북도 영덕군 병곡면 덕천리,"N36°34’15.80""","E129°25’06.92""",인공수로습지
2330,아곡습지(영덕),경상북도 영덕군 병곡면 원황리,"N36°34’34.03""","E129°24’06.39""",인공수로습지
2331,거무역늪,경상북도 영덕군 병곡면 영리,"N36°34’58.58""","E129°24’38.62""",인공수로습지
2332,원구늪,경상북도 영덕군 영해면 원구리,"N36°32’22.43""","E129°22’49.57""",하도습지
2333,사천리습지,경상북도 영덕군 병곡면 사천리,"N36°32’37.01""","E129°23’23.00""",하도습지
2334,원구호습지,경상북도 영덕군 영해면 원구리,"N36°32’05.11""","E129°22’28.97""",담수호습지
2335,송강습지,경상북도 청송군 파천면 송강리,"N36°29’21.19""","E129°01’07.07""",하도습지
2336,청송호,경상북도 청송군 파천면 신흥리,"N36°25’04.21""","E129°00’53.57""",인공호습지
2337,홍원습지,경상북도 청송군 부남면 대전리,"N36°20’03.34""","E129°04’19.54""",하도습지
2338,부일습지,경상북도 청송군 부동면 부일리,"N36°21’03.41""","E129°05’30.47""",하도습지
2339,구미습지,경상북도 청송군 부남면 홍원리,"N36°19’37.38""","E129°05’02.79""",하도습지
2340,신풍저수지,경상북도 청송군 현동면 거성리,"N36°16’19.70""","E129°03’21.94""",인공호습지
2341,구천습지,경상북도 청송군 부남면 구천리,"N36°18’42.35""","E129°07’32.73""",하도습지
2342,주산지(청송),경상북도 청송군 부동면 이전리,"N36°21’45.85""","E129°11’23.95""",인공호습지
2343,화장저수지,경상북도 청송군 부남면 화장리,"N36°17’43.38""","E129°09’29.07""",인공호습지
2344,장밭늪,경상북도 영덕군 지품면 옥류리,"N36°28’05.08""","E129°17’49.44""",소택지
2345,아랫내습지,경상북도 영덕군 영덕읍 천전리,"N36°24’55.30""","E129°21’45.88""",하도습지
2346,구미리습지,경상북도 영덕군 영덕읍 화개리,"N36°25’41.59""","E129°21’35.97""",하도습지
2347,자부터늪,경상북도 영덕군 영덕읍 화수리,"N36°26’52.01""","E129°23’44.78""",저층습원
2348,금호정화습지원,경상북도 영덕군 강구면 금호리,"N36°22’39.73""","E129°22’47.58""",대체습지
2349,우곡늪,경상북도 영덕군 남정면 구계리,"N36°19’51.96""","E129°20’33.25""",소택지
2350,금호리습지,경상북도 영덕군 강구면 금호리,"N36°22’29.97""","E129°22’49.29""",하도습지
2351,충효습지,경상북도 영천시 자양면 충효리,"N36°05’38.90""","E129°03’53.71""",인공호습지
2352,청계저수지상류부습지,경상북도 포항시 북구 청하면 청계리,"N36°13’05.78""","E129°18’24.40""",하도습지
2353,용천리습지,경상북도 포항시 북구 흥해읍 용천리,"N36°07’30.47""","E129°21’11.31""",하도습지
2354,곡강천습지,경상북도 포항시 북구 흥해읍 북송리,"N36°06’59.47""","E129°18’48.21""",하도습지
2355,안계저수지,경상북도 경주시 강동면 안계리,"N36°00’37.01""","E129°15’46.06""",인공호습지
2356,추산습지,경상북도 울릉군 북면 나리,"N37°31’26.04""","E130°51’29.33""",용천습지
2357,나리분지습지,경상북도 울릉군 북면 나리,"N37°31’19.95""","E130°52’03.95""",담수호습지
2358,평화누리공원습지,경기도 파주시 문산읍 마정리,"N37°53’49.76""","E126°44’48.35""",담수호습지
2359,한강하구습지,경기도 김포시 하성면 마조리,"N37°46’37.78""","E126°38’05.29""",하구염습지
2360,공릉천습지,경기도 파주시 탄현면 갈현리,"N37°45’35.12""","E126°42’19.12""",하구염습지
2361,답곡습지,경기도 파주시 적성면 자장리,"N37°57’30.54""","E126°51’11.83""",인공수로습지
2362,초평도습지,경기도 파주시 문산읍 장산리,"N37°54’37.10""","E126°46’49.05""",하도습지
2363,두지습지,경기도 연천군 장남면 원당리,"N37°57’59.79""","E126°53’00.20""",하도습지
2364,광탄습지,경기도 파주시 광탄면 창만리,"N37°48’20.99""","E126°50’49.75""",하도습지
2365,가래울습지,경기도 파주시 문산읍 내포리,"N37°50’39.28""","E126°45’08.10""",하도습지
2366,장단반도습지,경기도 파주시 장단면 거곡리,"N37°51’33.80""","E126°44’38.25""",배후습지
2367,가납습지,경기도 양주시 광적면 광석리,"N37°48’57.97""","E126°58’55.46""",하도습지
2368,길정저수지,인천광역시 강화군 양도면 길정리,"N37°39’19.29""","E126°28’16.82""",인공호습지
2369,고막저수지,경기도 김포시 월곶면 고막리,"N37°43’40.31""","E126°33’36.28""",인공호습지
2370,조강저수지,경기도 김포시 월곶면 조강리,"N37°44’42.78""","E126°34’18.93""",인공호습지
2371,매화마름서식지,인천광역시 강화군 길상면 초지리,"N37°38’16.06""","E126°31’32.38""",논
2372,산남습지,경기도 김포시 하성면 전류리,"N37°41’53.29""","E126°40’42.01""",하구갯벌습지
2373,출판문화단지습지,경기도 김포시 하성면 전류리,"N37°41’41.47""","E126°41’24.54""",하도습지
2374,문발습지,경기도 김포시 하성면 석탄리,"N37°43’14.44""","E126°41’23.08""",인공호습지
2375,장흥제2저수지,인천광역시 강화군 길상면 장흥리,"N37°37’05.57""","E126°30’42.99""",인공호습지
2376,장흥제1저수지,인천광역시 강화군 길상면 장흥리,"N37°37’26.46""","E126°30’04.24""",인공호습지
2377,고봉산습지,경기도 파주시 조리읍 대원리,"N37°41’02.83""","E126°47’00.35""",소택지
2378,사리습지(고양),경기도 파주시 조리읍 대원리,"N37°41’54.5""","E126°51’00.2""",하도습지
2379,장항습지,경기도 김포시 고촌읍 향산리,"N37°38’05.75""","E126°45’26.94""",하구갯벌습지
2380,일산호수공원습지,경기도 김포시 고촌읍 향산리,"N37°39’18.89""","E126°45’52.41""",인공호습지
2381,난지한강공원습지,경기도 김포시 고촌읍 전호리,"N37°35’30.79""","E126°49’57.76""",하도습지
2382,선유도습지,서울특별시 서대문구 창천동,"N37°32’40.81""","E126°53’49.68""",하도습지
2383,여의도샛강공원습지,서울특별시 서대문구 창천동,"N37°30’57.42""","E126°55’41.03""",하도습지
2384,용산가족공원습지,서울특별시 서대문구 합동,"N37°31’14.03""","E126°59’01.70""",인공호습지
2385,안터저수지,서울특별시 금천구 가산동,"N37°27’30.56""","E126°52’12.54""",인공호습지
2386,소래저수지,서울특별시 금천구 가산동,"N37°26’44.80""","E126°48’21.95""",인공호습지
2387,포일습지,서울특별시 금천구 시흥동,"N37°23’46.22""","E126°59’13.99""",대체습지
2388,왕송저수지,경기도 화성시 매송면 송라리,"N37°18’27.32""","E126°56’49.74""",인공호습지
2389,대호방조제,충청남도 당진시 석문면 교로리,"N37°01’55.51""","E126°28’51.85""",간척호습지
2390,기천저수지,경기도 화성시 봉담읍 상기리,"N37°11’37.26""","E126°54’20.04""",인공호습지
2391,보통리습지,경기도 화성시 정남면 보통리,"N37°11’34.84""","E126°58’27.36""",인공호습지
2392,황구지리습지,경기도 평택시 고덕면 문곡리,"N37°03’51.75""","E126°59’41.51""",하도습지
2393,신평습지(포천),경기도 포천시 신북면 기지리,"N37°56’21.88""","E127°13’30.40""",하도습지
2394,장승거리습지,경기도 포천시 신북면 삼성당리,"N37°58’14.73""","E127°11’46.11""",보습지
2395,금주습지,경기도 포천시 영중면 금주리,"N37°58’30.94""","E127°16’11.89""",담수호습지
2396,중도습지,강원도 춘천시 서면 금산리,"N37°52’51.44""","E127°41’37.28""",하도습지
2397,고탄리습지,강원도 춘천시 사북면 고탄리,"N37°59’07.01""","E127°41’49.21""",하도습지
2398,골미나루습지,강원도 춘천시 서면 서상리,"N37°56’29.11""","E127°42’25.79""",하도습지
2399,용산리습지,강원도 춘천시 신북읍 용산리,"N37°57’39.18""","E127°40’34.84""",하도습지
2400,장학리습지,강원도 춘천시 동면 장학리,"N37°54’42.07""","E127°44’48.66""",하도습지
2401,용산습지(춘천),강원도 춘천시 서면 서상리,"N37°57’21.95""","E127°41’22.56""",하도습지
2402,현암리습지,강원도 춘천시 서면 현암리,"N37°53’07.62""","E127°41’09.16""",담수호습지
2403,금산리습지,강원도 춘천시 서면 금산리,"N37°54’18.76""","E127°42’36.18""",담수호습지
2404,이화리습지,경기도 가평군 가평읍 이화리,"N37°47’47.06""","E127°31’11.36""",하도습지
2405,금대리습지,경기도 가평군 가평읍 금대리,"N37°45’13.19""","E127°32’11.83""",하도습지
2406,덕두원리습지,강원도 춘천시 서면 덕두원리,"N37°50’53.80""","E127°40’18.92""",담수호습지
2407,우두동습지,강원도 춘천시 동면 장학리,"N37°53’40.05""","E127°44’30.72""",하도습지
2408,율문리습지,강원도 춘천시 동면 지내리,"N37°55’36.87""","E127°46’15.48""",하도습지
2409,탄천습지,경기도 광주시 남한산성면 산성리,"N37°29’51.51""","E127°05’26.52""",하도습지
2410,둔촌동습지,경기도 광주시 남한산성면 산성리,"N37°31’24.30""","E127°08’40.19""",저층습원
2411,미사동습지,경기도 남양주시 와부읍 팔당리,"N37°33’23.16""","E127°13’28.45""",하도습지
2412,하남선동습지,경기도 남양주시 와부읍 덕소리,"N37°34’59.30""","E127°11’04.91""",하도습지
2413,장자못(구리),경기도 남양주시 진건읍 배양리,"N37°34’52.49""","E127°08’13.81""",인공호습지
2414,방이습지(송파),경기도 광주시 남한산성면 산성리,"N37°30’42.70""","E127°08’20.09""",생태수변공원
2415,소남이섬습지,강원도 춘천시 남면 발산리,"N37°42’23.39""","E127°35’36.86""",하도습지
2416,모곡밤벌유원지습지,강원도 홍천군 서면 모곡리,"N37°42’16.19""","E127°36’14.66""",하도습지
2417,관천리1습지,강원도 춘천시 남면 관천리,"N37°43’46.30""","E127°30’25.84""",담수호습지
2418,관천리2습지,강원도 춘천시 남면 관천리,"N37°43’06.16""","E127°30’40.49""",담수호습지
2419,복장리습지,경기도 가평군 가평읍 복장리,"N37°44’21.90""","E127°30’38.51""",담수호습지
2420,산유리습지,경기도 가평군 가평읍 산유리,"N37°44’42.42""","E127°30’58.01""",담수호습지
2421,송산1리습지,경기도 가평군 설악면 송산리,"N37°41’13.44""","E127°31’09.92""",담수호습지
2422,반곡리습지,강원도 홍천군 서면 반곡리,"N37°41’50.62""","E127°39’59.01""",하도습지
2423,삼가교습지,경기도 양평군 단월면 삼가리,"N37°31’12.93""","E127°40’03.43""",보습지
2424,아랫뜰보습지,경기도 양평군 청운면 다대리,"N37°33’59.37""","E127°43’24.50""",보습지
2425,돈도루습지,강원도 홍천군 화촌면 외삼포리,"N37°45’01.53""","E127°57’15.37""",하도습지
2426,구성포리습지,강원도 홍천군 화촌면 굴운리,"N37°44’44.12""","E127°57’00.36""",하도습지
2427,복정습지,경기도 광주시 남한산성면 산성리,"N37°26’17.31""","E127°07’07.02""",하도습지
2428,백운저수지,서울특별시 금천구 시흥동,"N37°22’41.76""","E127°00’14.04""",인공호습지
2429,가락습지(송파),경기도 광주시 남한산성면 산성리,"N37°29’49.31""","E127°06’01.25""",인공호습지
2430,보정리습지,경기도 용인시 처인구 모현면 오산리,"N37°18’48.37""","E127°06’15.79""",하도습지
2431,원천저수지,경기도 용인시 처인구 모현면 오산리,"N37°16’52.80""","E127°03’44.66""",인공호습지
2432,낙생저수지,경기도 광주시 오포읍 신현리,"N37°21’06.18""","E127°04’31.52""",인공호습지
2433,양벌습지,경기도 광주시 오포읍 추자리,"N37°21’54.22""","E127°14’23.33""",보습지
2434,갈담습지,경기도 용인시 처인구 모현면 갈담리,"N37°19’10.42""","E127°14’07.58""",보습지
2435,삼계리습지,경기도 처인구 포곡읍 삼계리,"N37°17’19.48""","E127°13’57.59""",보습지
2436,율동습지,경기도 광주시 오포읍 신현리,"N37°22’44.07""","E127°09’04.49""",인공호습지
2437,방교리습지,경기도 화성시 동탄면 금곡리,"N37°09’57.30""","E127°04’48.72""",하도습지
2438,황구지천습지,경기도 화성시 정남면 망월리,"N37°07’29.34""","E127°00’06.60""",보습지
2439,기흥저수지,경기도 화성시 동탄면 중리,"N37°14’07.72""","E127°05’46.44""",인공호습지
2440,방이습지(평택),경기도 평택시 진위면 은산리,"N37°06’07.57""","E127°06’38.34""",하도습지
2441,궁안교습지,경기도 평택시 오성면 안화리,"N37°00’56.78""","E127°00’58.51""",하도습지
2442,봉남리습지,경기도 평택시 진위면 견산리,"N37°05’54.37""","E127°04’38.87""",하도습지
2443,사리습지(평택),경기도 평택시 진위면 야막리,"N37°07’46.1""","E127°03’13.0""",하도습지
2444,금암습지,경기도 평택시 진위면 하북리,"N37°05’45.54""","E127°02’45.13""",하도습지
2445,내리저수지,경기도 안성시 원곡면 내가천리,"N37°03’17.77""","E127°06’31.69""",인공호습지
2446,모산골저수지,경기도 안성시 원곡면 내가천리,"N37°00’51.43""","E127°05’37.53""",인공호습지
2447,명당리습지,경기도 안성시 양성면 덕봉리,"N37°02’25.30""","E127°12’26.91""",하도습지
2448,진목습지(용인),경기도 처인구 남사면 방아리,"N37°06’34.89""","E127°10’04.49""",하도습지
2449,만수저수지(안성),경기도 안성시 공도읍 만정리,"N37°01’05.85""","E127°11’03.76""",인공호습지
2450,이동저수지,경기도 용인시 처인구 이동면 어비리,"N37°07’09.05""","E127°12’04.12""",인공호습지
2451,내방리습지,경기도 안성시 보개면 내방리,"N37°00’55.06""","E127°18’41.55""",하도습지
2452,목신리습지,경기도 처인구 원삼면 목신리,"N37°06’46.83""","E127°18’39.64""",하도습지
2453,월정습지,경기도 안성시 일죽면 화곡리,"N37°06’05.16""","E127°27’21.97""",하도습지
2454,죽산습지,경기도 안성시 일죽면 월정리,"N37°04’48.59""","E127°26’12.13""",하도습지
2455,백봉습지,경기도 처인구 백암면 고안리,"N37°07’12.36""","E127°23’55.67""",하도습지
2456,용설저수지,경기도 안성시 죽산면 용설리,"N37°03’18.55""","E127°26’45.32""",인공호습지
2457,바위늪구비,경기도 여주시 강천면 굴암리,"N37°13’59.81""","E127°42’21.70""",하도습지
2458,당진습지,경기도 여주시 점동면 당진리,"N37°11’23.33""","E127°40’37.51""",하도습지
2459,강천습지,경기도 여주시 점동면 도리,"N37°13’33.89""","E127°41’59.00""",하도습지
2460,사곡습지,경기도 여주시 점동면 현수리,"N37°11’51.47""","E127°41’39.01""",하도습지
2461,원부교습지,경기도 여주시 점동면 원부리,"N37°09’45.60""","E127°38’08.63""",하도습지
2462,삼합교습지,경기도 여주시 점동면 장안리,"N37°11’51.23""","E127°43’01.28""",하도습지
2463,개치나루습지,강원도 원주시 부론면 법천리,"N37°11’39.22""","E127°44’54.74""",하도습지
2464,행죽습지,경기도 이천시 율면 신추리,"N37°06’14.70""","E127°32’23.89""",보습지
2465,고당습지(대서리),경기도 이천시 장호원읍 대서리,"N37°05’57.78""","E127°34’04.63""",보습지
2466,원당습지(음성),충청북도 음성군 감곡면 원당리,"N37°04’47.45""","E127°36’06.56""",보습지
2467,병암교습지,충청북도 음성군 생극면 병암리,"N37°01’55.36""","E127°36’17.46""",보습지
2468,철암천습지,강원도 삼척시 도계읍 구사리,"N37°07’46.79""","E129°02’21.92""",하도습지
2469,노경리습지,강원도 삼척시 원덕읍 노경리,"N37°09’52.25""","E129°19’26.51""",소택지
2470,나곡리1습지,경상북도 울진군 북면 나곡리,"N37°07’41.37""","E129°21’20.91""",소택지
2471,나곡리2습지,경상북도 울진군 북면 나곡리,"N37°07’41.88""","E129°20’51.77""",소택지
2472,후정리습지,경상북도 울진군 죽변면 후정리,"N37°03’46.60""","E129°23’55.84""",저층습원
2473,화성리습지,경상북도 울진군 죽변면 화성리,"N37°02’49.29""","E129°23’07.88""",소택지
2474,봉평리습지,경상북도 울진군 죽변면 봉평리,"N37°02’04.75""","E129°23’42.53""",소택지
2475,용장습지(울진),경상북도 울진군 죽변면 화성리,"N37°03’37.92""","E129°23’01.07""",소택지
2476,통구습지,경기도 연천군 백학면 두일리,"N38°00’33.60""","E126°54’31.05""",하도습지
2477,와초습지,경기도 연천군 신서면 도신리,"N38°08’27.39""","E127°05’44.33""",하도습지
2478,대광습지(연천),경기도 연천군 신서면 대광리,"N38°12’04.73""","E127°07’18.85""",하도습지
2479,신탄습지,경기도 연천군 신서면 대광리,"N38°12’54.34""","E127°08’15.54""",보습지
2480,금연저수지,강원도 철원군 동송읍 오지리,"N38°10’17.42""","E127°14’01.64""",담수호습지
2481,학저수지,강원도 철원군 동송읍 관우리,"N38°13’58.19""","E127°13’33.45""",담수호습지
2482,우정습지,경기도 연천군 미산면 우정리,"N38°01’43.14""","E127°01’10.13""",하도습지
2483,사랑동습지,경기도 연천군 전곡읍 고능리,"N38°00’46.27""","E127°03’17.30""",하도습지
2484,조개못습지,경기도 연천군 군남면 선곡리,"N38°05’37.89""","E127°00’44.40""",하도습지
2485,장못,경기도 연천군 미산면 우정리,"N38°02’49.87""","E127°01’08.20""",담수호습지
2486,영로습지,경기도 포천시 창수면 운산리,"N38°03’39.42""","E127°12’10.42""",배후습지
2487,청양습지,강원도 철원군 김화읍 청양리,"N38°14’53.39""","E127°23’29.55""",하도습지
2488,동송습지,강원도 철원군 갈말읍 군탄리,"N38°11’04.84""","E127°17’30.34""",하도습지
2489,냉정습지,경기도 포천시 관인면 냉정리,"N38°10’30.40""","E127°16’28.94""",담수호습지
2490,산정호수,경기도 포천시 영북면 산정리,"N38°04’20.09""","E127°19’17.36""",담수호습지
2491,신대습지(화천),강원도 화천군 상서면 신대리,"N38°08’09.35""","E127°40’30.01""",하도습지
2492,장촌습지,강원도 화천군 상서면 신대리,"N38°08’16.12""","E127°39’37.68""",하도습지
2493,붕어섬습지,강원도 화천군 화천읍 하리,"N38°05’30.63""","E127°41’26.92""",하도습지
2494,장거습지,강원도 화천군 하남면 논미리,"N38°05’18.17""","E127°41’06.72""",하도습지
2495,서오지습지,강원도 화천군 하남면 서오지리,"N38°03’21.87""","E127°38’53.92""",하도습지
2496,신포습지,강원도 춘천시 사북면 신포리,"N38°01’29.24""","E127°38’43.57""",하도습지
2497,어룡동습지,강원도 화천군 화천읍 대이리,"N38°05’55.08""","E127°45’35.99""",하도습지
