PIC_ID,WETLAND_NAME,ADDRESS,LATITUDE,LONGITUDE,WETLAND_TYPE
1,여물지습지,경상북도 상주시 이안면 여물리,"N35°25’19.68""","E129°00’09.11""",담수호습지
2,죽안습지,경상북도 예천군 유천면 죽안리,"N35°25’30.90""","E129°00’02.26""",저습지
3,우본지습지,경상북도 문경시 산양면 우본리,"N35°25’38.01""","E129°00’01.27""",담수호습지
4,어화습지,경상북도 예천군 지보면 마산리,"N35°31’21.59""","E129°03’01.21""",소택지
5,금천습지(예천),경상북도 예천군 용궁면 금남리,"N35°22’13.28""","E128°54’44.15""",하도습지
6,연화지습지,경상북도 문경시 산양면 연소리,"N35°28’25.10""","E129°04’58.61""",담수호습지
7,산택지습지,경상북도 예천군 용궁면 산택리,"N35°28’10.40""","E129°06’00.05""",담수호습지
8,원당지습지(예천),경상북도 예천군 용궁면 무이리,"N35°26’43.00""","E129°04’10.92""",담수호습지
9,달지저수지,경상북도 문경시 영순면 달지리,"N35°24’23.46""","E129°06’01.30""",담수호습지
10,참나무실못습지,경상북도 문경시 영순면 사근리,"N35°24’57.51""","E129°07’40.78""",담수호습지
11,화신천습지,경상북도 의성군 안사면 쌍호리,"N35°26’37.02""","E129°08’37.30""",하도습지
12,광산천우각호습지,경상북도 안동시 풍천면 신성리,"N35°26’43.71""","E129°08’29.19""",우각호습지
13,성유리습지,경상북도 문경시 가은읍 전곡리,"N35°26’57.37""","E129°08’13.09""",하도습지
14,육십령습지,경상남도 함양군 서상면 상남리,"N35°27’07.63""","E129°07’46.33""",소택지
15,마평습지,경상남도 함양군 병곡면 광평리,"N35°27’05.82""","E129°08’14.14""",저습지
16,대광습지(함양),경상남도 함양군 병곡면 광평리,"N35°26’59.45""","E129°08’12.96""",소택지
17,도곡리 보습지,경상북도 김천시 지례면 도곡리,"N35°28’55.02""","E129°03’35.67""",보습지
18,유성리 보습지,경상북도 김천시 증산면 유성리,"N35°29’08.34""","E129°03’22.78""",보습지
19,배바위 보습지,경상북도 성주군 금수면 무학리,"N35°28’33.62""","E128°20’38.54""",보습지
20,창천리 보습지,경상북도 성주군 가천면 창천리,"N35°30’06.91""","E128°21’41.30""",보습지
21,성주호2습지,경상북도 성주군 금수면 후평리,"N35°20’18.01""","E128°18’47.50""",인공호습지
22,봉비암보습지,경상북도 성주군 수륜면 수성리,"N35°20’19.40""","E128°18’16.42""",보습지
23,동암교 하도습지,경상북도 성주군 선남면 동암리,"N35°20’39.71""","E128°18’46.23""",하도습지
24,서재리 하도습지,대구광역시 달성군 다사읍 박곡리,"N35°19’25.09""","E128°17’47.79""",하도습지
25,호촌늪,경상북도 고령군 다산면 호촌리,"N35°20’06.79""","E128°22’20.25""",우각호습지
26,씩실늪,대구광역시 달성군 논공읍 삼리리,"N35°21’48.00""","E128°24’13.92""",우각호습지
27,장암습지(상주),경상북도 상주시 화북면 장암리,"N35°07’29.25""","E128°13’26.33""",보습지
28,신촌리보습지,경상북도 상주시 내서면 신촌리,"N35°07’46.77""","E128°10’20.29""",보습지
29,오태저수지습지,경상북도 상주시 공검면 오태리,"N35°07’43.17""","E128°10’55.89""",인공호습지
30,오태리 묵논습지,경상북도 상주시 공검면 오태리,"N35°11’05.19""","E128°08’16.20""",소택지
31,남적동 보습지,경상북도 상주시 외서면 관동리,"N35°14’11.10""","E128°08’28.38""",보습지
32,상판저수지습지,경상북도 상주시 공성면 우하리,"N35°10’14.99""","E127°58’16.08""",인공호습지
33,무을저수지습지,경상북도 구미시 무을면 안곡리,"N35°10’14.01""","E127°59’01.16""",인공호습지
34,대원저수지습지,경상북도 구미시 옥성면 대원리,"N35°14’02.20""","E127°58’24.17""",인공호습지
35,안사리 하도습지,경상북도 의성군 안사면 안사리,"N35°12’54.06""","E127°57’51.62""",하도습지
36,봉양리 묵논습지,경상북도 의성군 안계면 봉양리,"N35°12’12.97""","E127°58’35.98""",하도습지
37,비안교 하도습지,경상북도 의성군 비안면 용천리,"N35°12’44.36""","E128°00’19.01""",하도습지
38,다삼교보습지,경상북도 김천시 봉산면 신리,"N35°16’49.74""","E128°03’16.08""",보습지
39,신촌리 하도습지,경상북도 김천시 개령면 황계리,"N35°15’14.06""","E127°59’13.01""",하도습지
40,길지습지,경상북도 김천시 아포읍 제석리,"N35°08’12.97""","E128°09’51.38""",인공호습지
41,김천교 하도습지,경상북도 김천시 감천면 금송리,"N35°09’55.72""","E128°08’57.91""",하도습지
42,황산리 하도습지,경상북도 구미시 고아읍 황산리,"N35°09’00.63""","E128°09’38.98""",하도습지
43,관심리 하도습지,경상북도 구미시 선산읍 원리,"N35°08’28.40""","E128°09’55.75""",하도습지
44,월곡리 하도습지,경상북도 구미시 해평면 월곡리,"N35°09’33.40""","E127°57’45.60""",하도습지
45,대성저수지습지,경상북도 김천시 아포읍 대성리,"N35°10’02.08""","E127°56’18.60""",인공호습지
46,포남리 하도습지,경상북도 칠곡군 석적읍 포남리,"N35°11’08.12""","E127°54’27.19""",하도습지
47,세천늪(대구),대구광역시 달성군 다사읍 세천리,"N35°12’37.10""","E128°13’11.21""",담수호습지
48,회천습지,경상북도 고령군 운수면 봉평리,"N35°13’45.28""","E128°06’07.59""",하도습지
49,위천늪,대구광역시 달성군 논공읍 위천리,"N35°13’46.16""","E128°06’21.88""",하도습지
50,달성습지,대구광역시 달성군 화원읍 구라리,"N35°26’21.54""","E128°28’54.15""",하도습지
51,봉촌리습지,경상북도 고령군 다산면 노곡리,"N35°34’16.74""","E128°30’17.85""",하도습지
52,낫늪,대구광역시 달성군 논공읍 상리,"N35°33’49.78""","E128°30’44.50""",우각호습지
53,노원습지,대구광역시 달성군 다사읍 방천리,"N35°35’12.37""","E128°29’21.88""",하도습지
54,유등지습지,경상북도 칠곡군 동명면 금암리,"N35°26’13.54""","E128°23’28.00""",담수호습지
55,서리지습지,경상북도 칠곡군 동명면 봉암리,"N35°26’11.31""","E128°22’47.24""",담수호습지
56,광대골지습지,경상북도 칠곡군 동명면 구덕리,"N35°25’32.20""","E128°26’56.77""",담수호습지
57,단산지,경상북도 칠곡군 동명면 구덕리,"N35°25’40.72""","E128°27’46.93""",인공호습지
58,성당못,대구광역시 달서구 성당동,"N35°24’41.73""","E128°28’03.14""",담수호습지
59,수성못,대구광역시 달성군 가창면 용계리,"N35°26’40.39""","E128°22’59.96""",인공호습지
60,팔현습지,경상북도 경산시 압량면 금구리,"N35°27’39.93""","E128°23’18.97""",하도습지
61,금강습지,경상북도 경산시 압량면 금구리,"N35°31’38.94""","E128°26’21.67""",하도습지
62,안심습지,경상북도 경산시 압량면 금구리,"N35°36’42.80""","E128°24’54.93""",담수호습지
63,가남지,경상북도 경산시 압량면 금구리,"N35°33’39.98""","E128°26’00.19""",인공호습지
64,논방골 묵논,경상북도 영천시 금호읍 남성리,"N35°23’26.35""","E128°38’52.55""",소택지
65,문천지,경상북도 경산시 진량읍 문천리,"N35°23’46.42""","E128°35’53.20""",담수호습지
66,풍락제습지,경상북도 영천시 청통면 대평리,"N35°26’01.92""","E128°29’37.84""",담수호습지
67,작은 소월지습지,경상북도 경산시 와촌면 소월리,"N35°31’15.70""","E128°23’01.59""",담수호습지
68,황정습지,경상북도 영천시 금호읍 관정리,"N35°31’13.48""","E128°22’42.27""",하도습지
69,금노습지,경상북도 영천시 금호읍 봉죽리,"N35°31’16.97""","E128°23’09.47""",하도습지
70,화룡습지,경상북도 영천시 청통면 호당리,"N35°33’16.58""","E128°24’58.65""",하도습지
71,단포습지,경상북도 영천시 고경면 단포리,"N35°31’00.46""","E128°24’02.56""",하도습지
72,오통내지,경상북도 영천시 대창면 대창리,"N35°33’46.75""","E128°24’23.87""",하도습지
73,청못,경상북도 영천시 금호읍 구암리,"N35°32’45.06""","E128°24’00.62""",담수호습지
74,우로지,경상북도 영천시 고경면 단포리,"N35°35’51.42""","E128°22’29.69""",생태수변공원
75,유상대제습지,경상북도 영천시 북안면 유상리,"N35°26’31.51""","E128°27’13.35""",담수호습지
76,탑지습지,경상북도 영천시 금호읍 신월리,"N35°32’50.29""","E128°32’56.79""",담수호습지
77,내리교 보습지,경상북도 경산시 압량면 내리,"N35°20’17.96""","E128°40’20.25""",보습지
78,연지습지(경산),경상북도 경산시 진량읍 선화리,"N35°15’44.53""","E128°40’42.40""",담수호습지
79,동자지습지,경상북도 경산시 진량읍 선화리,"N35°19’10.73""","E128°40’21.44""",담수호습지
80,바느리못습지,경상북도 경산시 압량면 의송리,"N35°17’28.06""","E128°40’21.94""",담수호습지
81,감못습지,경상북도 경산시 압량면 신대리,"N35°17’59.96""","E128°41’08.70""",담수호습지
82,도진습지,경상북도 고령군 우곡면 야정리,"N35°17’53.46""","E128°39’51.46""",하도습지
83,소가천습지,경상북도 고령군 대가야읍 본관리,"N35°18’26.46""","E128°39’30.32""",하도습지
84,구곡습지,경상북도 고령군 개진면 구곡리,"N35°18’28.56""","E128°39’23.69""",배후습지
85,박석진교습지,경상북도 고령군 개진면 부리,"N34°53’42.73""","E128°22’22.14""",배후습지
86,봉산늪(고령),경상북도 고령군 우곡면 봉산리,"N34°46’34.40""","E128°24’33.21""",담수호습지
87,진촌늪,경상북도 고령군 개진면 부리,"N34°52’00.20""","E128°26’47.20""",담수호습지
88,지동늪,대구광역시 달성군 현풍면 지리,"N34°53’03.93""","E128°27’17.61""",담수호습지
89,청덕습지,경상남도 합천군 청덕면 가현리,"N35°01’24.45""","E127°46’55.73""",하도습지
90,성산습지,경상남도 합천군 쌍책면 다라리,"N34°57’46.59""","E127°52’31.47""",하도습지
91,적포습지,경상남도 합천군 청덕면 적포리,"N34°57’25.68""","E127°53’29.54""",하도습지
92,오방곡못,경상남도 합천군 청덕면 앙진리,"N34°57’55.03""","E127°45’52.85""",담수호습지
93,앙진못,경상남도 합천군 청덕면 앙진리,"N34°57’31.76""","E127°47’18.19""",담수호습지
94,장천웃늪,경상남도 창녕군 이방면 장천리,"N34°59’43.26""","E127°47’38.63""",담수호습지
95,부수못,경상남도 합천군 적중면 부수리,"N35°08’18.30""","E127°41’49.45""",담수호습지
96,가항수로늪,경상남도 창녕군 유어면 가항리,"N35°10’31.03""","E127°55’42.91""",배후습지
97,유어교습지,경상남도 창녕군 유어면 가항리,"N35°01’25.61""","E127°54’30.34""",하도습지
98,대학지,경상남도 창녕군 대지면 본초리,"N35°00’51.87""","E127°55’12.48""",담수호습지
99,팔락늪,경상남도 창녕군 유어면 미구리,"N34°59’08.56""","E127°54’45.01""",담수호습지
100,가항늪,경상남도 창녕군 유어면 가항리,"N35°02’11.33""","E127°47’20.31""",배후습지
101,목포늪,경상남도 창녕군 이방면 안리,"N35°01’47.04""","E127°47’02.20""",배후습지
102,사지포늪,경상남도 창녕군 대합면 신당리,"N35°04’41.83""","E127°43’57.86""",배후습지
103,우포늪,경상남도 창녕군 유어면 대대리,"N35°10’56.86""","E127°37’35.10""",배후습지
104,쪽지벌늪,경상남도 창녕군 이방면 옥천리,"N35°09’35.15""","E127°39’10.19""",배후습지
105,용호(대곡호),경상남도 창녕군 대합면 목단리,"N35°17’30.98""","E128°22’31.30""",배후습지
106,감암습지,경상남도 의령군 부림면 감암리,"N35°18’14.83""","E128°24’27.39""",하도습지
107,신반천습지,경상남도 의령군 부림면 대곡리,"N35°14’07.31""","E128°22’57.90""",하도습지
108,번개늪,경상남도 창녕군 계성면 봉산리,"N35°15’12.17""","E128°21’39.46""",담수호습지
109,대곡늪,경상남도 창녕군 남지읍 대곡리,"N35°16’31.99""","E128°17’53.97""",담수호습지
110,박진교습지,경상남도 창녕군 남지읍 대곡리,"N35°17’42.54""","E128°19’30.62""",하도습지
111,성사습지,경상남도 창녕군 남지읍 성사리,"N35°14’10.82""","E128°22’05.45""",담수호습지
112,신전늪(창녕),경상남도 창녕군 남지읍 신전리,"N35°18’18.49""","E128°18’08.87""",담수호습지
113,월상늪(창녕),경상남도 창녕군 남지읍 월하리,"N35°18’05.61""","E128°20’23.52""",담수호습지
114,월평습지(창녕),경상남도 창녕군 남지읍 월하리,"N35°21’15.34""","E128°25’58.00""",하도습지
115,장척지,경상남도 창녕군 영산면 신제리,"N35°21’42.07""","E128°25’37.55""",담수호습지
116,대봉습지,경상남도 창녕군 장마면 대봉리,"N35°21’01.19""","E128°26’53.05""",배후습지
117,내내늪,경상남도 함안군 칠서면 계내리,"N35°22’24.56""","E128°27’55.70""",담수호습지
118,신점늪,경상남도 함안군 칠서면 용성리,"N35°19’19.23""","E128°24’04.42""",담수호습지
119,공영교습지,경상남도 창녕군 남지읍 성사리,"N35°21’48.86""","E128°27’02.55""",하도습지
120,돈대늪,경상남도 의령군 용덕면 소상리,"N35°22’11.96""","E128°26’59.11""",하도습지
121,구소늪,경상남도 의령군 용덕면 소상리,"N35°20’46.72""","E128°25’43.89""",배후습지
122,소상늪,경상남도 의령군 용덕면 정동리,"N35°20’46.01""","E128°23’36.56""",하도습지
123,교암늪,경상남도 의령군 의령읍 정암리,"N35°20’53.15""","E128°23’36.10""",하도습지
124,수곡늪,경상남도 함안군 군북면 박곡리,"N35°20’58.45""","E128°23’52.82""",담수호습지
125,석교천습지,경상남도 함안군 군북면 사도리,"N35°21’02.67""","E128°24’00.94""",하도습지
126,뜬늪,경상남도 함안군 군북면 월촌리,"N35°21’07.88""","E128°24’12.57""",생태수변공원
127,유전늪,경상남도 함안군 군북면 유현리,"N35°20’21.76""","E128°20’14.17""",담수호습지
128,대평늪,경상남도 함안군 법수면 대송리,"N35°19’18.62""","E128°20’52.54""",담수호습지
129,질날늪,경상남도 함안군 법수면 우거리,"N35°18’49.97""","E128°22’52.42""",담수호습지
130,황새몰늪,경상남도 함안군 법수면 황사리,"N35°18’49.69""","E128°22’41.98""",담수호습지
131,매곡작은늪,경상남도 함안군 법수면 황사리,"N35°19’28.48""","E128°19’27.40""",담수호습지
132,악양습지(의령),경상남도 의령군 정곡면 적곡리,"N35°19’45.52""","E128°19’09.37""",하도습지
133,장자늪(의령),경상남도 의령군 지정면 마산리,"N35°20’37.71""","E128°31’31.92""",배후습지
134,자연저수지,경상남도 함안군 가야읍 묘사리,"N35°22’06.93""","E128°31’00.23""",담수호습지
135,도화늪,경상남도 함안군 가야읍 산서리,"N35°22’22.32""","E128°30’52.84""",담수호습지
136,윤동늪,경상남도 함안군 대산면 구혜리,"N35°22’38.25""","E128°28’39.77""",담수호습지
137,구혜늪,경상남도 함안군 대산면 구혜리,"N35°22’47.02""","E128°29’42.19""",담수호습지
138,복구늪,경상남도 함안군 대산면 부목리,"N35°23’44.05""","E128°30’04.70""",내수면어업
139,도흥늪,경상남도 함안군 대산면 부목리,"N35°22’52.61""","E128°30’23.66""",담수호습지
140,옥열늪,경상남도 함안군 대산면 옥렬리,"N35°23’02.27""","E128°30’16.95""",하도습지
141,대산늪(함안),경상남도 함안군 대산면 장암리,"N35°22’31.59""","E128°30’59.56""",담수호습지
142,입사늪,경상남도 함안군 대산면 장암리,"N35°21’56.71""","E128°30’05.97""",담수호습지
143,월포늪(함안),경상남도 함안군 대산면 평림리,"N35°21’06.82""","E128°29’17.82""",담수호습지
144,미나리늪,경상남도 함안군 대산면 하기리,"N35°18’48.55""","E128°32’59.51""",담수호습지
145,하기늪,경상남도 함안군 대산면 하기리,"N35°13’55.56""","E128°24’51.95""",담수호습지
146,평기늪,경상남도 함안군 대산면 하기리,"N35°13’22.47""","E128°24’39.08""",담수호습지
147,평기2늪,경상남도 함안군 대산면 하기리,"N35°33’11.73""","E127°42’44.48""",담수호습지
148,신대늪(함안),경상남도 함안군 대산면 하기리,"N35°33’32.60""","E127°43’20.35""",담수호습지
149,은안늪(나비늪),경상남도 함안군 법수면 윤외리,"N35°43’04.16""","E127°39’49.43""",담수호습지
150,옥수늪,경상남도 함안군 법수면 윤외리,"N35°43’33.12""","E127°40’52.87""",담수호습지
151,점늪,경상남도 함안군 칠서면 태곡리,"N35°41’24.69""","E127°41’15.41""",담수호습지
152,송진늪,경상남도 함안군 칠서면 용성리,"N35°38’59.64""","E127°41’29.53""",하도습지
153,마천늪,경상남도 창녕군 부곡면 청암리,"N35°36’37.34""","E127°48’03.93""",하도습지
154,구신늪,경상남도 함안군 칠서면 이룡리,"N35°37’38.28""","E127°48’55.17""",담수호습지
155,한늪,경상남도 함안군 칠서면 이룡리,"N35°29’38.29""","E127°48’43.86""",담수호습지
156,화전습지,경상남도 밀양시 무안면 모로리,"N35°30’53.21""","E127°48’05.19""",하도습지
157,무안습지,경상남도 밀양시 무안면 무안리,"N35°31’09.57""","E127°45’46.04""",하도습지
158,판곡습지,경상남도 밀양시 무안면 삼태리,"N35°33’19.26""","E127°46’45.88""",하도습지
159,지산습지(창녕),경상남도 창녕군 부곡면 구산리,"N35°30’54.30""","E127°47’00.19""",하도습지
160,점촌습지,경상남도 밀양시 무안면 성덕리,"N35°31’34.78""","E127°46’59.49""",하도습지
161,남암습지,경상남도 함안군 칠북면 덕남리,"N35°30’33.16""","E127°44’39.19""",인공수로습지
162,덕남1늪,경상남도 함안군 칠북면 덕남리,"N35°33’43.91""","E128°00’45.78""",담수호습지
163,덕남2늪,경상남도 함안군 칠서면 이룡리,"N35°32’02.80""","E127°59’49.96""",담수호습지
164,이용늪,경상남도 함안군 칠서면 이룡리,"N35°32’54.12""","E128°10’01.80""",담수호습지
165,산남저수지,경상남도 창원시의창구 동읍 금산리,"N35°34’31.67""","E127°59’57.19""",담수호습지
166,정병산습지,경상남도 창원시의창구 동읍 덕산리,"N35°24’39.03""","E128°06’15.56""",소택지
167,주남저수지,경상남도 창원시의창구 동읍 석산리,"N35°25’19.25""","E128°07’40.60""",담수호습지
168,동판저수지,경상남도 창원시의창구 동읍 월잠리,"N35°35’59.47""","E128°14’46.18""",담수호습지
169,보라소습지,경상남도 밀양시 산외면 희곡리,"N35°34’18.21""","E128°17’29.57""",하도습지
170,냉천늪,경상남도 밀양시 삼랑진읍 송지리,"N35°32’43.56""","E128°04’38.38""",하도습지
171,삼랑진늪,경상남도 밀양시 삼랑진읍 송지리,"N35°31’49.96""","E128°06’22.62""",하도습지
172,밀주습지,경상남도 밀양시 상남면 예림리,"N35°33’59.12""","E128°08’19.23""",하도습지
173,도요습지,경상남도 김해시 생림면 도요리,"N35°33’33.46""","E128°07’55.94""",생태수변공원
174,운창늪,경상남도 김해시 진영읍 설창리,"N35°32’33.19""","E128°07’18.36""",하도습지
175,본산늪,경상남도 김해시 진영읍 설창리,"N35°36’38.30""","E128°13’43.00""",하도습지
176,모정습지,경상남도 김해시 한림면 금곡리,"N35°36’12.27""","E128°13’21.51""",하도습지
177,한림정늪,경상남도 김해시 한림면 장방리,"N35°34’00.59""","E128°11’43.81""",하도습지
178,화포습지,경상남도 김해시 한림면 퇴래리,"N35°35’21.97""","E128°11’25.58""",하도습지
179,오산습지(밀양),경상남도 밀양시 상남면 외산리,"N35°34’42.06""","E128°12’48.30""",하도습지
180,감노습지,경상남도 김해시 상동면 감노리,"N35°32’35.20""","E128°17’05.71""",하도습지
181,매리습지,경상남도 김해시 상동면 매리,"N35°34’20.20""","E128°20’30.63""",하도습지
182,회산습지,경상남도 양산시 물금읍 증산리,"N35°30’51.51""","E128°21’58.14""",하도습지
183,원동습지,경상남도 양산시 원동면 용당리,"N35°31’11.68""","E128°21’29.35""",하도습지
184,염막습지,경상남도 김해시 대동면 수안리,"N35°33’55.01""","E128°21’19.34""",하도습지
185,둔치습지,경상남도 김해시 주촌면 농소리,"N35°51’25.76""","E128°42’02.69""",하도습지
186,차등습지,경상남도 김해시 대동면 수안리,"N35°51’56.42""","E128°45’39.47""",하도습지
187,엄궁습지,경상남도 김해시 대동면 수안리,"N35°51’54.25""","E128°44’57.60""",하도습지
188,삼락습지,경상남도 김해시 대동면 수안리,"N35°52’13.51""","E128°44’16.54""",하도습지
189,일웅도습지,경상남도 김해시 대동면 수안리,"N35°50’55.68""","E128°47’18.74""",하도습지
190,모래불습지,경상남도 양산시 상북면 소석리,"N35°50’03.06""","E128°46’04.94""",하도습지
191,와곡습지,경상남도 양산시 상북면 소토리,"N35°51’13.89""","E128°47’32.65""",생태수변공원
192,신전습지(양산),경상남도 양산시 상북면 상삼리,"N35°57’05.99""","E128°48’52.55""",하도습지
193,신불산1습지,경상남도 양산시 원동면 대리,"N35°56’41.6""","E128°49’39.0""",저층습원
194,신불산2습지,경상남도 양산시 상북면 좌삼리,"N35°53’36.44""","E128°50’43.07""",저층습원
195,신불산3습지,경상남도 양산시 상북면 좌삼리,"N35°52’10.84""","E128°47’21.54""",저층습원
196,신불산4습지,경상남도 양산시 원동면 대리,"N35°52’18.44""","E128°48’00.55""",저층습원
197,삼수습지,경상남도 양산시 하북면 백록리,"N35°55’36.3""","E128°48’56.9""",하도습지
198,삼감습지,경상남도 양산시 하북면 용연리,"N35°49’00.53""","E129°29’07.53""",하도습지
199,화엄늪,경상남도 양산시 하북면 용연리,"N35°49’15.72""","E129°30’26.38""",저층습원
200,무제치4늪,울산광역시 울주군 삼동면 조일리,"N35°49’09.09""","E129°27’55.53""",고층습원
201,밀밭늪,경상남도 양산시 하북면 용연리,"N36°00’37.01""","E129°15’46.06""",저층습원
202,안적늪,경상남도 양산시 하북면 용연리,"N35°59’15.26""","E129°15’21.06""",저층습원
203,안적3늪,경상남도 양산시 하북면 용연리,"N35°59’15.51""","E129°17’01.94""",소택지
204,대성늪,경상남도 양산시 하북면 용연리,"N35°49’13.56""","E129°09’46.85""",소택지
205,대성뒷늪,경상남도 양산시 하북면 용연리,"N35°52’00.81""","E129°04’49.24""",소택지
206,대성1늪,경상남도 양산시 하북면 용연리,"N35°43’39.94""","E129°12’15.52""",소택지
207,대성2늪,경상남도 양산시 하북면 용연리,"N35°44’51.18""","E129°12’04.87""",소택지
208,무제치1늪,울산광역시 울주군 삼동면 조일리,"N35°47’19.99""","E129°11’51.64""",저층습원
209,무제치2늪,울산광역시 울주군 삼동면 조일리,"N35°47’31.75""","E129°12’01.81""",저층습원
210,무제치3늪,울산광역시 울주군 삼동면 조일리,"N35°45’08.50""","E129°09’21.07""",저층습원
211,화제늪,경상남도 양산시 동면 석산리,"N35°47’47.19""","E129°14’32.68""",하도습지
212,양산습지,경상남도 양산시 동면 가산리,"N35°46’26.02""","E129°12’00.07""",하도습지
213,학골늪,경상남도 양산시 하북면 백록리,"N35°49’27.58""","E129°13’41.90""",저층습원
214,일광늪,부산광역시 기장군 기장읍 만화리,"N35°55’20.36""","E129°04’07.38""",소택지
215,신덕습지(부산),경상남도 김해시 대동면 초정리,"N36°02’47.48""","E129°14’09.68""",하도습지
216,낙동강하구,경상남도 김해시 대동면 수안리,"N35°58’16.28""","E129°10’07.20""",하구삼각주습지
217,적덕습지,경상북도 봉화군 봉화읍 적덕리,"N35°56’46.63""","E129°14’16.38""",하도습지
218,월호습지,경상북도 영주시 문수면 월호리,"N35°55’58.21""","E129°13’58.74""",하도습지
219,문단보습지,경상북도 영주시 이산면 신암리,"N36°00’33.92""","E129°10’42.41""",하도습지
220,늘못습지,경상북도 봉화군 명호면 관창리,"N35°59’22.79""","E129°12’35.42""",고층습원
221,퇴강습지,경상북도 상주시 함창읍 하갈리,"N35°36’47.18""","E129°26’51.82""",하도습지
222,경천호,경상북도 문경시 동로면 인곡리,"N35°35’56.66""","E129°27’50.64""",담수호습지
223,고평습지,경상북도 예천군 예천읍 고평리,"N35°39’55.16""","E129°22’13.00""",하도습지
224,대왕교습지,경상북도 예천군 호명면 내신리,"N35°40’01.39""","E129°22’13.53""",하도습지
225,달지습지,경상북도 예천군 용궁면 무이리,"N35°40’02.37""","E129°22’29.95""",하도습지
226,회룡포습지,경상북도 예천군 용궁면 대은리,"N35°39’59.10""","E129°22’27.22""",하도습지
227,삼강습지,경상북도 예천군 용궁면 향석리,"N35°40’01.38""","E129°22’21.70""",하도습지
228,오천습지,경상북도 예천군 호명면 월포리,"N35°40’06.14""","E129°22’27.66""",하도습지
229,경진습지,경상북도 예천군 개포면 동송리,"N35°39’48.69""","E129°22’33.25""",하도습지
230,석탑교습지,경상북도 안동시 북후면 석탑리,"N35°39’55.60""","E129°22’33.43""",하도습지
231,탄산리습지,경상북도 영주시 문수면 수도리,"N35°40’05.27""","E129°22’39.47""",하도습지
232,미호교습지,경상북도 예천군 보문면 작곡리,"N35°39’37.18""","E129°22’29.93""",하도습지
233,오신교습지,경상북도 예천군 보문면 오신리,"N35°39’56.14""","E129°22’39.19""",하도습지
234,평은습지,경상북도 영주시 평은면 강동리,"N35°39’47.31""","E129°22’36.39""",하도습지
235,안교습지,경상북도 안동시 남후면 하아리,"N35°39’17.51""","E129°22’50.33""",하도습지
236,병산리습지,경상북도 안동시 풍천면 하회리,"N35°39’36.66""","E129°22’33.17""",하도습지
237,마애리습지,경상북도 안동시 풍산읍 마애리,"N35°40’46.08""","E129°27’39.75""",하도습지
238,구담습지(안동),경상북도 안동시 풍천면 광덕리,"N35°44’52.51""","E129°28’08.11""",하도습지
239,검암습지,경상북도 안동시 풍산읍 회곡리,"N35°44’51.21""","E129°28’36.16""",하도습지
240,월평습지(안동),경상북도 안동시 남후면 무릉리,"N35°45’26.99""","E129°21’21.35""",하도습지
241,송티재습지,경상북도 안동시 도산면 분천리,"N35°46’22.15""","E129°16’32.65""",담수호습지
242,기사리습지,경상북도 안동시 예안면 기사리,"N35°46’30.11""","E129°17’23.63""",담수호습지
243,단사습지,경상북도 안동시 도산면 단천리,"N35°45’30.97""","E129°19’13.90""",하도습지
244,지촌습지,경상북도 안동시 예안면 귀단리,"N35°54’03.87""","E129°19’01.44""",담수호습지
245,벌티습지,경상북도 안동시 임동면 사월리,"N35°50’48.07""","E129°15’24.95""",담수호습지
246,뱃티재습지,경상북도 안동시 임동면 마령리,"N35°50’11.55""","E129°16’42.35""",담수호습지
247,마령습지,경상북도 안동시 임동면 마령리,"N35°54’35.28""","E129°18’56.63""",담수호습지
248,병성천습지,경상북도 상주시 사벌면 금흔리,"N35°22’04.31""","E127°08’42.34""",하도습지
249,낙상습지,경상북도 상주시 사벌면 원흥리,"N35°51’12.29""","E129°12’02.37""",하도습지
250,남천습지,경상북도 상주시 낙동면 운평리,"N35°50’48.60""","E129°13’30.29""",하도습지
251,중덕저수지,경상북도 상주시 사벌면 금흔리,"N35°53’57.78""","E129°13’36.79""",담수호습지
252,단밀습지,경상북도 의성군 단밀면 속암리,"N35°53’12.18""","E129°13’12.83""",하도습지
253,미천 보습지1,경상북도 안동시 일직면 구천리,"N35°53’01.00""","E129°11’23.80""",보습지
254,미천 보습지2,경상북도 안동시 일직면 광연리,"N35°42’25.13""","E128°22’33.04""",보습지
255,미천 보습지3,경상북도 의성군 단촌면 병방리,"N35°42’34.23""","E128°25’49.32""",보습지
256,위천 하도습지,경상북도 의성군 비안면 쌍계리,"N35°42’25.87""","E128°25’30.66""",하도습지
257,쌍계천 보습지,경상북도 의성군 봉양면 구산리,"N35°51’03.83""","E128°24’49.04""",보습지
258,남대천 보습지,경상북도 의성군 의성읍 원당리,"N35°49’32.51""","E128°27’29.27""",보습지
259,장기습지,경상남도 거창군 위천면 장기리,"N35°44’12.57""","E128°16’39.00""",하도습지
260,서당골습지,경상북도 김천시 부항면 유촌리,"N35°40’42.80""","E128°13’45.11""",소택지
261,구남습지,경상북도 김천시 부항면 희곡리,"N35°40’16.98""","E128°11’31.76""",하도습지
262,퉁점습지,경상북도 김천시 부항면 어전리,"N35°39’18.85""","E128°17’24.12""",하도습지
263,고제습지,경상남도 거창군 고제면 개명리,"N35°38’11.24""","E128°22’57.47""",인공호습지
264,학림지습지,경상남도 거창군 고제면 궁항리,"N35°39’29.61""","E128°19’56.16""",인공호습지
265,금천리 보습지,경상남도 함양군 안의면 금천리,"N35°45’54.59""","E128°17’06.30""",하도습지
266,월평리 보습지,경상남도 거창군 거창읍 대평리,"N36°10’08.00""","E128°22’53.34""",보습지
267,임불리 인공호습지,경상남도 거창군 남상면 임불리,"N36°07’52.82""","E128°21’17.47""",인공호습지
268,술곡리 묵논습지,경상남도 합천군 봉산면 술곡리,"N36°13’28.79""","E128°16’51.12""",소택지
269,하금리 인공호습지,경상남도 합천군 대병면 하금리,"N36°16’13.21""","E128°09’07.15""",인공호습지
270,평촌리 하도습지,경상남도 산청군 생초면 갈전리,"N36°12’42.36""","E128°21’14.35""",하도습지
271,율현지 하도습지,경상남도 산청군 신등면 율현리,"N36°16’42.41""","E128°14’31.50""",하도습지
272,하정리 하도습지,경상남도 산청군 신안면 하정리,"N36°13’38.95""","E128°21’19.63""",하도습지
273,당촌리 묵논습지,경상남도 진주시 대평면 당촌리,"N36°11’11.79""","E128°34’16.56""",소택지
274,창촌리 보습지,경상남도 진주시 수곡면 창촌리,"N36°06’33.98""","E128°41’56.53""",보습지
275,신월리 구하도습지,경상남도 하동군 하동읍 목도리,"N36°11’11.39""","E128°38’44.88""",우각호습지
276,진교리 하구염습지,경상남도 하동군 진교면 송원리,"N36°10’19.06""","E128°42’28.98""",하구염습지
277,낭포리 간척호습지,경상남도 하동군 진교면 송원리,"N36°06’56.19""","E128°07’42.17""",간척호습지
278,곤양저수지,경상남도 사천시 곤양면 송전리,"N36°06’15.38""","E128°07’33.06""",인공호습지
279,매촌리 보습지,경상북도 고령군 쌍림면 매촌리,"N36°09’54.57""","E128°11’35.54""",보습지
280,하거리 보습지,경상북도 고령군 쌍림면 신촌리,"N36°08’12.25""","E128°09’14.98""",보습지
281,역평리 묵논습지,경상남도 합천군 대병면 역평리,"N36°01’29.77""","E128°02’25.07""",소택지
282,합천리 하도습지,경상남도 합천군 용주면 성산리,"N36°01’23.14""","E127°59’44.18""",하도습지
283,제내리 하도습지,경상남도 합천군 율곡면 제내리,"N36°07’07.92""","E128°14’23.25""",하도습지
284,월지습지,경상북도 상주시 사벌면 목가리,"N36°07’54.79""","E128°04’59.04""",담수호습지
285,문림리 소택지,경상남도 합천군 율곡면 문림리,"N36°08’14.76""","E128°05’35.55""",담수호습지
286,소오리 보습지,경상남도 합천군 삼가면 소오리,"N35°58’48.44""","E127°56’06.92""",보습지
287,금리 하도습지,경상남도 합천군 삼가면 양전리,"N35°59’49.87""","E127°59’31.68""",하도습지
288,청현리 하도습지,경상남도 산청군 신안면 문대리,"N36°00’56.73""","E127°56’41.15""",하도습지
289,남성저수지습지,경상남도 진주시 명석면 남성리,"N36°01’17.95""","E127°55’21.42""",인공호습지
290,장재못 우각호습지,경상남도 진주시 집현면 장흥리,"N35°59’09.02""","E127°58’09.15""",우각호습지
291,서원못 우각호습지,경상남도 진주시 집현면 장흥리,"N36°07’32.35""","E128°17’23.57""",우각호습지
292,정자리 묵논습지,경상남도 진주시 금곡면 정자리,"N36°07’04.41""","E128°18’58.91""",소택지
293,가진리 하도습지,경상남도 진주시 진성면 가진리,"N36°09’21.76""","E128°14’10.73""",하도습지
294,신당리 하도습지,경상남도 진주시 금산면 장사리,"N36°11’42.99""","E128°14’16.80""",하도습지
295,중항리하구염습지,경상남도 사천시 곤양면 환덕리,"N36°04’36.66""","E128°07’09.15""",하구염습지
296,검우리 하구염습지,경상남도 사천시 곤양면 가화리,"N36°02’29.48""","E128°06’09.96""",하구염습지
297,두문리 보습지,경상남도 고성군 영오면 오서리,"N35°53’28.11""","E128°02’17.44""",보습지
298,성곡리 하도습지,경상남도 고성군 영오면 영산리,"N35°58’39.45""","E128°01’24.37""",하도습지
299,동관습지,경상북도 상주시 화남면 동관리,"N36°36’38.95""","E128°04’40.89""",소택지
300,소곡습지,경상북도 상주시 화남면 소곡리,"N36°35’47.38""","E128°04’00.42""",소택지
301,무동습지,경상북도 상주시 화서면 상현리,"N36°38’02.61""","E128°03’15.12""",인공호습지
302,봉산습지(상주),경상북도 상주시 화서면 금산리,"N36°36’59.07""","E128°01’57.95""",인공호습지
303,화현습지,경상북도 상주시 모서면 화현리,"N36°33’25.55""","E128°00’12.33""",소택지
304,까마실습지,경상북도 김천시 부항면 파천리,"N36°42’42.45""","E128°18’26.78""",소택지
305,파천습지,경상북도 김천시 부항면 파천리,"N36°41’51.23""","E128°07’18.59""",하도습지
306,개골습지,경상북도 김천시 구성면 임천리,"N36°40’10.32""","E128°06’03.56""",인공호습지
307,창락지습지,경상북도 영주시 풍기읍 창락리,"N36°42’21.88""","E128°13’29.92""",담수호습지
308,토골습지,경상북도 영주시 봉현면 두산리,"N36°36’48.11""","E128°16’04.23""",저층습원
309,고항리습지,경상북도 예천군 효자면 고항리,"N36°37’40.05""","E128°17’14.94""",소택지
310,한티습지,경상북도 영주시 봉현면 하촌리,"N36°35’22.01""","E128°14’07.28""",소택지
311,내현습지,경상북도 예천군 효자면 명봉리,"N36°34’18.53""","E128°17’00.75""",저층습원
312,보곡지습지,경상북도 예천군 효자면 보곡리,"N36°34’52.34""","E128°15’17.75""",담수호습지
313,석교습지(문경),경상북도 문경시 마성면 하내리,"N36°31’49.93""","E128°13’39.32""",저습지
314,굴봉산 돌리네습지,경상북도 문경시 산북면 우곡리,"N36°38’19.99""","E128°09’45.47""",담수호습지
315,틀모산못습지,경상북도 문경시 호계면 견탄리,"N36°37’22.30""","E128°12’21.01""",담수호습지
316,작약산습지,경상북도 문경시 가은읍 갈전리,"N36°38’39.00""","E128°10’04.53""",저층습원
317,수예리습지,경상북도 문경시 가은읍 수예리,"N36°48’48.68""","E128°50’35.15""",저습지
318,농암습지,경상북도 문경시 농암면 율수리,"N36°54’02.65""","E128°56’19.55""",저습지
319,팽정습지,경상북도 상주시 함창읍 신덕리,"N36°53’16.20""","E128°44’01.84""",소택지
320,이안습지,경상북도 상주시 이안면 가장리,"N36°52’30.85""","E128°41’21.47""",하도습지
321,대조못습지,경상북도 상주시 함창읍 대조리,"N37°05’28.90""","E129°02’35.65""",담수호습지
322,정자천하천습지,경상북도 경주시 양남면 수렴리,"N37°05’30.30""","E129°02’08.63""",하도습지
323,당사해안습지,경상북도 경주시 양남면 수렴리,"N37°05’24.4""","E129°07’12.1""",하구염습지
324,수도암습지,경상남도 양산시 하북면 지산리,"N37°02’27.34""","E128°57’56.92""",인공호습지
325,통도사습지,경상남도 양산시 하북면 지산리,"N36°30’55.56""","E128°09’35.62""",인공호습지
326,초천하천습지,울산광역시 울주군 웅촌면 초천리,"N36°29’05.46""","E128°07’04.75""",하도습지
327,장군봉산지습지,경상남도 양산시 동면 금산리,"N36°29’12.90""","E128°07’43.60""",고층습원
328,북안하천습지,경상남도 양산시 물금읍 범어리,"N36°17’47.68""","E128°01’20.08""",하도습지
329,여락리습지,경상남도 양산시 동면 여락리,"N36°23’28.16""","E128°09’46.23""",담수호습지
330,소산벌습지,부산광역시 기장군 철마면 웅천리,"N36°24’38.17""","E128°04’47.91""",소택지
331,상곡지습지,부산광역시 기장군 정관읍 매학리,"N36°18’40.19""","E127°57’35.19""",담수호습지
332,금성동습지,경상남도 김해시 대동면 조눌리,"N36°19’39.62""","E127°57’57.91""",저습지
333,장산산지습지(부산),부산광역시 기장군 기장읍 내리,"N36°20’01.38""","E127°56’24.13""",고층습원
334,봉화습지,경상북도 봉화군 봉화읍 내성리,"N36°26’11.84""","E128°13’27.08""",보습지
335,고현습지,경상북도 영주시 안정면 일원리,"N36°26’46.75""","E128°10’52.03""",보습지
336,사미정계곡습지,경상북도 봉화군 법전면 소천리,"N36°30’07.19""","E128°11’18.93""",하도습지
337,소아교습지,경상북도 문경시 마성면 외어리,"N36°27’35.77""","E128°11’28.79""",보습지
338,아호교습지,경상북도 문경시 가은읍 작천리,"N36°28’12.34""","E128°09’26.55""",보습지
339,막곡리습지,경상북도 문경시 호계면 막곡리,"N36°32’40.08""","E128°09’04.46""",하도습지
340,견탄리습지,경상북도 문경시 호계면 별암리,"N36°33’01.33""","E128°06’39.32""",보습지
341,지평지습지,경상북도 상주시 이안면 아천리,"N36°32’58.68""","E128°07’57.05""",인공호습지
342,영순습지,경상북도 문경시 영순면 율곡리,"N36°32’06.02""","E128°12’54.85""",보습지
343,신흥리습지,경상북도 상주시 함창읍 신흥리,"N36°34’44.01""","E128°10’11.29""",보습지
344,금곡리습지,경상북도 상주시 함창읍 금곡리,"N36°31’33.39""","E128°11’03.57""",하도습지
345,공검지,경상북도 상주시 공검면 양정리,"N36°33’00.96""","E128°11’05.76""",인공호습지
346,평지저수지,경상북도 문경시 산양면 평지리,"N36°32’08.71""","E128°15’08.81""",인공호습지
347,안동댐습지,경상북도 안동시 도산면 선양리,"N36°28’47.04""","E127°55’45.48""",인공호습지
348,정상습지,경상북도 안동시 남선면 신석리,"N36°23’48.61""","E127°55’18.50""",하도습지
349,임하습지,경상북도 안동시 임하면 임하리,"N36°34’04.23""","E127°54’53.37""",하도습지
350,포진습지,경상북도 안동시 남선면 이천리,"N36°25’20.47""","E127°55’28.09""",하도습지
351,진실지,경상북도 안동시 남선면 신흥리,"N36°26’43.05""","E127°56’42.55""",인공호습지
352,관덕습지,경상북도 의성군 단촌면 관덕리,"N35°54’17.48""","E128°09’06.22""",보습지
353,쌍계습지,경상북도 의성군 금성면 명덕리,"N35°53’18.35""","E128°09’55.95""",보습지
354,길안습지,경상북도 안동시 임하면 오대리,"N35°55’39.12""","E128°06’40.02""",보습지
355,만음습지,경상북도 안동시 길안면 만음리,"N35°54’58.46""","E128°07’27.42""",보습지
356,묵계소,경상북도 안동시 길안면 묵계리,"N35°55’31.05""","E128°08’48.41""",우각호습지
357,근곡리습지,경상북도 청송군 안덕면 신성리,"N35°53’54.43""","E128°21’08.21""",하도습지
358,장전저수지,경상북도 청송군 안덕면 장전리,"N35°51’25.04""","E128°11’22.92""",인공호습지
359,연화지,경상북도 김천시 봉산면 신리,"N35°48’36.37""","E128°13’44.39""",인공호습지
360,동부습지,경상북도 김천시 개령면 동부리,"N36°26’16.19""","E128°54’11.99""",우각호습지
361,조마습지,경상북도 김천시 조마면 장암리,"N36°24’53.69""","E128°55’07.76""",하도습지
362,광기습지,경상북도 김천시 조마면 신안리,"N36°32’43.36""","E128°46’12.20""",하도습지
363,양금동습지,경상북도 김천시 감천면 금송리,"N36°30’21.52""","E128°46’12.71""",하도습지
364,오봉저수지,경상북도 김천시 남면 오봉리,"N36°32’06.64""","E128°48’16.41""",인공호습지
365,군위습지,경상북도 군위군 군위읍 금구리,"N36°31’14.23""","E128°40’57.24""",보습지
366,나호습지,경상북도 군위군 우보면 나호리,"N36°33’46.15""","E128°33’51.39""",하도습지
367,의흥습지,경상북도 군위군 의흥면 이지리,"N36°44’01.23""","E128°52’55.96""",하도습지
368,성덕저수지,경상북도 청송군 현서면 수락리,"N36°42’48.07""","E128°50’10.27""",인공호습지
369,양항습지,경상북도 영천시 임고면 양항리,"N36°41’40.37""","E128°47’58.73""",하도습지
370,쌍전리1습지,경상북도 울진군 금강송면 쌍전리,"N36°42’59.55""","E128°36’17.36""",소택지
371,쌍전리2습지,경상북도 울진군 금강송면 쌍전리,"N36°41’08.33""","E128°52’47.29""",소택지
372,쌍전리3습지,경상북도 울진군 금강송면 쌍전리,"N36°38’31.66""","E128°51’51.92""",저층습원
373,쌍전리4습지,경상북도 울진군 금강송면 쌍전리,"N36°26’17.88""","E128°40’10.30""",저층습원
374,발리리습지,경상북도 영양군 수비면 발리리,"N36°28’41.74""","E128°39’56.11""",소택지
375,신원리습지,경상북도 영양군 수비면 신원리,"N36°36’02.67""","E128°56’14.46""",담수호습지
376,대흥리습지,경상북도 울진군 울진읍 대흥리,"N36°34’59.46""","E128°57’05.10""",소택지
377,신림리습지,경상북도 울진군 울진읍 신림리,"N36°36’08.94""","E128°54’17.94""",저층습원
378,왕피리습지,경상북도 울진군 금강송면 왕피리,"N36°28’51.81""","E128°53’10.95""",소택지
379,천축산4습지,경상북도 울진군 금강송면 왕피리,"N36°30’54.59""","E128°50’09.89""",저층습원
380,천축산1습지,경상북도 울진군 금강송면 왕피리,"N36°33’02.05""","E128°35’22.63""",저층습원
381,읍남리습지,경상북도 울진군 울진읍 읍남리,"N36°32’45.38""","E128°38’22.50""",소택지
382,산포리습지,경상북도 울진군 근남면 산포리,"N36°32’49.10""","E128°29’41.73""",소택지
383,진복리1습지,경상북도 울진군 근남면 진복리,"N36°31’32.19""","E128°26’27.82""",소택지
384,진복리2습지,경상북도 울진군 근남면 진복리,"N36°32’06.44""","E128°32’07.81""",소택지
385,어천리습지,경상북도 청송군 파천면 어천리,"N36°22’39.73""","E129°22’47.58""",배후습지
386,용전천2습지,경상북도 청송군 파천면 중평리,"N36°22’29.97""","E129°22’49.29""",하도습지
387,용전천3습지,경상북도 청송군 청송읍 송생리,"N36°24’30.67""","E129°23’18.69""",하도습지
388,용전천4습지,경상북도 청송군 부동면 상평리,"N36°19’51.96""","E129°20’33.25""",하도습지
389,대서천3습지,경상북도 포항시 북구 죽장면 하옥리,"N36°21’42.20""","E129°17’24.17""",하도습지
390,대서천2습지,경상북도 포항시 북구 죽장면 하옥리,"N36°34’15.80""","E129°25’06.92""",하도습지
391,영덕오십천1습지,경상북도 영덕군 지품면 오천리,"N36°32’37.01""","E129°23’23.00""",하도습지
392,영창습지,경상북도 영덕군 강구면 하저리,"N36°34’58.58""","E129°24’38.62""",소택지
393,성법소류지습지,경상북도 포항시 북구 기북면 성법리,"N36°34’34.03""","E129°24’06.39""",담수호습지
394,기계천3습지,경상북도 포항시 북구 기북면 오덕리,"N36°35’45.10""","E129°21’22.49""",하도습지
395,저암못습지,경상북도 포항시 북구 기북면 관천리,"N36°24’55.30""","E129°21’45.88""",담수호습지
396,영천호1습지,경상북도 영천시 자양면 용산리,"N36°25’41.59""","E129°21’35.97""",담수호습지
397,영천호2습지,경상북도 영천시 자양면 삼귀리,"N36°26’52.01""","E129°23’44.78""",담수호습지
398,영천호3습지,경상북도 영천시 자양면 노항리,"N36°33’19.62""","E129°24’25.08""",담수호습지
399,기계천구하도습지,경상북도 경주시 안강읍 노당리,"N36°32’22.43""","E129°22’49.57""",우각호습지
400,기계천1습지,경상북도 포항시 북구 기계면 성계리,"N36°32’05.11""","E129°22’28.97""",하도습지
401,숲각단습지,경상북도 포항시 북구 기계면 현내리,"N36°26’07.78""","E129°20’19.93""",간척호습지
402,기계천2습지,경상북도 포항시 북구 기계면 현내리,"N36°28’05.08""","E129°17’49.44""",하도습지
403,덕산서사습지,경상북도 경주시 안강읍 산대리,"N36°34’59.78""","E129°19’25.02""",인공호습지
404,월포습지(포항),경상북도 포항시 북구 청하면 월포리,"N36°35’34.70""","E129°20’02.02""",채굴지습지
405,장자습지(포항),경상북도 포항시 북구 흥해읍 덕장리,"N36°46’24.54""","E129°11’10.98""",담수호습지
406,곡강천하구습지,경상북도 포항시 북구 흥해읍 흥안리,"N36°45’06.33""","E129°13’32.76""",하구염습지
407,배머리못습지,경상북도 포항시 남구 연일읍 생지리,"N36°38’28.96""","E129°05’30.17""",우각호습지
408,천마곡습지,경상북도 포항시 북구 흥해읍 남송리,"N36°39’46.80""","E129°07’48.80""",소택지
409,대서천1습지,경상북도 영덕군 달산면 옥산리,"N36°40’23.09""","E129°07’44.72""",하도습지
410,청옥산습지,경상북도 봉화군 소천면 고선리,"N36°39’28.79""","E129°08’09.56""",고층습원
411,구문소습지,경상북도 봉화군 석포면 대현리,"N36°40’01.37""","E129°08’10.66""",하도습지
412,사군다리습지,경상북도 봉화군 석포면 대현리,"N36°41’01.87""","E129°06’30.69""",하도습지
413,면산습지,경상북도 봉화군 석포면 석포리,"N36°32’36.35""","E129°04’08.85""",저층습원
414,부구습지,경상북도 울진군 북면 부구리,"N36°43’48.34""","E128°37’27.77""",하도습지
415,남양습지,경상남도 남해군 설천면 남양리,"N36°45’35.07""","E128°37’40.51""",소택지
416,문의습지,경상남도 남해군 설천면 문의리,"N36°50’39.85""","E128°28’06.37""",소택지
417,진목습지(남해),경상남도 남해군 설천면 진목리,"N36°46’57.48""","E128°29’02.51""",간척호습지
418,다평습지,경상남도 사천시 서포면 다평리,"N36°50’16.93""","E128°36’34.06""",간척호습지
419,술상습지,경상남도 하동군 진교면 술상리,"N36°51’25.24""","E128°41’09.41""",간척호습지
420,강호습지,경상북도 김천시 아포읍 지리,"N36°44’15.37""","E128°40’47.65""",하도습지
421,샛강습지,경상북도 구미시 고아읍 문성리,"N36°53’06.80""","E128°29’01.46""",배후습지
422,해평습지,경상북도 구미시 고아읍 괴평리,"N35°57’57.19""","E128°57’25.07""",하도습지
423,금오산저수지,경상북도 김천시 아포읍 대성리,"N35°59’00.63""","E128°57’19.02""",인공호습지
424,장제지습지,경상북도 의성군 가음면 장리,"N35°59’57.54""","E129°04’15.29""",담수호습지
425,순호지,경상북도 의성군 가음면 순호리,"N35°59’49.63""","E129°02’06.51""",담수호습지
426,새마습지,경상북도 군위군 산성면 운산리,"N35°55’18.37""","E128°53’55.88""",배후습지
427,하마지습지,경상북도 영천시 신녕면 완전리,"N35°55’21.42""","E128°56’32.85""",담수호습지
428,갈마지못습지,경상북도 영천시 화산면 대기리,"N35°54’21.76""","E128°51’21.25""",인공호습지
429,소월지습지,경상북도 경산시 와촌면 소월리,"N35°57’07.80""","E128°55’18.87""",인공호습지
430,신지습지,경상북도 경산시 하양읍 교리,"N35°56’17.38""","E128°54’01.21""",인공호습지
431,대내지습지,경상북도 영천시 화남면 신호리,"N35°52’30.24""","E128°53’11.54""",담수호습지
432,대산습지(거창),경상남도 거창군 남상면 월평리,"N35°55’38.15""","E128°58’33.48""",하도습지
433,옥매습지,경상남도 함양군 유림면 옥매리,"N36°02’16.28""","E128°47’57.67""",하도습지
434,유림습지,경상남도 함양군 함양읍 백천리,"N36°00’26.37""","E128°58’31.31""",하도습지
435,율림습지,경상남도 함양군 수동면 상백리,"N36°04’02.22""","E129°02’56.96""",하도습지
436,수동농공단지습지,경상남도 함양군 함양읍 백천리,"N36°04’56.76""","E129°03’27.42""",하도습지
437,창평교습지,경상남도 함양군 지곡면 도촌리,"N36°04’59.11""","E129°02’22.62""",하도습지
438,대궁교습지,경상남도 함양군 유림면 대궁리,"N36°05’38.90""","E129°03’53.71""",보습지
439,왕등재습지,경상남도 산청군 삼장면 유평리,"N36°46’28.02""","E129°24’32.85""",고층습원
440,외고개습지,경상남도 산청군 삼장면 유평리,"N36°44’49.17""","E129°27’34.73""",소택지
441,범학늪,경상남도 산청군 신안면 외송리,"N36°52’53.37""","E129°23’47.54""",하도습지
442,오미늪,경상남도 진주시 명석면 오미리,"N36°54’53.97""","E129°22’48.97""",인공호습지
443,다압금천습지,경상남도 하동군 화개면 부춘리,"N36°53’43.71""","E129°24’41.53""",하도습지
444,악양습지(하동),경상남도 하동군 악양면 봉대리,"N36°54’38.90""","E129°24’23.53""",하도습지
445,영당습지,경상남도 하동군 화개면 덕은리,"N37°07’41.37""","E129°21’20.91""",하도습지
446,두곡습지(하동),경상남도 하동군 하동읍 읍내리,"N37°07’41.88""","E129°20’51.77""",하도습지
447,본촌늪,경상남도 사천시 곤명면 본촌리,"N37°06’00.15""","E129°22’15.19""",하도습지
448,완사늪,경상남도 사천시 곤명면 신흥리,"N36°41’33.58""","E129°22’43.75""",하도습지
449,원촌리습지,경상남도 창녕군 고암면 원촌리,"N36°45’43.97""","E129°22’18.04""",담수호습지
450,금천리습지(청도),경상북도 청도군 각북면 금천리,"N36°58’57.14""","E129°18’08.44""",저층습원
451,주리1습지,대구광역시 달성군 가창면 주리,"N36°59’43.38""","E129°19’40.15""",저습지
452,용리습지,대구광역시 달성군 유가면 용리,"N36°59’39.56""","E129°24’30.67""",소택지
453,옥천리습지,경상남도 창녕군 창녕읍 옥천리,"N36°59’38.06""","E129°23’05.85""",소택지
454,우천리습지,경상남도 창녕군 고암면 우천리,"N36°58’41.40""","E129°24’14.38""",소택지
455,고연정저수지,경상남도 창녕군 고암면 억만리,"N37°02’04.75""","E129°23’42.53""",담수호습지
456,호방습지,경상북도 청도군 매전면 호화리,"N37°02’49.29""","E129°23’07.88""",하도습지
457,오진습지,경상북도 청도군 운문면 방음리,"N37°03’37.92""","E129°23’01.07""",하도습지
458,매화습지,경상북도 청도군 청도읍 사촌리,"N37°03’46.60""","E129°23’55.84""",하도습지
459,평능습지,경상남도 밀양시 상동면 안인리,"N36°44’12.74""","E129°25’10.10""",하도습지
460,가곡습지(밀양),경상남도 밀양시 산외면 남기리,"N36°44’28.74""","E129°28’11.76""",하도습지
461,예전습지,경상북도 청도군 매전면 예전리,"N36°43’42.40""","E129°27’09.93""",하도습지
462,내호습지,경상남도 밀양시 상동면 옥산리,"N36°12’21.95""","E128°43’38.82""",하도습지
463,단장습지,경상남도 밀양시 산외면 금곡리,"N36°14’17.56""","E128°43’26.28""",하도습지
464,사자평습지,경상남도 밀양시 단장면 구천리,"N36°16’11.13""","E128°39’07.77""",저층습원
465,사연습지,경상남도 밀양시 단장면 사연리,"N36°21’35.28""","E128°23’50.95""",하도습지
466,생비량삼거리습지,경상남도 산청군 생비량면 가계리,"N36°25’32.69""","E128°40’52.58""",하도습지
467,디디미못,경상남도 함안군 군북면 동촌리,"N36°25’59.05""","E128°42’57.32""",담수호습지
468,못골습지,경상남도 함안군 칠북면 검단리,"N36°17’12.38""","E128°36’45.96""",인공수로습지
469,장수방소류지,경상남도 함안군 칠원읍 운곡리,"N36°19’02.68""","E128°32’00.54""",담수호습지
470,모암소류지,경상남도 창원시의창구 동읍 신방리,"N36°20’00.59""","E128°28’54.57""",담수호습지
471,화양리1습지,경상남도 창원시의창구 동읍 화양리,"N36°22’07.67""","E128°27’44.01""",대체습지
472,화양리2습지,경상남도 창원시의창구 동읍 화양리,"N36°30’43.90""","E128°24’58.93""",인공수로습지
473,화량리3습지,경상남도 창원시의창구 동읍 화양리,"N36°26’06.92""","E128°27’39.90""",소택지
474,단조늪,경상남도 양산시 원동면 선리,"N36°21’00.46""","E128°40’08.80""",고층습원
475,가화늪,경상남도 진주시 명석면 가화리,"N35°43’05.81""","E128°34’34.10""",인공호습지
476,대밭골늪,경상남도 진주시 금산면 속사리,"N35°44’41.64""","E128°53’29.99""",하도습지
477,신담늪,경상남도 진주시 금곡면 정자리,"N35°35’21.09""","E128°48’04.78""",하도습지
478,옥산늪,경상남도 진주시 문산읍 옥산리,"N35°37’41.22""","E128°49’11.24""",하도습지
479,정자늪,경상남도 진주시 문산읍 두산리,"N35°37’55.65""","E128°50’36.16""",하도습지
480,연논늪,경상남도 진주시 문산읍 이곡리,"N35°42’35.08""","E128°57’44.83""",우각호습지
481,주봉저수지습지,경상남도 진주시 금곡면 가봉리,"N35°34’37.13""","E128°47’51.57""",인공호습지
482,소리재못소류지,경상남도 함안군 군북면 사촌리,"N36°18’42.35""","E129°07’32.73""",저층습원
483,기일골소류지,경상남도 함안군 가야읍 혈곡리,"N36°20’03.34""","E129°04’19.54""",담수호습지
484,봉성리습지,경상남도 함안군 함안면 봉성리,"N36°19’37.38""","E129°05’02.79""",소택지
485,미산소류지,경상남도 함안군 함안면 파수리,"N36°17’43.38""","E129°09’29.07""",인공호습지
486,토성저수지,경상남도 김해시 진례면 송정리,"N36°21’03.41""","E129°05’30.47""",인공수로습지
487,도강저수지,경상남도 김해시 진례면 송정리,"N36°21’49.04""","E129°04’40.89""",인공호습지
488,사파정저수지,경상남도 김해시 진례면 신안리,"N36°21’45.85""","E129°11’23.95""",담수호습지
489,고촌천2습지,경상북도 영천시 고경면 전사리,"N36°20’00.21""","E128°59’12.49""",하도습지
490,고촌천1습지,경상북도 영천시 고경면 동도리,"N36°16’12.54""","E128°58’53.97""",하도습지
491,심곡지습지,경상북도 경주시 서면 도리,"N36°33’19.50""","E129°01’05.71""",담수호습지
492,오미지습지(경주),경상북도 경주시 건천읍 신평리,"N36°23’23.54""","E129°04’34.78""",담수호습지
493,이조천 하상습지,경상북도 경주시 내남면 상신리,"N36°29’21.19""","E129°01’07.07""",하도습지
494,배동 구하도습지,경상북도 경주시 내남면 망성리,"N36°25’04.21""","E129°00’53.57""",우각호습지
495,서출지습지,경상북도 경주시 내남면 용장리,"N36°29’20.98""","E129°00’18.67""",담수호습지
496,화랑촌습지,경상북도 경주시 천북면 화산리,"N36°28’16.21""","E129°01’55.28""",소택지
497,산막골습지,경상북도 경주시 천북면 갈곡리,"N36°16’19.70""","E129°03’21.94""",소택지
498,감뒤골습지,경상북도 경주시 감포읍 감포리,"N36°13’48.48""","E128°57’38.13""",소택지
499,호동습지,경상북도 경주시 감포읍 호동리,"N35°57’49.32""","E128°35’16.59""",소택지
500,오류습지,경상북도 경주시 감포읍 오류리,"N35°55’26.01""","E128°39’00.12""",사구습지
501,미역골습지,경상북도 경주시 내남면 노곡리,"N35°59’55.81""","E128°33’16.72""",하도습지
502,이조습지,경상북도 경주시 내남면 노곡리,"N35°57’57.38""","E128°33’53.51""",하도습지
503,삽다리못,울산광역시 울주군 두동면 월평리,"N36°03’05.37""","E128°24’22.89""",인공호습지
504,외바위골늪,울산광역시 울주군 삼남면 가천리,"N35°58’26.61""","E129°22’01.97""",담수호습지
505,떼기늪,경상북도 경주시 양남면 신대리,"N36°00’29.00""","E129°21’03.25""",저습지
506,기백이재늪,경상북도 경주시 양남면 신대리,"N35°58’52.60""","E129°20’59.47""",저습지
507,기령늪,경상북도 경주시 양남면 신대리,"N36°03’23.55""","E129°13’37.97""",저습지
508,고추늪,경상북도 경주시 양남면 신대리,"N36°03’53.06""","E129°12’39.66""",저습지
509,돌티미늪,경상북도 경주시 양남면 신대리,"N36°03’53.19""","E129°12’08.36""",저습지
510,매실긴늪,경상북도 경주시 양남면 신대리,"N36°07’29.14""","E129°09’01.47""",저습지
511,매실큰늪,경상북도 경주시 양남면 신대리,"N36°11’12.83""","E129°12’31.90""",저층습원
512,깊은골늪,경상북도 경주시 양남면 신대리,"N36°08’30.13""","E129°10’44.25""",저습지
513,매실옆늪,경상북도 경주시 양남면 신대리,"N36°13’07.06""","E129°15’28.03""",저층습원
514,신흥재북늪,경상북도 경주시 양남면 신대리,"N36°16’58.14""","E129°14’31.10""",저습지
515,신흥재샛늪,경상북도 경주시 양남면 신대리,"N36°17’28.08""","E129°14’43.46""",저습지
516,창포늪,경상북도 경주시 양남면 신대리,"N36°12’28.28""","E129°21’10.65""",저층습원
517,신흥재남늪,경상북도 경주시 양남면 신대리,"N36°13’05.78""","E129°18’24.40""",저습지
518,감은사못,경상북도 경주시 양북면 용당리,"N36°06’03.02""","E129°23’24.57""",인공수로습지
519,송계습지,경상남도 산청군 생비량면 가계리,"N36°08’34.36""","E129°20’53.19""",하도습지
520,내회습지,울산광역시 울주군 온산읍 삼평리,"N36°06’59.47""","E129°18’48.21""",하도습지
521,용암습지(울주),울산광역시 울주군 청량면 용암리,"N36°07’30.47""","E129°21’11.31""",하도습지
522,회야습지,울산광역시 울주군 청량면 중리,"N36°07’44.06""","E129°24’09.04""",인공호습지
523,하회큰늪,울산광역시 울주군 온양읍 고산리,"N35°50’34.24""","E128°33’35.51""",담수호습지
524,도가늪,경상남도 진주시 문산읍 이곡리,"N35°49’39.07""","E128°37’04.31""",배후습지
525,오산리습지,경상북도 울진군 매화면 오산리,"N35°44’41.91""","E128°36’24.62""",소택지
526,덕신리습지,경상북도 울진군 매화면 덕신리,"N35°46’07.58""","E128°24’14.43""",소택지
527,천축산2습지,경상북도 울진군 금강송면 왕피리,"N35°45’01.64""","E128°24’06.29""",저층습원
528,천축산3습지,경상북도 울진군 금강송면 왕피리,"N35°45’23.46""","E128°23’51.44""",저층습원
529,오산습지(울진),경상북도 울진군 매화면 오산리,"N35°52’43.35""","E128°29’31.07""",소택지
530,매화리습지,경상북도 울진군 매화면 매화리,"N35°53’46.29""","E128°33’21.04""",하도습지
531,말루동습지,경상북도 울진군 울진읍 읍남리,"N35°52’41.47""","E128°28’05.97""",하도습지
532,수산리습지,경상북도 울진군 근남면 산포리,"N35°44’55.88""","E128°29’20.16""",하도습지
533,노음리습지,경상북도 울진군 근남면 노음리,"N35°41’25.67""","E128°27’36.79""",하도습지
534,연호습지,경상북도 울진군 울진읍 연지리,"N35°41’15.78""","E128°28’20.63""",담수호습지
535,선구리습지,경상북도 울진군 온정면 선구리,"N35°41’25.72""","E128°30’02.24""",소택지
536,삼산리습지,경상북도 울진군 기성면 삼산리,"N35°41’00.28""","E128°25’58.18""",소택지
537,사동리습지,경상북도 울진군 기성면 사동리,"N35°49’54.47""","E128°28’44.14""",소택지
538,황보리습지,경상북도 울진군 기성면 황보리,"N35°12’25.74""","E129°09’21.15""",저층습원
539,감천습지,경상북도 영양군 영양읍 감천리,"N35°15’55.02""","E129°12’18.01""",하도습지
540,황룡천 인공습지,경상북도 영양군 영양읍 황용리,"N35°41’58.06""","E129°13’07.32""",담수호습지
541,반변천1습지,경상북도 영양군 영양읍 하원리,"N35°42’21.70""","E129°13’17.98""",하도습지
542,파대지,경상북도 영양군 영양읍 삼지리,"N35°41’01.47""","E129°12’32.37""",담수호습지
543,원당지(영양),경상북도 영양군 영양읍 하원리,"N35°42’44.47""","E129°09’40.01""",담수호습지
544,연지(영양),경상북도 영양군 영양읍 삼지리,"N35°33’47.24""","E129°14’30.03""",담수호습지
545,반변천2습지,경상북도 영양군 입암면 병옥리,"N35°33’30.79""","E129°15’53.18""",하도습지
546,재피골못,경상북도 청송군 진보면 부곡리,"N35°34’33.24""","E129°12’42.99""",담수호습지
547,덕인리습지,경상북도 울진군 온정면 덕인리,"N35°32’17.23""","E129°05’57.11""",소택지
548,오곡리습지,경상북도 울진군 평해읍 오곡리,"N35°27’27.62""","E129°08’07.70""",소택지
549,황보습지,경상북도 울진군 기성면 황보리,"N35°27’46.1""","E129°08’35.6""",하도습지
550,평해습지,경상북도 울진군 평해읍 직산리,"N35°27’36.13""","E129°08’36.15""",하도습지
551,월송습지(울진),경상북도 울진군 평해읍 월송리,"N35°27’26.0""","E129°08’03.1""",사구습지
552,이천리습지,경상북도 영덕군 병곡면 이천리,"N35°34’28.03""","E129°04’50.91""",저층습원
553,열두구부재늪,경상북도 영덕군 창수면 미곡리,"N35°23’54.22""","E129°19’13.96""",소택지
554,미곡늪,경상북도 영덕군 창수면 미곡리,"N35°26’40.76""","E129°15’43.03""",하도습지
555,송천늪(영덕),경상북도 영덕군 영해면 연평리,"N35°27’49.10""","E129°12’46.87""",하도습지
556,고래불습지,경상북도 영덕군 병곡면 덕천리,"N35°28’58.92""","E129°19’44.84""",인공수로습지
557,아곡습지(영덕),경상북도 영덕군 병곡면 원황리,"N35°28’02.76""","E129°16’05.45""",인공수로습지
558,거무역늪,경상북도 영덕군 병곡면 영리,"N36°17’28.08""","E129°14’43.46""",인공수로습지
559,원구늪,경상북도 영덕군 영해면 원구리,"N36°12’28.28""","E129°21’10.65""",하도습지
560,사천리습지,경상북도 영덕군 병곡면 사천리,"N36°13’05.78""","E129°18’24.40""",하도습지
561,원구호습지,경상북도 영덕군 영해면 원구리,"N36°06’03.02""","E129°23’24.57""",담수호습지
562,송강습지,경상북도 청송군 파천면 송강리,"N36°08’34.36""","E129°20’53.19""",하도습지
563,청송호,경상북도 청송군 파천면 신흥리,"N36°06’59.47""","E129°18’48.21""",인공호습지
564,홍원습지,경상북도 청송군 부남면 대전리,"N36°07’30.47""","E129°21’11.31""",하도습지
565,부일습지,경상북도 청송군 부동면 부일리,"N36°07’44.06""","E129°24’09.04""",하도습지
566,구미습지,경상북도 청송군 부남면 홍원리,"N35°50’34.24""","E128°33’35.51""",하도습지
567,신풍저수지,경상북도 청송군 현동면 거성리,"N35°49’39.07""","E128°37’04.31""",인공호습지
568,구천습지,경상북도 청송군 부남면 구천리,"N35°44’41.91""","E128°36’24.62""",하도습지
569,주산지(청송),경상북도 청송군 부동면 이전리,"N35°46’07.58""","E128°24’14.43""",인공호습지
570,화장저수지,경상북도 청송군 부남면 화장리,"N35°45’01.64""","E128°24’06.29""",인공호습지
571,장밭늪,경상북도 영덕군 지품면 옥류리,"N35°45’23.46""","E128°23’51.44""",소택지
572,아랫내습지,경상북도 영덕군 영덕읍 천전리,"N36°17’28.08""","E129°14’43.46""",하도습지
573,구미리습지,경상북도 영덕군 영덕읍 화개리,"N36°12’28.28""","E129°21’10.65""",하도습지
574,자부터늪,경상북도 영덕군 영덕읍 화수리,"N36°13’05.78""","E129°18’24.40""",저층습원
575,금호정화습지원,경상북도 영덕군 강구면 금호리,"N36°06’03.02""","E129°23’24.57""",대체습지
576,우곡늪,경상북도 영덕군 남정면 구계리,"N36°08’34.36""","E129°20’53.19""",소택지
577,금호리습지,경상북도 영덕군 강구면 금호리,"N36°06’59.47""","E129°18’48.21""",하도습지
578,충효습지,경상북도 영천시 자양면 충효리,"N36°07’30.47""","E129°21’11.31""",인공호습지
579,용천리습지,경상북도 포항시 북구 흥해읍 용천리,"N36°07’44.06""","E129°24’09.04""",하도습지
580,곡강천습지,경상북도 포항시 북구 흥해읍 북송리,"N35°50’34.24""","E128°33’35.51""",하도습지
581,안계저수지,경상북도 경주시 강동면 안계리,"N35°49’39.07""","E128°37’04.31""",인공호습지
582,추산습지,경상북도 울릉군 북면 나리,"N35°44’41.91""","E128°36’24.62""",용천습지
583,나리분지습지,경상북도 울릉군 북면 나리,"N35°46’07.58""","E128°24’14.43""",담수호습지
584,나곡리1습지,경상북도 울진군 북면 나곡리,"N35°45’01.64""","E128°24’06.29""",소택지
585,나곡리2습지,경상북도 울진군 북면 나곡리,"N35°45’23.46""","E128°23’51.44""",소택지
586,후정리습지,경상북도 울진군 죽변면 후정리,"N36°17’12.38""","E128°36’45.96""",저층습원
587,화성리습지,경상북도 울진군 죽변면 화성리,"N36°19’02.68""","E128°32’00.54""",소택지
588,봉평리습지,경상북도 울진군 죽변면 봉평리,"N36°20’00.59""","E128°28’54.57""",소택지
589,용장습지(울진),경상북도 울진군 죽변면 화성리,"N36°22’07.67""","E128°27’44.01""",소택지
